{"type":"FeatureCollection","crs":{"type":"name","properties":{"name":"EPSG:4326"}},"features":[{"type":"Feature","id":68099,"geometry":{"type":"Polygon","coordinates":[[[-73.378944739,41.707691359],[-73.378586486,41.707570331],[-73.37830085,41.707454908],[-73.378161196,41.70733423],[-73.378036834,41.707114497],[-73.377898216,41.706675294],[-73.377606036,41.706049619],[-73.377532408,41.705868377],[-73.377467512,41.705407157],[-73.377313744,41.704797541],[-73.377102309,41.7043306],[-73.377087845,41.704160526],[-73.376875748,41.70336495],[-73.37652502,41.702552116],[-73.376400803,41.702085386],[-73.376408344,41.701871112],[-73.376569958,41.701684815],[-73.376775199,41.701536875],[-73.376944071,41.701272838],[-73.376965756,41.701125209],[-73.376892709,41.700861289],[-73.376673503,41.700559225],[-73.376366036,41.700147349],[-73.375978469,41.699735394],[-73.375626672,41.699472127],[-73.375378095,41.699351007],[-73.375114716,41.699284684],[-73.374814622,41.699279277],[-73.37456561,41.69920773],[-73.3742292,41.6990677],[-73.374089453,41.698910826],[-73.373971775,41.698597574],[-73.373751028,41.698038569],[-73.373589524,41.697808398],[-73.373369625,41.697645783],[-73.373076695,41.697504315],[-73.372944824,41.697499366],[-73.37284946,41.697554083],[-73.372791214,41.697684929],[-73.372762524,41.697962094],[-73.372806015,41.698224465],[-73.373034296,41.698734887],[-73.373402001,41.699225861],[-73.373467404,41.699410584],[-73.373453123,41.699686299],[-73.373320968,41.700175515],[-73.373138554,41.700769632],[-73.373124294,41.701071765],[-73.373175121,41.701263768],[-73.373300388,41.7015329],[-73.373278803,41.701977265],[-73.373366959,41.702290335],[-73.373330571,41.702718826],[-73.373462143,41.703190665],[-73.373558009,41.703591171],[-73.373646698,41.704244369],[-73.37357381,41.704661567],[-73.373354521,41.70489757],[-73.373142472,41.705029931],[-73.372915153,41.705074041],[-73.37273937,41.705074304],[-73.372483139,41.704991813],[-73.37214589,41.704838403],[-73.371654215,41.704525793],[-73.371185276,41.70426812],[-73.370863348,41.704136408],[-73.370738569,41.704108606],[-73.370386997,41.703845322],[-73.369968857,41.703417732],[-73.369807681,41.703198188],[-73.369660768,41.703033458],[-73.369279603,41.702666043],[-73.369139958,41.702567309],[-73.368862098,41.702303794],[-73.368392852,41.701963263],[-73.367821162,41.701727739],[-73.367235252,41.701464499],[-73.366890287,41.701267034],[-73.366106429,41.700981692],[-73.365615856,41.700778826],[-73.365212667,41.700570519],[-73.364912399,41.700378812],[-73.364677695,41.700126037],[-73.364604021,41.699983722],[-73.364479274,41.699572213],[-73.364369163,41.699231639],[-73.364302942,41.698885683],[-73.364288368,41.698748714],[-73.364214965,41.698682897],[-73.364075605,41.698660655],[-73.363980435,41.698688605],[-73.363775849,41.698908044],[-73.363739337,41.699039799],[-73.363768691,41.699215283],[-73.363900513,41.699528471],[-73.363922798,41.699802961],[-73.363857226,41.70010485],[-73.363630415,41.700466944],[-73.363315169,41.700747177],[-73.362942534,41.700961506],[-73.36267879,41.701049528],[-73.362275869,41.701159213],[-73.362151609,41.701258158],[-73.361975506,41.701417238],[-73.361836879,41.701521574],[-73.361843631,41.701581915],[-73.361595044,41.701554761],[-73.361550882,41.701604221],[-73.361609438,41.701697392],[-73.361441252,41.701895364],[-73.361353155,41.701994286],[-73.360914353,41.702329199],[-73.360804252,41.702400793],[-73.360665112,41.702499642],[-73.36041619,41.702631145],[-73.359325253,41.702790601],[-73.358702657,41.702785656],[-73.358372642,41.702764071],[-73.358057987,41.702818733],[-73.357838121,41.702901022],[-73.357384389,41.703110444],[-73.357076545,41.703159405],[-73.356776288,41.703187228],[-73.356050658,41.703154338],[-73.355692031,41.703132895],[-73.354563562,41.702853231],[-73.354101935,41.702781895],[-73.353523179,41.702765716],[-73.352842546,41.702771162],[-73.352651611,41.702716586],[-73.352284943,41.70256842],[-73.352102321,41.702398706],[-73.351948099,41.702206205],[-73.351780024,41.70187724],[-73.351632593,41.701701169],[-73.351559583,41.701651808],[-73.351764499,41.701536504],[-73.351764474,41.701509404],[-73.351676715,41.701449142],[-73.351252073,41.701366451],[-73.351090558,41.701102976],[-73.350907083,41.700938754],[-73.350775121,41.700752137],[-73.350518525,41.700181099],[-73.350291058,41.699616082],[-73.350188902,41.699533426],[-73.349917312,41.699368631],[-73.349851326,41.699237074],[-73.349785842,41.699160056],[-73.349660811,41.699226401],[-73.34958091,41.699446024],[-73.349449333,41.699670889],[-73.349448949,41.699802622],[-73.349397758,41.699983674],[-73.349324447,41.699604987],[-73.349360638,41.699484389],[-73.349434335,41.699336325],[-73.349448598,41.699072447],[-73.349257979,41.699001054],[-73.349170099,41.699001511],[-73.349031202,41.699028818],[-73.348950439,41.69910591],[-73.34891359,41.699253955],[-73.34886987,41.699352464],[-73.348818659,41.699358392],[-73.348481642,41.699319832],[-73.348181522,41.699336314],[-73.348115222,41.699369074],[-73.348064644,41.699468134],[-73.348152142,41.699599927],[-73.348167238,41.699945811],[-73.348130155,41.700044288],[-73.348013183,41.70006685],[-73.347969291,41.700022825],[-73.347896345,41.699731955],[-73.347866947,41.699621646],[-73.347705148,41.699424546],[-73.347624431,41.699407639],[-73.347280799,41.699545097],[-73.34724455,41.699759174],[-73.347215167,41.700171327],[-73.347090828,41.700363221],[-73.347134427,41.700127321],[-73.347083304,41.699720731],[-73.347039084,41.699715642],[-73.346995193,41.699671616],[-73.346928879,41.699528908],[-73.346811753,41.699435349],[-73.346702129,41.699435573],[-73.346599211,41.699468352],[-73.346570191,41.699572616],[-73.346540816,41.699638634],[-73.346314012,41.699638778],[-73.346043015,41.699512738],[-73.345515413,41.699381332],[-73.345207955,41.6992716],[-73.345009787,41.699150497],[-73.344724203,41.698980277],[-73.344525948,41.698799654],[-73.344416444,41.698563345],[-73.344357544,41.698080637],[-73.344291619,41.697630382],[-73.344276241,41.697526004],[-73.344268755,41.697059324],[-73.34442995,41.696718876],[-73.344825236,41.696126108],[-73.344905785,41.695851427],[-73.345073898,41.695417632],[-73.345315772,41.695066474],[-73.345491468,41.694835894],[-73.345549704,41.694698374],[-73.345871601,41.694215414],[-73.346134843,41.693874608],[-73.346369713,41.693534631],[-73.346515843,41.693051379],[-73.346808105,41.692458278],[-73.347232712,41.691799657],[-73.347745073,41.691327367],[-73.347986759,41.691008964],[-73.348067136,41.690915581],[-73.348301875,41.690613166],[-73.348433461,41.690366347],[-73.348681507,41.689597486],[-73.34877683,41.689388933],[-73.349113653,41.688966432],[-73.349281485,41.688631087],[-73.349413601,41.688367968],[-73.349830524,41.687774898],[-73.35022591,41.687352262],[-73.350730785,41.68672048],[-73.350855079,41.686528068],[-73.351162376,41.685787195],[-73.351323401,41.685188763],[-73.351366685,41.684700205],[-73.351490841,41.684074351],[-73.351593442,41.683788742],[-73.351922461,41.683344317],[-73.35214971,41.683151539],[-73.352391227,41.683041873],[-73.353086906,41.683003415],[-73.353555162,41.682893076],[-73.35349669,41.683272279],[-73.35336519,41.683574338],[-73.353241124,41.684133815],[-73.35320498,41.684232972],[-73.353095137,41.684502154],[-73.353095143,41.684650182],[-73.353138802,41.684792662],[-73.353095041,41.685155151],[-73.35303714,41.685424404],[-73.353044215,41.685643576],[-73.353183621,41.68621471],[-73.353322628,41.686472812],[-73.353308445,41.68662057],[-73.353286614,41.686708675],[-73.353323408,41.686802135],[-73.353638322,41.686906318],[-73.35382873,41.686982677],[-73.354077678,41.687202469],[-73.354385372,41.687586787],[-73.354744636,41.687783871],[-73.355301395,41.688129657],[-73.355594565,41.68835453],[-73.355719264,41.688524543],[-73.355755642,41.688695191],[-73.355616347,41.688848406],[-73.355374871,41.689013309],[-73.355097056,41.689134322],[-73.354665253,41.689452879],[-73.354599486,41.689589927],[-73.354606476,41.68984838],[-73.354482383,41.690062234],[-73.354291782,41.690260143],[-73.353486877,41.690814783],[-73.353003176,41.691017825],[-73.35260054,41.691227132],[-73.352359355,41.691474188],[-73.352073672,41.691808951],[-73.351854626,41.692001173],[-73.351605531,41.692259417],[-73.351371051,41.692588595],[-73.351063926,41.69305537],[-73.350792977,41.693401033],[-73.350617207,41.693670383],[-73.350251335,41.694170225],[-73.349958942,41.694499186],[-73.349915231,41.694598211],[-73.35011253,41.694872996],[-73.350479375,41.695267822],[-73.350691935,41.695707016],[-73.35072092,41.695723162],[-73.350779739,41.69577311],[-73.351168203,41.695882233],[-73.351600051,41.696030236],[-73.351893195,41.696200573],[-73.352200886,41.696409255],[-73.352714066,41.696639503],[-73.353102112,41.696776752],[-73.353453762,41.696864104],[-73.353548969,41.696864292],[-73.354245382,41.696864075],[-73.35467726,41.696891142],[-73.354933706,41.696880192],[-73.354992449,41.696896863],[-73.355636581,41.696885764],[-73.356068501,41.696819344],[-73.356361616,41.696814029],[-73.356383384,41.696841359],[-73.356361874,41.696890528],[-73.356361806,41.696956394],[-73.35652344,41.69701163],[-73.356787037,41.696835805],[-73.357057327,41.696714658],[-73.357394591,41.696511855],[-73.357547826,41.696330431],[-73.357598925,41.696215241],[-73.357775209,41.695929581],[-73.358067603,41.695677101],[-73.358272921,41.695583737],[-73.359121755,41.695342036],[-73.359385875,41.695198791],[-73.359671411,41.695045311],[-73.360030117,41.694885438],[-73.360271804,41.694863576],[-73.360747893,41.694896046],[-73.360923295,41.694906953],[-73.361722146,41.694972526],[-73.362600598,41.694961344],[-73.362981676,41.69503822],[-73.363457652,41.695010132],[-73.363575032,41.695032149],[-73.363728808,41.695103541],[-73.364066032,41.695333989],[-73.364373719,41.695586722],[-73.364776666,41.695893488],[-73.364982045,41.695975927],[-73.365406615,41.696052905],[-73.365568133,41.69604724],[-73.365795186,41.696074158],[-73.366556984,41.695947618],[-73.366754552,41.696002821],[-73.367267185,41.696194757],[-73.367670608,41.696309576],[-73.3686007,41.696479374],[-73.36868819,41.696462608],[-73.368790822,41.696473551],[-73.368973954,41.696358503],[-73.369068748,41.696171891],[-73.36912037,41.695946231],[-73.369215162,41.695759616],[-73.369346591,41.695551022],[-73.369537059,41.695413982],[-73.370006055,41.695254687],[-73.370349946,41.695199321],[-73.370635748,41.695243409],[-73.370972823,41.695336445],[-73.371170709,41.695352875],[-73.371389736,41.695330598],[-73.371587994,41.695242738],[-73.371763228,41.695116407],[-73.37190957,41.694912876],[-73.372026572,41.694561649],[-73.372033691,41.694254411],[-73.371908622,41.693908606],[-73.37187194,41.693639681],[-73.371879324,41.693288358],[-73.372010752,41.692986109],[-73.372164113,41.692799179],[-73.372442494,41.692667487],[-73.372757312,41.692612614],[-73.373034714,41.692640791],[-73.373327721,41.692745036],[-73.373422062,41.692822571],[-73.373597287,41.692910473],[-73.373809815,41.693069698],[-73.374272641,41.693531168],[-73.374565727,41.693761825],[-73.374668518,41.693860579],[-73.37499475,41.694300489],[-73.375697081,41.695365791],[-73.375923629,41.695766444],[-73.376092158,41.695870672],[-73.376231325,41.695920518],[-73.377014807,41.696003051],[-73.377556668,41.696019827],[-73.377805513,41.696075075],[-73.377856459,41.69634941],[-73.377856963,41.696448548],[-73.377907745,41.69663489],[-73.377907807,41.696782914],[-73.377849036,41.696881863],[-73.377834159,41.697117961],[-73.37788487,41.697485777],[-73.37794335,41.697639658],[-73.37818456,41.697969043],[-73.378374471,41.698507111],[-73.378374314,41.698726833],[-73.378476526,41.698929704],[-73.37861612,41.699116934],[-73.378784333,41.699446373],[-73.378893714,41.699633081],[-73.378923213,41.699748358],[-73.379200693,41.70018183],[-73.379508284,41.700440009],[-73.379786674,41.700730939],[-73.379998525,41.701027891],[-73.38005011,41.701060542],[-73.380144934,41.701208907],[-73.380320604,41.701692159],[-73.380341846,41.701922572],[-73.380276062,41.702477298],[-73.380209372,41.702680062],[-73.380099495,41.702866595],[-73.379996463,41.703168527],[-73.379952859,41.703415588],[-73.380047276,41.703992253],[-73.380332161,41.70443134],[-73.380602912,41.704805155],[-73.380896004,41.705216755],[-73.381181136,41.70556253],[-73.381481368,41.705930866],[-73.381700903,41.706309418],[-73.381751513,41.706452535],[-73.381905101,41.70661687],[-73.382066861,41.706727304],[-73.3821399,41.706776645],[-73.382242411,41.706913816],[-73.382791106,41.707385928],[-73.383047339,41.707677142],[-73.383230409,41.70792965],[-73.383339857,41.70814397],[-73.383486175,41.708336303],[-73.383478991,41.7084679],[-73.383551638,41.708874356],[-73.383522088,41.709176231],[-73.383485152,41.709307991],[-73.383404963,41.709417694],[-73.383331388,41.709477959],[-73.383228637,41.709527236],[-73.383030794,41.709543589],[-73.3827312,41.70947748],[-73.382291382,41.709279895],[-73.381954367,41.709202499],[-73.381001981,41.70892796],[-73.380584815,41.708822867],[-73.380416583,41.708729962],[-73.380263062,41.708619654],[-73.380101531,41.708438894],[-73.379816625,41.70799929],[-73.379684735,41.707900526],[-73.379567407,41.707839761],[-73.378944739,41.707691359]]]},"properties":{"OBJECTID":68099,"HYPOLY_COD":421,"HYDRO_POLY":"Reservoir, Lake, or Pond","AV_LEGEND":"Water","NAMEDP_COD":2,"NAMED_POLY":"Named Waterbody","LAKE_NO":1544,"LAKE":"Lake Waramaug","ACREAGE":640.80798339,"Shape__Area":27913580.278442383,"Shape__Length":48900.994932538277}}]}