{"type":"FeatureCollection","features":[{"type":"Feature","id":4268,"geometry":{"type":"Polygon","coordinates":[[[-72.32438607,44.589842003],[-72.324397963,44.589823663],[-72.324432255,44.589811387],[-72.324483926,44.589799227],[-72.324527141,44.589792994],[-72.324570104,44.589786941],[-72.324647648,44.589756282],[-72.324691192,44.589682555],[-72.324708723,44.589590159],[-72.324767522,44.589427002],[-72.324812143,44.589371815],[-72.324826597,44.589297593],[-72.324817308,44.589245652],[-72.324795625,44.589211062],[-72.324766717,44.589192029],[-72.324718237,44.589190245],[-72.3246797,44.589190275],[-72.324621439,44.589174527],[-72.324590116,44.589121023],[-72.324588282,44.589102662],[-72.324578711,44.589019044],[-72.324610293,44.588986245],[-72.324644127,44.588958759],[-72.324672997,44.588948364],[-72.324735944,44.58895539],[-72.324762632,44.588958851],[-72.324798937,44.588946847],[-72.324835226,44.588898577],[-72.324835408,44.588838012],[-72.324867379,44.588675803],[-72.324869895,44.588592744],[-72.32486783,44.588525426],[-72.324834172,44.58845275],[-72.324832672,44.588448968],[-72.324829903,44.588406577],[-72.324713123,44.588168186],[-72.324678991,44.588001827],[-72.324610606,44.587835415],[-72.324584852,44.587730803],[-72.324404655,44.587601207],[-72.324249718,44.58744708],[-72.32402609,44.587354403],[-72.323888581,44.587268068],[-72.323561774,44.587064359],[-72.323209611,44.586792846],[-72.322482747,44.58637622],[-72.322456824,44.586370061],[-72.322336473,44.586357544],[-72.322276316,44.586345212],[-72.322245707,44.586306827],[-72.322173429,44.586263608],[-72.322106938,44.586263414],[-72.322034072,44.586289219],[-72.322009888,44.586332468],[-72.32195552,44.586362621],[-72.321852761,44.58636246],[-72.32181666,44.586349355],[-72.321792282,44.586332128],[-72.321786428,44.586310791],[-72.321767964,44.586295193],[-72.321742174,44.586245837],[-72.321725323,44.586196674],[-72.320795238,44.586022792],[-72.320192501,44.58595408],[-72.319994693,44.585904542],[-72.319452033,44.585792814],[-72.318961712,44.585656599],[-72.318823733,44.585644051],[-72.318440323,44.58567116],[-72.318276482,44.585714006],[-72.318009304,44.585781255],[-72.317672885,44.585922368],[-72.31744016,44.585965193],[-72.317060971,44.586050799],[-72.316690722,44.586056145],[-72.316354628,44.586012679],[-72.316104591,44.586073832],[-72.316018486,44.586024377],[-72.315881118,44.585937852],[-72.315795002,44.585931774],[-72.31573479,44.585937616],[-72.31551884,44.586011242],[-72.315312308,44.585974011],[-72.315182666,44.586152347],[-72.315173576,44.58631855],[-72.315138595,44.586429275],[-72.3150094,44.586466053],[-72.314905916,44.586416569],[-72.314828782,44.586317991],[-72.314855123,44.586231821],[-72.31485529,44.586139398],[-72.314722285,44.585988444],[-72.314619191,44.585895944],[-72.314524993,44.585698796],[-72.314551463,44.585532622],[-72.314620619,44.585446611],[-72.314732727,44.585317383],[-72.314785224,44.58516358],[-72.314932282,44.584973033],[-72.314976121,44.584689806],[-72.315028296,44.584597558],[-72.315287066,44.584401072],[-72.315369493,44.584219419],[-72.315335495,44.58413945],[-72.315353058,44.584041026],[-72.315404901,44.583973345],[-72.315551731,44.583813575],[-72.315716317,44.583573649],[-72.31578577,44.583352198],[-72.315765291,44.583257852],[-72.315728803,44.583208747],[-72.315681085,44.583126596],[-72.315729553,44.582971256],[-72.315833078,44.582846243],[-72.31583931,44.582746811],[-72.315785266,44.582634592],[-72.315737253,44.582526613],[-72.315676915,44.582414024],[-72.315472316,44.582167653],[-72.315454378,44.582145935],[-72.315394516,44.582042257],[-72.31535242,44.58189541],[-72.315310701,44.581748564],[-72.315208707,44.581549604],[-72.315124527,44.581411238],[-72.315010073,44.581290192],[-72.314949654,44.581203791],[-72.31492599,44.581121769],[-72.314697054,44.580849258],[-72.314666762,44.580831931],[-72.314558524,44.580736632],[-72.314456256,44.580585368],[-72.314341651,44.58047296],[-72.314233373,44.58039062],[-72.314112713,44.580321399],[-72.314046589,44.580247947],[-72.313931903,44.580161457],[-72.313877868,44.580087755],[-72.313865847,44.58002726],[-72.313829734,44.579979864],[-72.313727293,44.579923452],[-72.313660975,44.579871597],[-72.313588696,44.579793635],[-72.313528296,44.579741791],[-72.313510484,44.579681196],[-72.313480511,44.579564606],[-72.313468731,44.579547218],[-72.313390255,44.579478155],[-72.313305889,44.579400263],[-72.313282256,44.579309422],[-72.313239959,44.579227459],[-72.313191843,44.579153946],[-72.313125498,44.579071763],[-72.313119927,44.57900264],[-72.313138169,44.578968202],[-72.31315048,44.578937984],[-72.313144141,44.578912056],[-72.313096334,44.578860052],[-72.31312066,44.578773788],[-72.313126701,44.578696044],[-72.313108958,44.578614031],[-72.313091146,44.57851456],[-72.313061133,44.578410838],[-72.313031651,44.578298659],[-72.31305595,44.578220854],[-72.313116776,44.57813888],[-72.313128874,44.578057006],[-72.313110951,44.577992002],[-72.313062933,44.577888341],[-72.313057291,44.577802028],[-72.313075532,44.577728624],[-72.313094092,44.577594834],[-72.31308263,44.577478004],[-72.31305266,44.577400471],[-72.313046655,44.577309748],[-72.313035097,44.577223246],[-72.312944439,44.577145433],[-72.31292082,44.577011575],[-72.312896981,44.576985438],[-72.312830833,44.576881747],[-72.312782691,44.576777996],[-72.312710137,44.576708852],[-72.312614108,44.576618072],[-72.312578082,44.576544578],[-72.312529998,44.576462336],[-72.312367,44.576367125],[-72.312246505,44.576289263],[-72.312149933,44.57621126],[-72.311993316,44.576090142],[-72.311878683,44.5759906],[-72.311800717,44.575921357],[-72.311698089,44.575847753],[-72.311463145,44.575653071],[-72.311432829,44.575644471],[-72.311324284,44.575609645],[-72.311269907,44.575566358],[-72.311137314,44.575531581],[-72.311064694,44.575483945],[-72.310986548,44.575432069],[-72.310889992,44.575388803],[-72.310841715,44.575328158],[-72.310690866,44.575254563],[-72.310594801,44.57517665],[-72.310443911,44.575116014],[-72.310329129,44.575063807],[-72.310226713,44.575003162],[-72.310051777,44.574942396],[-72.309906735,44.574903367],[-72.309786022,44.57485565],[-72.30962937,44.574786364],[-72.309544931,44.574734387],[-72.309369675,44.574656251],[-72.309218717,44.574617211],[-72.309116134,44.574608401],[-72.309061955,44.574543605],[-72.308983841,44.574482999],[-72.308687845,44.574404749],[-72.30866384,44.57439175],[-72.308585389,44.574357061],[-72.308482879,44.574287775],[-72.308350123,44.574227167],[-72.308247543,44.574179478],[-72.308114674,44.574153337],[-72.308006077,44.574135876],[-72.307891254,44.574135593],[-72.307812593,44.574127001],[-72.307740255,44.5741096],[-72.307649831,44.57407921],[-72.307516921,44.574065937],[-72.307414084,44.574096002],[-72.307299021,44.574130275],[-72.307196467,44.574112823],[-72.307136357,44.574091214],[-72.307009479,44.574043393],[-72.306919055,44.574013002],[-72.306792108,44.573947992],[-72.306725928,44.573896134],[-72.306581129,44.573861332],[-72.30652708,44.573796445],[-72.306430318,44.573779183],[-72.306297366,44.573778867],[-72.306158511,44.573774222],[-72.30608616,44.57376123],[-72.30591094,44.573674449],[-72.305826563,44.573605281],[-72.305754544,44.573492937],[-72.305682481,44.573393372],[-72.305561957,44.573328551],[-72.305386581,44.573289196],[-72.305199298,44.573271598],[-72.305078646,44.573245564],[-72.304855244,44.573223584],[-72.304649885,44.573227552],[-72.304468361,44.57325748],[-72.304359718,44.573291851],[-72.304250572,44.573326221],[-72.304147962,44.573326045],[-72.304015249,44.573330047],[-72.303875958,44.573342767],[-72.303791391,44.57336863],[-72.303755045,44.573394396],[-72.303573892,44.573463199],[-72.303029488,44.57361345],[-72.302896302,44.573682335],[-72.302714858,44.573725219],[-72.302333987,44.573841192],[-72.302140086,44.57391861],[-72.301934387,44.574021836],[-72.301801258,44.574073351],[-72.301517247,44.57417644],[-72.301377711,44.574223804],[-72.30123851,44.574357381],[-72.300996459,44.57448664],[-72.300839325,44.574525153],[-72.300700276,44.574576747],[-72.300633592,44.574637196],[-72.300566857,44.574675866],[-72.300457728,44.574740471],[-72.30036704,44.574787829],[-72.300240248,44.574826394],[-72.300161395,44.574873863],[-72.300064323,44.574947037],[-72.299979493,44.575011774],[-72.299912853,44.575058994],[-72.2999126,44.575132608],[-72.299827682,44.575222992],[-72.299773165,44.575296331],[-72.299082566,44.575882414],[-72.29901576,44.575977329],[-72.298912827,44.576033214],[-72.298785519,44.576110744],[-72.298615957,44.576209797],[-72.298518821,44.576300249],[-72.298506843,44.576378072],[-72.298494302,44.576472993],[-72.298354948,44.576611066],[-72.298207089,44.576695939],[-72.298106459,44.576886186],[-72.298157443,44.577034405],[-72.298171921,44.577071418],[-72.298197252,44.577137428],[-72.298169546,44.577175446],[-72.298171962,44.577750957],[-72.298256532,44.578200442],[-72.298454737,44.579361343],[-72.298479888,44.57958916],[-72.298487215,44.579983163],[-72.298555538,44.580143382],[-72.298632784,44.580235851],[-72.298700046,44.580703754],[-72.298867095,44.580971957],[-72.299107166,44.581317143],[-72.299398593,44.581705436],[-72.29969909,44.582056846],[-72.29991359,44.582297414],[-72.29996006,44.582515999],[-72.2999771,44.582577674],[-72.299967757,44.58280534],[-72.299889345,44.583051424],[-72.299863024,44.583162249],[-72.29977611,44.583463663],[-72.299863936,44.584181152],[-72.299810553,44.584692039],[-72.299852523,44.584938334],[-72.299638626,44.585802882],[-72.299619872,44.586239945],[-72.299514938,44.58676307],[-72.299435374,44.587378483],[-72.299347332,44.587895608],[-72.299299145,44.588540953],[-72.299328763,44.5886076],[-72.299448136,44.588721201],[-72.299716986,44.588910658],[-72.299855335,44.588963187],[-72.300005099,44.588992157],[-72.300084313,44.588991935],[-72.300187594,44.588951169],[-72.300262108,44.588889204],[-72.300436358,44.588791867],[-72.300746777,44.588721584],[-72.300970583,44.588642061],[-72.301057724,44.588606755],[-72.301244097,44.588536075],[-72.301604534,44.588421421],[-72.301852979,44.588279933],[-72.302101615,44.588156264],[-72.302325537,44.588041371],[-72.30263607,44.587935446],[-72.303282726,44.587714729],[-72.30336564,44.587700023],[-72.303371309,44.587699402],[-72.303551894,44.587662636],[-72.303672913,44.587626037],[-72.303828142,44.587564749],[-72.303862789,44.587447727],[-72.303957885,44.587367977],[-72.304052752,44.58735581],[-72.304130264,44.587374482],[-72.304267868,44.587423854],[-72.304353861,44.587467018],[-72.304594547,44.587646066],[-72.304714924,44.587763263],[-72.304783541,44.587843384],[-72.304782964,44.58801581],[-72.304782697,44.588095813],[-72.304799705,44.588206533],[-72.304945792,44.588280757],[-72.305005762,44.588348534],[-72.305272286,44.588409734],[-72.305361482,44.588474951],[-72.305447191,44.588528283],[-72.305542634,44.588570742],[-72.305751717,44.588637063],[-72.305896298,44.588710203],[-72.305956147,44.588815057],[-72.305998702,44.58893194],[-72.306024094,44.589135187],[-72.30601491,44.589245953],[-72.306005958,44.589362929],[-72.305919221,44.58950434],[-72.305573762,44.589848606],[-72.305401046,44.589940644],[-72.30510358,44.590054068],[-72.304965181,44.590127626],[-72.304766921,44.590250398],[-72.304525005,44.59043474],[-72.304361121,44.590483595],[-72.30402433,44.590680013],[-72.303937689,44.590790735],[-72.303739715,44.590827382],[-72.303653509,44.590808786],[-72.303516085,44.590703797],[-72.303464364,44.590654482],[-72.303421813,44.590537418],[-72.303301329,44.590450998],[-72.303163781,44.590383176],[-72.303052157,44.590358415],[-72.302991582,44.590358221],[-72.302948491,44.590401163],[-72.302775874,44.59046242],[-72.302724303,44.59048087],[-72.302569147,44.590480602],[-72.302431182,44.590461825],[-72.302396947,44.590455646],[-72.302275964,44.590480005],[-72.302207118,44.590504544],[-72.302008891,44.590541187],[-72.301775907,44.590651564],[-72.301645513,44.590813415],[-72.30163618,44.590817359],[-72.301445138,44.590962815],[-72.30134029,44.591093213],[-72.301213033,44.591146987],[-72.301161854,44.591160937],[-72.301123682,44.59116456],[-72.301003262,44.59117056],[-72.300813513,44.591194797],[-72.300606762,44.591219005],[-72.300477233,44.591237227],[-72.30037413,44.591261615],[-72.300313238,44.591316944],[-72.300152922,44.591682575],[-72.300113699,44.591772139],[-72.300130488,44.591944595],[-72.300259282,44.592031034],[-72.300336525,44.592129531],[-72.30038772,44.592185056],[-72.300594284,44.592327066],[-72.300662837,44.592425728],[-72.300748876,44.592493643],[-72.300817535,44.592561437],[-72.300972193,44.592672398],[-72.301066692,44.592734208],[-72.301204494,44.592765225],[-72.301290555,44.592790033],[-72.301353894,44.592904075],[-72.301412459,44.592940803],[-72.301658772,44.593062002],[-72.301832314,44.59310181],[-72.301870602,44.593175761],[-72.301939536,44.593237435],[-72.302146126,44.593262452],[-72.302258175,44.593311962],[-72.302524509,44.59347243],[-72.302636454,44.59351564],[-72.302825374,44.593626838],[-72.303006109,44.593737931],[-72.303118054,44.59378123],[-72.3032385,44.593806186],[-72.303350426,44.593855605],[-72.30340173,44.593917158],[-72.303582653,44.593972995],[-72.303642523,44.59407155],[-72.303840283,44.594139565],[-72.303917472,44.594256598],[-72.304064139,44.594312376],[-72.304550121,44.594439468],[-72.304739446,44.594544364],[-72.304842604,44.594655411],[-72.304876552,44.594747802],[-72.304876181,44.594858583],[-72.304875749,44.594987812],[-72.304884109,44.595086458],[-72.304952506,44.595197356],[-72.305124477,44.595332999],[-72.305390713,44.595641229],[-72.305596305,44.595930996],[-72.305699572,44.596048073],[-72.305906133,44.596085411],[-72.306104256,44.596122645],[-72.306138474,44.596134942],[-72.3062591,44.596221359],[-72.306525577,44.596308024],[-72.307007728,44.596419621],[-72.307421232,44.596494383],[-72.307500728,44.596488218],[-72.307515333,44.596489682],[-72.307563327,44.596487873],[-72.307770875,44.596456006],[-72.308012431,44.596461811],[-72.308139272,44.596459415],[-72.308219648,44.596415633],[-72.308292745,44.596325223],[-72.30836612,44.596265141],[-72.308461915,44.596243343],[-72.308486723,44.596244555],[-72.308519717,44.59624614],[-72.308607883,44.596284625],[-72.308630464,44.596350538],[-72.308660989,44.596413584],[-72.308683993,44.596465818],[-72.3087873,44.596534476],[-72.308974907,44.596591575],[-72.309234175,44.596612257],[-72.309800894,44.59663219],[-72.309950935,44.596622451],[-72.310137038,44.596600262],[-72.310319914,44.596563759],[-72.31088092,44.596403422],[-72.311201097,44.596323048],[-72.311454313,44.596267671],[-72.311567704,44.596256969],[-72.311605147,44.596245872],[-72.311700293,44.596190593],[-72.311829445,44.59613537],[-72.31201076,44.596074024],[-72.312174375,44.595994379],[-72.312295161,44.595994578],[-72.31242424,44.596000999],[-72.312648239,44.595982738],[-72.312709006,44.59596448],[-72.312907118,44.595927817],[-72.313096937,44.595885021],[-72.313269493,44.59580539],[-72.313355686,44.595713018],[-72.313381829,44.595651596],[-72.313382026,44.595589951],[-72.313356277,44.595528354],[-72.313356396,44.595491457],[-72.31328758,44.595466776],[-72.313236217,44.595380479],[-72.313115929,44.595343205],[-72.313116146,44.595275531],[-72.313210686,44.595251028],[-72.313348792,44.595269882],[-72.313365736,44.595288268],[-72.313451748,44.595331425],[-72.313469129,44.595331454],[-72.313598021,44.595356412],[-72.313615048,44.595467221],[-72.313580672,44.595504062],[-72.313580455,44.595571826],[-72.313692093,44.595596667],[-72.313778368,44.595596807],[-72.313873208,44.595596962],[-72.314157487,44.595554408],[-72.314580147,44.595444134],[-72.315140886,44.595241929],[-72.315391069,44.595186988],[-72.315951618,44.595003137],[-72.316139954,44.594949535],[-72.316147909,44.594943338],[-72.316361541,44.594855759],[-72.31642258,44.594830479],[-72.316651889,44.594763982],[-72.316796834,44.594690421],[-72.31718507,44.594549574],[-72.317685501,44.594334841],[-72.317840906,44.594218188],[-72.3179016,44.594101204],[-72.317893371,44.593953603],[-72.317936703,44.593830472],[-72.31797153,44.593768972],[-72.317980306,44.593701401],[-72.31798069,44.593578201],[-72.318075719,44.593516798],[-72.318153542,44.593479935],[-72.318291468,44.593394031],[-72.318352168,44.59323394],[-72.318404024,44.593123241],[-72.318421634,44.593049475],[-72.318568509,44.592920389],[-72.318620475,44.592895813],[-72.318730314,44.592890768],[-72.318746097,44.592877744],[-72.318962326,44.592720959],[-72.319030469,44.592677961],[-72.319159828,44.592591952],[-72.31963412,44.592432605],[-72.319780857,44.592346623],[-72.31981628,44.59233597],[-72.32002239,44.59227321],[-72.320082503,44.592260976],[-72.320298073,44.59219355],[-72.320453637,44.592144569],[-72.320617059,44.592120257],[-72.320875693,44.592096005],[-72.321074107,44.592077958],[-72.321315714,44.591979794],[-72.321384679,44.591955243],[-72.321686785,44.591758631],[-72.3218161,44.591685039],[-72.321937029,44.591635821],[-72.322074907,44.591562242],[-72.322178857,44.591463861],[-72.32231701,44.591341056],[-72.322506491,44.591236599],[-72.322610195,44.591218401],[-72.322722356,44.591194007],[-72.323024342,44.591034378],[-72.323144797,44.591015936],[-72.32336915,44.590998015],[-72.323567533,44.590905809],[-72.32370731,44.590827551],[-72.323865744,44.590785408],[-72.324001645,44.590739542],[-72.324056041,44.590701018],[-72.324139306,44.590611154],[-72.324304925,44.590399025],[-72.324319356,44.590291056],[-72.324328607,44.590271812],[-72.324336145,44.590236006],[-72.324336538,44.590105607],[-72.324379472,44.590067336],[-72.324382142,44.590017214],[-72.324345928,44.589956683],[-72.324293081,44.589899546],[-72.324235363,44.589828633],[-72.324204129,44.589745791],[-72.324211223,44.589731853],[-72.324252703,44.589716438],[-72.324293517,44.589712991],[-72.324317953,44.589711409],[-72.324344359,44.589725128],[-72.32434894,44.589751143],[-72.324312672,44.589792394],[-72.32430075,44.589820184],[-72.324317543,44.589847748],[-72.324351341,44.589873808],[-72.324360767,44.589880212],[-72.32438607,44.589842003]]]},"properties":{"OBJECTID":4268,"COMID":null,"GNIS_NAME":"Caspian Lake","AREASQKM":3.1960000000000002,"REACHCODE":"02010005000473","FTYPE":"LakePond"}}]}