{"type":"FeatureCollection","features":[{"type":"Feature","id":12932,"geometry":{"type":"Polygon","coordinates":[[[-74.481965272,41.017287682],[-74.481997988,41.017292452],[-74.482045805,41.017293413],[-74.482184226,41.017284857],[-74.482342781,41.017279163],[-74.482367947,41.017279167],[-74.482405698,41.017280125],[-74.48241286,41.017279351],[-74.482432124,41.01727727],[-74.482448484,41.017273461],[-74.482473652,41.017267746],[-74.48250637,41.017263938],[-74.48255167,41.017265851],[-74.48256803,41.017263947],[-74.482579357,41.017256325],[-74.482632216,41.01722774],[-74.482720174,41.017168569],[-74.482854689,41.017067498],[-74.482867135,41.017059733],[-74.482909611,41.01703881],[-74.482967034,41.01701463],[-74.48303499,41.016993711],[-74.483064776,41.016985656],[-74.483120043,41.016974515],[-74.483158213,41.016959931],[-74.483192198,41.016943808],[-74.483232631,41.016918085],[-74.483315552,41.01686835],[-74.483408991,41.016834556],[-74.483644234,41.016714872],[-74.483663113,41.016700579],[-74.483672555,41.016686284],[-74.483685143,41.016662459],[-74.483682003,41.016638631],[-74.48368201,41.016612421],[-74.4836946,41.016588596],[-74.483741794,41.01656001],[-74.483921121,41.016505233],[-74.484239894,41.016420203],[-74.484335606,41.016376809],[-74.484481131,41.016293248],[-74.4844371,41.016250353],[-74.484496882,41.01620509],[-74.484596918,41.016181271],[-74.48476744,41.016131262],[-74.485085187,41.016047909],[-74.485305805,41.015926784],[-74.48536833,41.015889214],[-74.485425752,41.015860232],[-74.485481031,41.015844111],[-74.485540481,41.015832969],[-74.485585107,41.015818386],[-74.485653053,41.015778257],[-74.485695647,41.015758873],[-74.485746622,41.015739662],[-74.485780593,41.015728346],[-74.485837115,41.015697744],[-74.485890612,41.01560959],[-74.485944263,41.015573795],[-74.486018674,41.015549787],[-74.486129099,41.01551909],[-74.486167388,41.015498166],[-74.486195025,41.015472441],[-74.486231153,41.015435558],[-74.486290622,41.015396797],[-74.486354379,41.015375182],[-74.486403306,41.015367128],[-74.486530717,41.015355823],[-74.486634911,41.015326837],[-74.486700716,41.015289958],[-74.486729599,41.015271437],[-74.486776605,41.015237132],[-74.486819074,41.015183437],[-74.486835964,41.015148434],[-74.486860319,41.015122375],[-74.486903806,41.0150915],[-74.486928611,41.015076743],[-74.486955224,41.015056501],[-74.48701063,41.015042637],[-74.487089283,41.015002139],[-74.487038958,41.014956861],[-74.487189974,41.01486157],[-74.487208846,41.014875868],[-74.487315816,41.014802016],[-74.487340989,41.014771044],[-74.487325276,41.014680499],[-74.487481815,41.01453658],[-74.487565743,41.014474829],[-74.487593377,41.014458703],[-74.487621012,41.014437777],[-74.487646506,41.01442012],[-74.487699621,41.014391119],[-74.487780368,41.014358194],[-74.487863161,41.014322685],[-74.487936097,41.014285122],[-74.487982201,41.014237443],[-74.488092742,41.014148929],[-74.488122424,41.014115134],[-74.488145863,41.014083059],[-74.488154592,41.014071389],[-74.488160707,41.014049263],[-74.488151877,41.014028333],[-74.488150527,41.014001569],[-74.488168078,41.013988188],[-74.48818847,41.013977897],[-74.488212927,41.013972748],[-74.488245766,41.013970356],[-74.488279747,41.01396384],[-74.488307827,41.01397482],[-74.488328218,41.013973796],[-74.488343045,41.013964531],[-74.488362644,41.013935022],[-74.488411455,41.013906047],[-74.488490065,41.013852003],[-74.488535209,41.013819738],[-74.488627673,41.013774414],[-74.48866857,41.013762504],[-74.488712614,41.013741064],[-74.488755086,41.013710093],[-74.488801104,41.013672322],[-74.488855651,41.013636392],[-74.489025655,41.013496427],[-74.489163717,41.013399847],[-74.489263622,41.013337925],[-74.48930393,41.0133122],[-74.489348553,41.013296075],[-74.489435739,41.013279964],[-74.48955467,41.013262296],[-74.489624878,41.013247884],[-74.489636009,41.013243535],[-74.489746064,41.013208624],[-74.489783817,41.013175269],[-74.489818427,41.013127618],[-74.489843601,41.0130752],[-74.489853043,41.013037078],[-74.489853047,41.013010868],[-74.48985305,41.012989646],[-74.489853051,41.012984658],[-74.489865638,41.012964407],[-74.489876648,41.01295845],[-74.489909611,41.012953357],[-74.489945755,41.012948551],[-74.489988224,41.012942044],[-74.490034986,41.012927639],[-74.490081763,41.012894701],[-74.490100788,41.012878574],[-74.490113596,41.012857646],[-74.490119937,41.012831918],[-74.490132733,41.012807729],[-74.490141235,41.01279641],[-74.490210118,41.012770245],[-74.490249443,41.01273689],[-74.490251019,41.012716638],[-74.490257315,41.012690428],[-74.490271474,41.012663028],[-74.49027581,41.012654409],[-74.49028406,41.012638011],[-74.490298217,41.012632055],[-74.490337539,41.012627293],[-74.490392586,41.012635637],[-74.490432778,41.012640324],[-74.490447238,41.012640325],[-74.490489707,41.01263226],[-74.490530027,41.012603436],[-74.490568314,41.012572731],[-74.490602285,41.012545456],[-74.49064056,41.012514921],[-74.490680375,41.012493089],[-74.49071661,41.012484361],[-74.49073863,41.012483171],[-74.490760651,41.012478408],[-74.490798401,41.012462923],[-74.490853998,41.012392412],[-74.490880655,41.012374787],[-74.49094441,41.012334645],[-74.491061299,41.012283872],[-74.491116563,41.012256598],[-74.491163339,41.012224353],[-74.491282253,41.012132749],[-74.491335367,41.012092436],[-74.491373654,41.012058641],[-74.49137796,41.012034452],[-74.491360986,41.012011982],[-74.491352368,41.012002373],[-74.491331196,41.011981442],[-74.491322697,41.011966862],[-74.491322701,41.011942844],[-74.491322704,41.011920195],[-74.491329055,41.011899266],[-74.491348199,41.011876789],[-74.491365179,41.011860671],[-74.49138853,41.011849344],[-74.491405616,41.011841456],[-74.491426791,41.011828418],[-74.491448086,41.011818819],[-74.491473565,41.011810743],[-74.491501195,41.011810745],[-74.491554301,41.011822078],[-74.491590432,41.011822081],[-74.49164139,41.011817285],[-74.491679662,41.011805967],[-74.491715794,41.01179465],[-74.491760416,41.011770636],[-74.491796537,41.011747314],[-74.491844678,41.011729043],[-74.49190277,41.011706995],[-74.491953728,41.01168778],[-74.491983511,41.011676463],[-74.492013296,41.011647476],[-74.49202599,41.011579881],[-74.492036637,41.011525155],[-74.492038796,41.01147214],[-74.49204944,41.011439891],[-74.492068477,41.011418964],[-74.492098261,41.011393237],[-74.492183308,41.011343316],[-74.492342652,41.01127728],[-74.492465861,41.011229081],[-74.492574234,41.011174362],[-74.492669826,41.011123595],[-74.492744221,41.011065775],[-74.492880242,41.01095307],[-74.493018293,41.010861294],[-74.493128819,41.010782566],[-74.493169136,41.010755119],[-74.493213758,41.010729384],[-74.493243541,41.010713257],[-74.493275475,41.010697139],[-74.493317944,41.010676213],[-74.493407186,41.010629551],[-74.493472983,41.010595073],[-74.493558027,41.010553219],[-74.493698227,41.010461442],[-74.493810902,41.010398662],[-74.493861861,41.010361607],[-74.493887352,41.010342391],[-74.493929822,41.010305335],[-74.493953257,41.010278059],[-74.493978736,41.01025868],[-74.494006367,41.010241013],[-74.494023358,41.010232945],[-74.494050988,41.010223337],[-74.49408927,41.010210479],[-74.494144412,41.010181484],[-74.494197534,41.010149238],[-74.494331502,41.01006552],[-74.494452559,41.009990735],[-74.494526962,41.009942531],[-74.494565126,41.009921604],[-74.494592757,41.009897416],[-74.494660813,41.009839425],[-74.494696944,41.009815418],[-74.494735109,41.00979277],[-74.49477338,41.009771843],[-74.494815847,41.009755716],[-74.494862618,41.009736509],[-74.49489026,41.009720382],[-74.494911554,41.009704254],[-74.494932717,41.009685046],[-74.4949492,41.00967182],[-74.494976045,41.009639663],[-74.494987054,41.009630133],[-74.495004355,41.009628942],[-74.495020082,41.009628943],[-74.49502372,41.00962873],[-74.495040528,41.009627752],[-74.495068839,41.009620605],[-74.495090858,41.009608692],[-74.495100295,41.009594397],[-74.495106588,41.009578909],[-74.495113317,41.009560224],[-74.495116026,41.0095527],[-74.495144746,41.009539456],[-74.495164306,41.009526531],[-74.495230208,41.009492744],[-74.495313098,41.009447622],[-74.495378891,41.009417105],[-74.495425661,41.009402509],[-74.495453291,41.009391361],[-74.495502202,41.009362374],[-74.495527693,41.009338186],[-74.495546834,41.009323769],[-74.495570161,41.009309181],[-74.495599942,41.009296322],[-74.495627572,41.009286723],[-74.495657246,41.009276945],[-74.495693365,41.009256188],[-74.495757125,41.009220673],[-74.495808063,41.009194128],[-74.495825364,41.009176258],[-74.495828511,41.009160771],[-74.495826939,41.009144091],[-74.495833232,41.009119073],[-74.495859969,41.009096439],[-74.495905581,41.009076187],[-74.4959449,41.009066658],[-74.495979501,41.009045214],[-74.496016343,41.009011555],[-74.496046125,41.008985656],[-74.496059067,41.00897393],[-74.496073871,41.008953483],[-74.496064436,41.008937995],[-74.496064438,41.008910594],[-74.496070728,41.008907021],[-74.496091174,41.00890583],[-74.49612263,41.008897491],[-74.496169813,41.00887843],[-74.496229578,41.00885818],[-74.496257379,41.008847651],[-74.49629249,41.008834354],[-74.496328663,41.008820059],[-74.496367982,41.008812913],[-74.496434877,41.008795058],[-74.496477451,41.008754749],[-74.49650079,41.008725761],[-74.496524117,41.008688875],[-74.496543247,41.008656627],[-74.496567,41.008595085],[-74.496577215,41.008572114],[-74.496629076,41.008455513],[-74.496644804,41.008432878],[-74.496690435,41.00838361],[-74.496692899,41.008380874],[-74.496721873,41.008320892],[-74.49677063,41.008300641],[-74.496809948,41.008288728],[-74.496861849,41.008273241],[-74.496940637,41.008259981],[-74.49698309,41.00822929],[-74.497025545,41.008179374],[-74.497068132,41.008115039],[-74.497095763,41.008049165],[-74.497121242,41.007997528],[-74.497172199,41.007920334],[-74.497206177,41.007875208],[-74.497291222,41.007820536],[-74.497347841,41.007795519],[-74.497384014,41.007778841],[-74.497418614,41.007756206],[-74.497445352,41.007726423],[-74.497456362,41.007691874],[-74.497476809,41.007646602],[-74.497486247,41.007614436],[-74.497486248,41.00758346],[-74.497486249,41.007558442],[-74.497490968,41.007533424],[-74.497503179,41.007491592],[-74.497539778,41.007433465],[-74.497626863,41.007336874],[-74.497634568,41.007326684],[-74.497674983,41.007304687],[-74.49769071,41.007286816],[-74.497700148,41.007264181],[-74.497703294,41.007245119],[-74.497715876,41.007215335],[-74.497731604,41.007191509],[-74.49773593,41.007178402],[-74.497739469,41.007167681],[-74.497739469,41.007153385],[-74.497720598,41.007124792],[-74.497753625,41.007085478],[-74.497753626,41.007068799],[-74.497722549,41.007054258],[-74.497700155,41.00704378],[-74.497737398,41.007004572],[-74.497765027,41.006988453],[-74.49780534,41.006972496],[-74.497860597,41.006933727],[-74.497892529,41.006896841],[-74.497922192,41.006842115],[-74.497984824,41.006698291],[-74.498002124,41.00667089],[-74.498027288,41.006657786],[-74.498049306,41.006651829],[-74.498141081,41.006613604],[-74.498219675,41.006582905],[-74.498237253,41.006572453],[-74.498310375,41.006545802],[-74.498329268,41.006531911],[-74.498363847,41.006506488],[-74.498398447,41.006468365],[-74.498505735,41.006352068],[-74.498527675,41.00633106],[-74.498541333,41.006314192],[-74.498599755,41.006265836],[-74.498610764,41.006239627],[-74.498615483,41.006214609],[-74.498620202,41.00618959],[-74.498628065,41.006159807],[-74.498640648,41.006133596],[-74.498662191,41.006104222],[-74.498664238,41.00610143],[-74.498670529,41.006081177],[-74.498665811,41.006063306],[-74.498673676,41.006037097],[-74.498711421,41.005958467],[-74.498794775,41.005869116],[-74.498840382,41.005844098],[-74.49885611,41.005826228],[-74.498867119,41.005794061],[-74.498889137,41.005769043],[-74.498898573,41.005727346],[-74.498919018,41.005702328],[-74.4989489,41.0056785],[-74.499005516,41.005618933],[-74.499050187,41.005583654],[-74.499128704,41.005542183],[-74.499181656,41.005522435],[-74.499252257,41.005491813],[-74.499276016,41.005484311],[-74.499293315,41.005455719],[-74.499296872,41.005444942],[-74.499302752,41.005427126],[-74.499340496,41.005391386],[-74.499463164,41.005310374],[-74.499562242,41.00524485],[-74.499672329,41.005159072],[-74.499711645,41.005135245],[-74.49973838,41.005109036],[-74.49993968,41.005011344],[-74.500016739,41.004991091],[-74.500056056,41.004970838],[-74.500092226,41.004951776],[-74.50012368,41.004920801],[-74.500144123,41.004893399],[-74.500175577,41.004865998],[-74.500211747,41.004838597],[-74.500268362,41.00480643],[-74.500334414,41.004765924],[-74.500389456,41.004758775],[-74.500424054,41.004752819],[-74.500450789,41.004740905],[-74.500497968,41.00471946],[-74.50052313,41.004703972],[-74.500576149,41.004687694],[-74.500587255,41.004687051],[-74.500630728,41.004683106],[-74.500656804,41.004665849],[-74.500674103,41.004637256],[-74.500675675,41.004613428],[-74.500681966,41.00458841],[-74.500685111,41.004568156],[-74.50070241,41.004549095],[-74.500743298,41.004500249],[-74.500771605,41.004484761],[-74.500837656,41.004459742],[-74.500862818,41.00444068],[-74.50093044,41.004391834],[-74.500960321,41.004382303],[-74.501005926,41.00437992],[-74.501058991,41.004371643],[-74.501059397,41.00437158],[-74.501081412,41.004358475],[-74.501099511,41.004347049],[-74.501111432,41.004338286],[-74.501156899,41.004304862],[-74.501200931,41.004270313],[-74.501237101,41.004229806],[-74.501265408,41.00419764],[-74.50132674,41.004155941],[-74.501355046,41.004134496],[-74.501389644,41.004099946],[-74.50141166,41.004080884],[-74.501466702,41.004055865],[-74.501565776,41.003992721],[-74.501600373,41.00396532],[-74.501623962,41.003940301],[-74.501688438,41.003910516],[-74.501696301,41.003900986],[-74.501741885,41.003856516],[-74.501813605,41.003816156],[-74.501864569,41.003797335],[-74.501927473,41.003780654],[-74.501955781,41.003767549],[-74.50199195,41.003748487],[-74.502026547,41.003723468],[-74.502035981,41.003705597],[-74.502053281,41.00368296],[-74.502086304,41.003659133],[-74.502130337,41.003641261],[-74.502169652,41.003624582],[-74.502197958,41.003604329],[-74.502267153,41.003569777],[-74.502413403,41.003506632],[-74.502476307,41.003473273],[-74.502514049,41.003453019],[-74.502562291,41.003409745],[-74.502575949,41.003399397],[-74.502627058,41.003378547],[-74.502660893,41.003367992],[-74.50269762,41.003354247],[-74.502707476,41.003350558],[-74.502745217,41.003319582],[-74.502773523,41.003290988],[-74.502792394,41.003271926],[-74.502830135,41.00324929],[-74.502878885,41.003232609],[-74.502897756,41.003224269],[-74.502935497,41.003205207],[-74.502988966,41.003173038],[-74.503019428,41.003151966],[-74.503128923,41.00310751],[-74.503210697,41.003071767],[-74.503250011,41.00304913],[-74.503256301,41.003030068],[-74.503273597,41.002984796],[-74.503274588,41.002976536],[-74.503279886,41.002932376],[-74.503287746,41.0029014],[-74.503289318,41.002876382],[-74.503308187,41.002845406],[-74.503345331,41.002808406],[-74.503385812,41.002782847],[-74.503480165,41.002726256],[-74.503511614,41.002651794],[-74.503520028,41.0026152],[-74.50354249,41.00257496],[-74.50355507,41.002564237],[-74.503569223,41.002539219],[-74.503581396,41.002498117],[-74.503611362,41.002472908],[-74.503747487,41.002377774],[-74.503818251,41.002347988],[-74.503861496,41.002330116],[-74.503892947,41.002297353],[-74.503908671,41.002273525],[-74.503920464,41.002246719],[-74.503967639,41.002213955],[-74.504101305,41.002163317],[-74.50414455,41.002136511],[-74.504168137,41.002112682],[-74.50417993,41.002094811],[-74.504195655,41.002073962],[-74.504219242,41.002062048],[-74.504250694,41.002047155],[-74.50427821,41.001990564],[-74.504314269,41.001926797],[-74.504328307,41.001910343],[-74.504354006,41.001899707],[-74.504369281,41.001895753],[-74.504391034,41.001890952],[-74.504411527,41.001880316],[-74.504474929,41.001820093],[-74.504506975,41.001792985],[-74.504563247,41.001761932],[-74.504610568,41.001743577],[-74.504629813,41.001740658],[-74.504650306,41.001732769],[-74.504666959,41.001721277],[-74.504673294,41.001706688],[-74.504675896,41.001686272],[-74.504693783,41.00164064],[-74.504735443,41.001569963],[-74.504755935,41.001546628],[-74.504805871,41.001520375],[-74.504848104,41.001495158],[-74.504934721,41.001448469],[-74.505009409,41.001338265],[-74.505076234,41.001219126],[-74.505154855,41.001135727],[-74.505237411,41.001073177],[-74.505331755,41.000968929],[-74.50538679,41.000912337],[-74.505416433,41.000852136],[-74.505426286,41.000829667],[-74.505429221,41.000823147],[-74.505434319,41.000796031],[-74.505445871,41.000773732],[-74.505492512,41.000729126],[-74.505571546,41.000685969],[-74.505634444,41.000641291],[-74.505669821,41.000593634],[-74.505689474,41.000537044],[-74.505710106,41.000489459],[-74.505792417,41.000424948],[-74.505837477,41.000389599],[-74.505948352,41.000298173],[-74.505973509,41.000263622],[-74.506019109,41.000218348],[-74.5060537,41.000176649],[-74.506119743,41.000128991],[-74.50617006,41.000093247],[-74.506196791,41.000068227],[-74.506236102,41.000037249],[-74.506278556,40.999996741],[-74.50634617,40.9999467],[-74.506380762,40.999909766],[-74.506390195,40.999887129],[-74.506407489,40.999851388],[-74.506429501,40.999812072],[-74.506448443,40.999776189],[-74.50652856,40.9997108],[-74.506575731,40.999666717],[-74.506627621,40.999626208],[-74.506657495,40.999596423],[-74.50668737,40.999559489],[-74.5067141,40.999532086],[-74.506721961,40.999514216],[-74.506742402,40.999495152],[-74.506771244,40.999480653],[-74.50679094,40.999469665],[-74.506823662,40.999447195],[-74.506841205,40.99943518],[-74.506901099,40.999405845],[-74.506955668,40.999376502],[-74.50697441,40.999366016],[-74.50698754,40.999358116],[-74.507064748,40.999311663],[-74.507116637,40.999269962],[-74.507137077,40.999244943],[-74.507151226,40.999216349],[-74.507163804,40.999197287],[-74.507185817,40.999178223],[-74.50720154,40.99915797],[-74.507207829,40.99914129],[-74.50722198,40.999129376],[-74.507240848,40.999115078],[-74.507269151,40.999088866],[-74.507275439,40.999070996],[-74.507308459,40.999043593],[-74.507341477,40.999011424],[-74.507376069,40.99898402],[-74.507390219,40.998955427],[-74.507416949,40.998935172],[-74.507442108,40.998918491],[-74.507446824,40.99890896],[-74.507453111,40.998889898],[-74.507473552,40.998874408],[-74.507501856,40.998855345],[-74.507527014,40.998839855],[-74.507541165,40.998826749],[-74.507556888,40.998808878],[-74.507577328,40.998789815],[-74.507608775,40.998767177],[-74.507649657,40.998740965],[-74.507729851,40.998706409],[-74.507772307,40.998693302],[-74.507802184,40.998679003],[-74.507821052,40.998665897],[-74.507846209,40.998644452],[-74.507885516,40.998599177],[-74.507901235,40.998551521],[-74.507923246,40.998522927],[-74.507945259,40.998502672],[-74.507992431,40.998475268],[-74.508069477,40.998424035],[-74.508188977,40.998347779],[-74.508196838,40.998335864],[-74.508217278,40.99831561],[-74.50825816,40.998295354],[-74.508299042,40.998270332],[-74.508341495,40.998241737],[-74.508350929,40.998233396],[-74.508377661,40.998228629],[-74.508404392,40.998217904],[-74.508438985,40.998202415],[-74.508475149,40.998182159],[-74.508494017,40.998163096],[-74.508506593,40.998141651],[-74.508509736,40.99812378],[-74.508519169,40.998104717],[-74.508541182,40.998085653],[-74.508574202,40.998070163],[-74.508610365,40.998043951],[-74.508622943,40.998032036],[-74.508655965,40.998021312],[-74.50866697,40.998012971],[-74.508681121,40.998001057],[-74.50871257,40.997993906],[-74.508734584,40.9979808],[-74.508755023,40.997956971],[-74.50879433,40.997920036],[-74.508810052,40.99789859],[-74.508818046,40.99788778],[-74.508869798,40.997840209],[-74.50891068,40.997819952],[-74.508956277,40.997790164],[-74.50898615,40.997757996],[-74.509020737,40.99770319],[-74.509031741,40.997684128],[-74.509058471,40.99766149],[-74.509083629,40.997650766],[-74.509115077,40.997640041],[-74.509140235,40.99762336],[-74.509182685,40.997574511],[-74.509201552,40.99755783],[-74.509223565,40.997545915],[-74.509248721,40.997522086],[-74.509256581,40.997505406],[-74.509281738,40.997487534],[-74.509308467,40.997467278],[-74.509335197,40.997447023],[-74.5093462,40.997424386],[-74.509354056,40.997377922],[-74.509363487,40.99735052],[-74.509396504,40.997315969],[-74.509432665,40.99727665],[-74.509487692,40.997212313],[-74.509519137,40.9971861],[-74.509574169,40.99714678],[-74.509594608,40.997124143],[-74.509608757,40.997106272],[-74.509622906,40.997086017],[-74.50965278,40.997060996],[-74.509696802,40.99702406],[-74.509726467,40.996977143],[-74.509788579,40.996927621],[-74.509843608,40.996882939],[-74.509875051,40.996841239],[-74.509926152,40.996811451],[-74.509953665,40.996781665],[-74.509977247,40.996751878],[-74.509992969,40.996731028],[-74.510032277,40.996710176],[-74.510099103,40.996686343],[-74.510174831,40.996624134],[-74.510248666,40.996572487],[-74.51031313,40.996527209],[-74.510346148,40.996509336],[-74.510372877,40.996487889],[-74.510427907,40.996453334],[-74.510477694,40.996421562],[-74.510487654,40.996415206],[-74.510570984,40.996361586],[-74.51061029,40.996329416],[-74.510679471,40.996282947],[-74.510737646,40.996250775],[-74.510791104,40.996222177],[-74.510824118,40.996181667],[-74.510834624,40.996162449],[-74.510835426,40.996161262],[-74.510921585,40.996033929],[-74.510976613,40.995982696],[-74.510990758,40.995945762],[-74.511052066,40.995840916],[-74.511099224,40.995756326],[-74.511158963,40.99567769],[-74.511220276,40.995608585],[-74.511261152,40.995564501],[-74.511297309,40.995513269],[-74.51132517,40.99546748],[-74.511335521,40.995456105],[-74.511423038,40.995390042],[-74.511437964,40.995374434],[-74.511443976,40.995360709],[-74.511448832,40.995328973],[-74.511465811,40.995294147],[-74.511494784,40.995262057],[-74.511535416,40.995229803],[-74.511610469,40.995190847],[-74.51169957,40.995147269],[-74.51173104,40.995122906],[-74.511744396,40.995100426],[-74.511760447,40.995059594],[-74.511774135,40.995022806],[-74.511840005,40.994928376],[-74.511934339,40.994865461],[-74.511947543,40.994844016],[-74.511966406,40.994809703],[-74.511995427,40.994765871],[-74.512015129,40.994740986],[-74.512087467,40.994676814],[-74.51211113,40.994665321],[-74.51218742,40.994635982],[-74.512308896,40.994589995],[-74.512429684,40.994545369],[-74.512614434,40.994460084],[-74.512662876,40.994431603],[-74.512686761,40.994406385],[-74.512713474,40.9943719],[-74.512721623,40.994348052],[-74.512724672,40.994316829],[-74.512725905,40.994239282],[-74.512730653,40.994207204],[-74.512752501,40.99415659],[-74.512793684,40.994088819],[-74.512838503,40.994017274],[-74.512846084,40.994005269],[-74.512908459,40.993938179],[-74.512931427,40.993898723],[-74.512934837,40.993859742],[-74.512935044,40.993857378],[-74.51292994,40.993832154],[-74.512919416,40.993808128],[-74.512918382,40.993806084],[-74.512903304,40.993754538],[-74.512903296,40.993713109],[-74.51289235,40.993661323],[-74.512862266,40.993611611],[-74.512815783,40.993584687],[-74.512681806,40.993520486],[-74.512528692,40.993454215],[-74.512446664,40.993408652],[-74.512378309,40.993371372],[-74.512293544,40.993307166],[-74.512262573,40.993286508],[-74.512215363,40.993281884],[-74.5122103,40.993281973],[-74.512157171,40.993282908],[-74.512122075,40.993293042],[-74.51211517,40.993297339],[-74.512074851,40.993439763],[-74.512039331,40.993557841],[-74.512001066,40.993613775],[-74.511994051,40.993621624],[-74.511961269,40.993658307],[-74.511888597,40.993708746],[-74.511863129,40.993728137],[-74.511836534,40.993758849],[-74.511720294,40.993906571],[-74.511700257,40.993922702],[-74.511680219,40.993930079],[-74.511660858,40.993935575],[-74.511642758,40.993945698],[-74.51162883,40.993958047],[-74.511616031,40.993966801],[-74.511600972,40.993971432],[-74.511574825,40.993976405],[-74.511551851,40.993987052],[-74.511530674,40.994002148],[-74.511411025,40.994101662],[-74.511389526,40.994115901],[-74.511368359,40.99412654],[-74.511358389,40.994136149],[-74.511349908,40.994169606],[-74.511336899,40.994200829],[-74.511311991,40.994231712],[-74.511256874,40.994284382],[-74.511247808,40.994299998],[-74.511242378,40.994318865],[-74.511236272,40.99433585],[-74.51122597,40.994353692],[-74.511200848,40.994385439],[-74.511152398,40.994432272],[-74.511107,40.994469335],[-74.511033768,40.994518927],[-74.51089441,40.994613462],[-74.510865317,40.994637483],[-74.510831473,40.994675057],[-74.510786315,40.99473013],[-74.510771153,40.994754834],[-74.510738212,40.994795839],[-74.510718746,40.99481506],[-74.510688513,40.994841124],[-74.510658183,40.994860867],[-74.510611307,40.994882494],[-74.510588214,40.994889358],[-74.510561614,40.994891414],[-74.510547006,40.994892613],[-74.510485306,40.994891249],[-74.510439556,40.994884905],[-74.510397787,40.994870671],[-74.510363825,40.994848548],[-74.510354993,40.994843568],[-74.510342976,40.994836878],[-74.510321365,40.994824705],[-74.510279585,40.994814244],[-74.510242679,40.994810987],[-74.51019479,40.994810478],[-74.510167275,40.994811507],[-74.510159002,40.99481185],[-74.510125163,40.994813222],[-74.510099692,40.994813224],[-74.510096411,40.994812882],[-74.510081577,40.994811344],[-74.510065162,40.99480723],[-74.510032092,40.994794021],[-74.510011599,40.994783045],[-74.509984317,40.994757309],[-74.509962468,40.994732951],[-74.509920336,40.994679264],[-74.509898262,40.994665874],[-74.509876415,40.994660392],[-74.509833388,40.994657649],[-74.509791502,40.99466057],[-74.509787425,40.994660904],[-74.50974497,40.994668292],[-74.509713498,40.994678759],[-74.509684403,40.99469163],[-74.509624742,40.994728864],[-74.509522191,40.994817911],[-74.509498529,40.994838499],[-74.509376394,40.994958428],[-74.509268058,40.995076292],[-74.50923444,40.995125024],[-74.509195058,40.995185067],[-74.509178622,40.995203422],[-74.509154413,40.995218175],[-74.509124188,40.995229677],[-74.509062146,40.995249062],[-74.509044259,40.995259015],[-74.509018231,40.995278235],[-74.508995127,40.995291106],[-74.508975206,40.995295223],[-74.508924263,40.995296596],[-74.508923586,40.995296767],[-74.508893348,40.995299858],[-74.508850321,40.99530757],[-74.508698971,40.995351682],[-74.50866172,40.995354945],[-74.508618705,40.995358217],[-74.508567763,40.995367821],[-74.508532772,40.995379828],[-74.508380294,40.995431999],[-74.508345184,40.995442124],[-74.508320389,40.995441261],[-74.508302167,40.995434399],[-74.508270689,40.99541468],[-74.508250661,40.995410566],[-74.508244991,40.995410567],[-74.508219175,40.995410902],[-74.508192575,40.995418801],[-74.508144118,40.995439392],[-74.508091704,40.995458262],[-74.50805355,40.995465118],[-74.50803351,40.995464615],[-74.508008038,40.995461528],[-74.50798505,40.995459134],[-74.50795902,40.995460162],[-74.507926299,40.995469251],[-74.507889395,40.995487274],[-74.507809245,40.995565681],[-74.507787282,40.995587296],[-74.507772117,40.995595015],[-74.507753325,40.995596907],[-74.507726153,40.995593307],[-74.507695689,40.995589707],[-74.507687321,40.995588663],[-74.507657652,40.995588665],[-74.507631052,40.995596916],[-74.507565182,40.995623903],[-74.507538945,40.995655147],[-74.507542697,40.995672188],[-74.507617705,40.995987447],[-74.507636461,40.996095375],[-74.507621471,40.996132299],[-74.507561499,40.996200466],[-74.507527764,40.996234551],[-74.50751652,40.996251594],[-74.507516522,40.996268635],[-74.507516524,40.996285677],[-74.507496289,40.996337704],[-74.507483621,40.996362407],[-74.507478169,40.996395512],[-74.507472978,40.996423997],[-74.50745962,40.996439947],[-74.507438453,40.996456077],[-74.50741423,40.996466714],[-74.507377324,40.996473579],[-74.507338492,40.996475301],[-74.507313126,40.996473069],[-74.507293764,40.996470324],[-74.507253683,40.996464842],[-74.507219045,40.996457118],[-74.507074457,40.996424535],[-74.507063819,40.996422131],[-74.507008107,40.996409266],[-74.506977772,40.996396408],[-74.506940185,40.996369817],[-74.506915388,40.996341856],[-74.506888438,40.996305656],[-74.506831478,40.996176141],[-74.506803279,40.996130673],[-74.506783915,40.996111979],[-74.506757193,40.996096365],[-74.50673115,40.996084875],[-74.506701114,40.996076833],[-74.506660292,40.996050559],[-74.506650854,40.996021966],[-74.506660286,40.995987654],[-74.506679152,40.995959061],[-74.506705566,40.995927607],[-74.506739526,40.995887576],[-74.506781035,40.995856121],[-74.506858391,40.995781776],[-74.506898011,40.995730307],[-74.506979131,40.995563035],[-74.506958367,40.995491555],[-74.506954586,40.995428651],[-74.506964015,40.995372894],[-74.506975335,40.995354308],[-74.507114956,40.995267093],[-74.507172711,40.995232553],[-74.507198181,40.995220205],[-74.507279107,40.995178445],[-74.507318728,40.99514842],[-74.507356462,40.995114107],[-74.50740174,40.995048341],[-74.507452683,40.995016886],[-74.507488529,40.994961127],[-74.507535694,40.994909657],[-74.507560221,40.994879633],[-74.507571538,40.994841033],[-74.507582856,40.994812439],[-74.507607381,40.994776697],[-74.507647002,40.994738094],[-74.50767719,40.994723796],[-74.507688081,40.994711189],[-74.507715967,40.99467891],[-74.507734761,40.994636367],[-74.507750831,40.994599992],[-74.50776905,40.994581124],[-74.507796895,40.994554529],[-74.507848298,40.994524672],[-74.507886224,40.994512323],[-74.5081036,40.994505033],[-74.508222471,40.994492157],[-74.508294465,40.994481585],[-74.508321182,40.99446957],[-74.5083445,40.994451728],[-74.508362611,40.994427367],[-74.508365095,40.994424278],[-74.50837347,40.994393919],[-74.508369284,40.994375044],[-74.508359548,40.99436132],[-74.508349241,40.994342445],[-74.508343795,40.994324092],[-74.508342663,40.994302118],[-74.508396205,40.994182377],[-74.508413746,40.994164878],[-74.508475894,40.994140513],[-74.508489145,40.99412903],[-74.508544952,40.994067086],[-74.508592241,40.994041796],[-74.508608211,40.994015976],[-74.508843161,40.993787302],[-74.50885259,40.99375442],[-74.508871441,40.993624322],[-74.508960124,40.993627175],[-74.508969555,40.993594292],[-74.508977099,40.993574276],[-74.509020488,40.993511369],[-74.509137453,40.993369826],[-74.509166939,40.993324024],[-74.509192298,40.993285425],[-74.509219013,40.993256947],[-74.509267797,40.993210105],[-74.509289531,40.993178026],[-74.509293832,40.993167561],[-74.509296206,40.993144569],[-74.509294726,40.993101334],[-74.50928929,40.993072517],[-74.509278305,40.993050391],[-74.50926744,40.993036145],[-74.509249883,40.993026195],[-74.509219551,40.993021055],[-74.509175954,40.993018321],[-74.509109169,40.99302038],[-74.509085743,40.993021066],[-74.509050526,40.993021069],[-74.508897916,40.993028456],[-74.50888161,40.993034473],[-74.508859765,40.993048704],[-74.508842782,40.993057278],[-74.508823432,40.993060549],[-74.508798639,40.993061064],[-74.508784365,40.993061407],[-74.508589881,40.993065709],[-74.508545963,40.993059192],[-74.508527837,40.993051475],[-74.508506656,40.993049586],[-74.508491491,40.993057305],[-74.508481199,40.993062457],[-74.508464214,40.993060575],[-74.508335817,40.992983551],[-74.508319758,40.992969314],[-74.508274882,40.992947171],[-74.508161586,40.992891265],[-74.508150128,40.992889033],[-74.508134403,40.992884405],[-74.507756945,40.992715451],[-74.507735777,40.992712706],[-74.50770793,40.992716481],[-74.507678836,40.992732098],[-74.507599816,40.992805858],[-74.50757922,40.992816505],[-74.507544016,40.992826972],[-74.507510725,40.992828865],[-74.507469517,40.992826977],[-74.507338762,40.992803661],[-74.507243665,40.992798687],[-74.507183656,40.992803148],[-74.507132157,40.992811049],[-74.507066157,40.992834035],[-74.507010692,40.992870754],[-74.506952613,40.992925827],[-74.506886276,40.993009727],[-74.506853573,40.993061709],[-74.50682901,40.99311026],[-74.506811461,40.993169445],[-74.506810784,40.993172534],[-74.506742095,40.993497639],[-74.506743918,40.993546359],[-74.506752413,40.993629903],[-74.506757291,40.993681208],[-74.506756047,40.993721688],[-74.506746424,40.993762006],[-74.506729455,40.993800605],[-74.506701611,40.99384368],[-74.506681004,40.993868546],[-74.506436939,40.994090727],[-74.506221293,40.994307232],[-74.506108662,40.994430255],[-74.505911807,40.994673532],[-74.505866977,40.994721219],[-74.505836635,40.994750732],[-74.505776638,40.99478745],[-74.505548283,40.994892962],[-74.505476175,40.994937921],[-74.505401691,40.994999514],[-74.505362971,40.9950472],[-74.50535211,40.995084772],[-74.505352113,40.99512527],[-74.505354494,40.995170207],[-74.505359821,40.995194225],[-74.505446573,40.995584684],[-74.505456882,40.995631008],[-74.505458694,40.995693452],[-74.505451434,40.995729134],[-74.505434476,40.995766877],[-74.505403005,40.995802567],[-74.50536181,40.99583207],[-74.505281296,40.995876166],[-74.50515065,40.99594737],[-74.505079562,40.995986313],[-74.504982644,40.99600467],[-74.504906348,40.996011887],[-74.504828791,40.996012917],[-74.504765723,40.996005544],[-74.504663951,40.995982557],[-74.504493096,40.995923893],[-74.504433213,40.995904506],[-74.504348405,40.995895432],[-74.504090391,40.995876043],[-74.504079979,40.995875188],[-74.504006155,40.99587982],[-74.503946725,40.995894573],[-74.503722,40.995985338],[-74.503692904,40.996001981],[-74.503666292,40.99602754],[-74.503602111,40.996103711],[-74.503565765,40.996136825],[-74.503533044,40.996153297],[-74.503290653,40.996248863],[-74.503187187,40.996299296],[-74.50315197,40.996326918],[-74.503108944,40.99637084],[-74.503059369,40.996423162],[-74.502993928,40.996521478],[-74.502939934,40.996635212],[-74.502682492,40.997005265],[-74.502637778,40.997039235],[-74.502610832,40.997050042],[-74.502598946,40.997054843],[-74.502572332,40.997057589],[-74.502489913,40.997057592],[-74.502420853,40.99704747],[-74.50237364,40.997029118],[-74.502320316,40.997004246],[-74.502279082,40.996992404],[-74.502182755,40.996978682],[-74.50211618,40.996975945],[-74.50207497,40.996980404],[-74.502011355,40.996996012],[-74.501996854,40.997001676],[-74.501684259,40.997122798],[-74.501528586,40.99719434],[-74.501135388,40.99739352],[-74.501056024,40.997446708],[-74.501026927,40.99747793],[-74.500827666,40.997717597],[-74.500792554,40.997743326],[-74.500592055,40.997878158],[-74.500264298,40.998086612],[-74.500170324,40.998135161],[-74.500052802,40.998188519],[-74.49955741,40.99845657],[-74.499534595,40.998470041],[-74.499393722,40.998575481],[-74.499315737,40.998647601],[-74.499302602,40.998662524],[-74.499253356,40.998696493],[-74.49918112,40.998741268],[-74.499117717,40.998791023],[-74.499062918,40.998847289],[-74.499017059,40.998903727],[-74.498968823,40.998943531],[-74.498899986,40.998997402],[-74.498860593,40.999027245],[-74.498821188,40.999062079],[-74.498794918,40.999093471],[-74.498777373,40.999126747],[-74.49875336,40.999169812],[-74.498733663,40.999211156],[-74.498694257,40.999267602],[-74.498657015,40.9993273],[-74.498624171,40.999368815],[-74.498582627,40.999396948],[-74.498532239,40.99941685],[-74.498468835,40.999423378],[-74.498362639,40.999420963],[-74.498277363,40.999420962],[-74.498187595,40.999429201],[-74.498119767,40.999445833],[-74.498051953,40.999464023],[-74.497929384,40.999520451],[-74.497901077,40.999539035],[-74.497889754,40.999557621],[-74.497887866,40.999584783],[-74.497874657,40.999610516],[-74.497818045,40.999637679],[-74.497759546,40.999664841],[-74.497729353,40.999671988],[-74.497551971,40.999714873],[-74.497501021,40.999727739],[-74.497455732,40.999732027],[-74.497417991,40.999733456],[-74.497385913,40.999727737],[-74.497333077,40.999703431],[-74.497308987,40.99968531],[-74.497260869,40.999687029],[-74.497184211,40.999700238],[-74.497133834,40.999711899],[-74.497098862,40.99972854],[-74.497063855,40.999753413],[-74.497037596,40.999774855],[-74.497031021,40.999799728],[-74.497024459,40.99982135],[-74.497024458,40.999837822],[-74.497028867,40.999857724],[-74.497037592,40.999871097],[-74.497050714,40.999884309],[-74.497072573,40.999909183],[-74.497076982,40.999927374],[-74.497076981,40.999952247],[-74.497071892,40.999983127],[-74.49706974,40.999992394],[-74.49705954,41.000009035],[-74.497058373,41.000009773],[-74.497006892,41.00004231],[-74.496964323,41.000056718],[-74.496900574,41.000058436],[-74.496790182,41.000047122],[-74.496669044,41.000029432],[-74.496510315,41.000026507],[-74.496425398,41.000027933],[-74.496368785,41.000042228],[-74.4962918,41.000051339],[-74.496280342,41.000056698],[-74.496216603,41.000092213],[-74.496131561,41.000145217],[-74.49607644,41.000180733],[-74.496027511,41.00021607],[-74.495987201,41.000249867],[-74.495908506,41.000311795],[-74.495823581,41.000388987],[-74.495742852,41.00045504],[-74.495687599,41.000493636],[-74.495613207,41.000556419],[-74.495553757,41.000598275],[-74.49539015,41.000702923],[-74.495315876,41.000760042],[-74.495232985,41.000811505],[-74.495158593,41.0008453],[-74.495029069,41.000883901],[-74.494973266,41.000901296],[-74.494823229,41.000961422],[-74.494821252,41.000961273],[-74.494804359,41.000959991],[-74.494787376,41.000951413],[-74.49477228,41.000954271],[-74.494734537,41.000978574],[-74.49473076,41.001004307],[-74.49473991,41.001016786],[-74.494740194,41.001017175],[-74.494722875,41.001029782],[-74.494691192,41.001053721],[-74.494612616,41.001089055],[-74.4945064,41.001135718],[-74.494432009,41.001159903],[-74.494366224,41.001190438],[-74.494310971,41.001206564],[-74.494245069,41.001216152],[-74.494198423,41.001225083],[-74.494141019,41.001241209],[-74.494055988,41.001275002],[-74.493992353,41.001304672],[-74.493958271,41.001325599],[-74.493849903,41.00137878],[-74.49377563,41.001411025],[-74.493748708,41.001426183],[-74.493668295,41.001488899],[-74.493560728,41.001534641],[-74.493496564,41.001567519],[-74.493435731,41.001584118],[-74.493384644,41.001602462],[-74.493325193,41.001634707],[-74.493231778,41.001689257],[-74.49308514,41.001789093],[-74.492927979,41.001909866],[-74.49286207,41.001970928],[-74.492813149,41.002011244],[-74.49271973,41.002093242],[-74.492615552,41.00218656],[-74.492536532,41.002267844],[-74.492479338,41.002340887],[-74.492437817,41.002385204],[-74.492284218,41.002507694],[-74.492197028,41.002568764],[-74.492107795,41.002633256],[-74.492050493,41.002679063],[-74.491997384,41.002743395],[-74.491973084,41.002783587],[-74.491928236,41.002892689],[-74.491901813,41.002925568],[-74.491780637,41.002976867],[-74.491723229,41.003012191],[-74.49168497,41.003052345],[-74.491657446,41.003095912],[-74.491638291,41.003124908],[-74.491608507,41.003163504],[-74.491563888,41.003213427],[-74.491523584,41.003255111],[-74.491461856,41.003322008],[-74.491410901,41.003363854],[-74.491366282,41.003408806],[-74.491342955,41.003436262],[-74.491321671,41.003474858],[-74.491304678,41.003521515],[-74.491268545,41.003572979],[-74.491243067,41.003595626],[-74.491196297,41.003632509],[-74.491149538,41.003679163],[-74.491116656,41.003784719],[-74.491084565,41.003854768],[-74.491052477,41.003901943],[-74.491005287,41.003983429],[-74.49093922,41.00404696],[-74.490905242,41.004075955],[-74.490875461,41.004092082],[-74.490837181,41.004106488],[-74.490792577,41.004121064],[-74.490756448,41.00413873],[-74.490686353,41.004183671],[-74.49062906,41.004228784],[-74.490569495,41.004283507],[-74.490520677,41.00433669],[-74.490509739,41.004349265],[-74.490495696,41.004405129],[-74.490440961,41.004456591],[-74.490408876,41.004472315],[-74.490397771,41.004473248],[-74.490357923,41.004476599],[-74.490340937,41.004482316],[-74.490337159,41.004508049],[-74.490334374,41.004523509],[-74.490331493,41.0045395],[-74.490232038,41.00459397],[-74.490129645,41.004654381],[-74.490063855,41.004683364],[-74.490025589,41.004677696],[-74.489955505,41.004642353],[-74.489942714,41.0046439],[-74.489913041,41.004650409],[-74.489817352,41.004679398],[-74.489755759,41.004693802],[-74.489717478,41.004711468],[-74.489668676,41.004734113],[-74.489619755,41.004755036],[-74.489547507,41.004793628],[-74.489519877,41.004814555],[-74.489500853,41.004837031],[-74.489488057,41.004867567],[-74.489488052,41.004901365],[-74.489495417,41.004928287],[-74.489497296,41.004976894],[-74.489482189,41.005035508],[-74.489453876,41.005069817],[-74.489418014,41.005105554],[-74.489380268,41.005118417],[-74.489346015,41.005139426],[-74.489318046,41.005162535],[-74.489236822,41.005241352],[-74.489153775,41.005311396],[-74.489129066,41.00531656],[-74.489105601,41.005321465],[-74.489071626,41.005321461],[-74.489022708,41.005321457],[-74.488980255,41.005331062],[-74.488939821,41.005351987],[-74.488912191,41.005372913],[-74.488861231,41.005425231],[-74.488837901,41.005459026],[-74.488810269,41.005489561],[-74.488761342,41.005536223],[-74.488742198,41.00556847],[-74.488727356,41.005600717],[-74.488710374,41.005636063],[-74.488678543,41.005677918],[-74.488650909,41.005710155],[-74.488621125,41.005740699],[-74.488591339,41.005778438],[-74.488576496,41.005820294],[-74.488572188,41.005844483],[-74.488568,41.00586868],[-74.488557345,41.005887888],[-74.488542505,41.005912075],[-74.488527558,41.005929743],[-74.488506383,41.005945869],[-74.488468113,41.005963534],[-74.488427799,41.005976399],[-74.488376726,41.005990974],[-74.488332108,41.006006927],[-74.488291793,41.006026303],[-74.488187609,41.00608102],[-74.488134511,41.006118072],[-74.488100519,41.006142087],[-74.488075039,41.006167993],[-74.488051708,41.006195268],[-74.488030411,41.006229055],[-74.488011275,41.00627418],[-74.488000616,41.006317576],[-74.487992119,41.006362702],[-74.487983614,41.006459285],[-74.487985753,41.006527566],[-74.48802399,41.00669655],[-74.488045147,41.006785077],[-74.488057944,41.006820587],[-74.488057941,41.006838256],[-74.488049438,41.006852663],[-74.488034482,41.006854382],[-74.488002671,41.00684631],[-74.487986341,41.006833118],[-74.487915515,41.006758059],[-74.487890986,41.006726605],[-74.487868344,41.006703728],[-74.4878306,41.006696577],[-74.487773982,41.006703718],[-74.487724964,41.006712167],[-74.487669118,41.006711102],[-74.487592678,41.006709373],[-74.487511945,41.006719136],[-74.487384439,41.006744859],[-74.487307996,41.00676252],[-74.487242096,41.006788241],[-74.487161358,41.006819635],[-74.487106082,41.006859766],[-74.487078461,41.006888761],[-74.487063619,41.006917748],[-74.487055115,41.006938676],[-74.487040274,41.006959604],[-74.487022809,41.006993851],[-74.486998271,41.007009575],[-74.486966187,41.007019578],[-74.486876646,41.007022381],[-74.486738485,41.007067483],[-74.486659896,41.007107621],[-74.486602588,41.007144663],[-74.486553658,41.007197844],[-74.486511194,41.007250845],[-74.4864729,41.007324956],[-74.486441068,41.007415018],[-74.486436751,41.007481757],[-74.486434593,41.007512466],[-74.486428241,41.007531674],[-74.486409119,41.007557409],[-74.486398454,41.007567188],[-74.486375126,41.007580045],[-74.486347497,41.007586391],[-74.486315672,41.007587936],[-74.486266762,41.00759291],[-74.486222155,41.007604054],[-74.486177524,41.007616908],[-74.486132905,41.007629772],[-74.486081948,41.007647606],[-74.486028839,41.007670077],[-74.48598625,41.007694261],[-74.485911962,41.007745718],[-74.485890754,41.00776307],[-74.485762399,41.007911431],[-74.485746136,41.007954825],[-74.485716455,41.008045741],[-74.485678158,41.008118303],[-74.485642033,41.008156896],[-74.48560805,41.00818263],[-74.485533645,41.008221218],[-74.48545721,41.008245397],[-74.485353015,41.008271113],[-74.48530422,41.008296844],[-74.485276866,41.008317511],[-74.485248503,41.008356076],[-74.485229628,41.008364651],[-74.485192413,41.008380115],[-74.485180882,41.008388614],[-74.485144241,41.008428489],[-74.485133352,41.008471861],[-74.485120137,41.008490444],[-74.485071061,41.008517601],[-74.485046526,41.008521886],[-74.485009961,41.00852218],[-74.484989708,41.00853012],[-74.484896164,41.008557556],[-74.484800586,41.008588081],[-74.484747475,41.008612263],[-74.484673068,41.008656516],[-74.484583831,41.00871929],[-74.484507376,41.008770748],[-74.484454263,41.008798017],[-74.48441813,41.008817402],[-74.484335237,41.008847929],[-74.484288474,41.00887039],[-74.48424245,41.008922076],[-74.484217905,41.008963532],[-74.484185815,41.008986402],[-74.484175873,41.008995957],[-74.484154576,41.009015344],[-74.484129094,41.009036269],[-74.484075982,41.009063539],[-74.484020718,41.009088576],[-74.483976093,41.009119108],[-74.483920824,41.009169018],[-74.483852868,41.009218765],[-74.483818887,41.00923334],[-74.483776311,41.009244492],[-74.483672236,41.009257508],[-74.483606325,41.009265396],[-74.483576661,41.009273452],[-74.483512909,41.009297631],[-74.483451293,41.009334681],[-74.483383231,41.009382878],[-74.483334409,41.009416668],[-74.483291935,41.009444111],[-74.483240866,41.00947464],[-74.483183558,41.009495553],[-74.48308152,41.009536549],[-74.482973143,41.009588],[-74.482909374,41.009626759],[-74.482822278,41.009674953],[-74.482756367,41.00972487],[-74.482694746,41.009776328],[-74.482603454,41.00986328],[-74.482520547,41.009938076],[-74.482446133,41.009996052],[-74.482401505,41.010031383],[-74.482365365,41.010073235],[-74.482344075,41.010107029],[-74.482316541,41.010152143],[-74.482284595,41.010198805],[-74.48226126,41.010234139],[-74.482212318,41.010311336],[-74.482150701,41.010391782],[-74.482114561,41.010424025],[-74.482042301,41.01046915],[-74.481931888,41.010523841],[-74.481857465,41.01056638],[-74.481798009,41.010608238],[-74.481762066,41.010668717],[-74.481729971,41.010710172],[-74.481679002,41.010744475],[-74.481669558,41.010774495],[-74.481656313,41.010893152],[-74.481646871,41.010914596],[-74.481612883,41.010970345],[-74.481550576,41.011057543],[-74.481509039,41.011111862],[-74.481424087,41.01118476],[-74.481374993,41.011208435],[-74.48133252,41.011229357],[-74.481277258,41.011239128],[-74.481234683,41.011240661],[-74.481139111,41.011233441],[-74.481096644,41.011234983],[-74.481052024,41.011238235],[-74.481022239,41.01124955],[-74.480998908,41.011267215],[-74.48097342,41.011304269],[-74.480952115,41.011344412],[-74.480928782,41.011366877],[-74.480892646,41.01138472],[-74.480820391,41.011408717],[-74.480704925,41.01146056],[-74.480682778,41.011471168],[-74.480610549,41.011484848],[-74.480563362,41.011496277],[-74.480512828,41.011503356],[-74.4805124,41.011503417],[-74.480451993,41.011543436],[-74.480435256,41.011563852],[-74.480418008,41.01158489],[-74.480365674,41.011617938],[-74.48029125,41.011691185],[-74.480248767,41.011744185],[-74.480204134,41.011790844],[-74.480159504,41.011826345],[-74.48009359,41.011873],[-74.479976705,41.011927707],[-74.479932242,41.011942932],[-74.479906411,41.011982238],[-74.479883759,41.011995101],[-74.479863493,41.011998935],[-74.479853559,41.012000814],[-74.479808264,41.011995088],[-74.479787506,41.011980788],[-74.479725965,41.011967801],[-74.47962329,41.012026507],[-74.479521355,41.012079386],[-74.479471025,41.012097282],[-74.479452599,41.012113151],[-74.479453386,41.012156573],[-74.479372215,41.012199448],[-74.479292506,41.012227641],[-74.479243575,41.012253361],[-74.479219453,41.01226252],[-74.479170234,41.012296626],[-74.479145691,41.012319495],[-74.479119259,41.012345224],[-74.479083394,41.012359514],[-74.479051304,41.012373804],[-74.479022989,41.012388095],[-74.478989012,41.012399526],[-74.478962583,41.012416677],[-74.478939926,41.012443836],[-74.47893237,41.012462419],[-74.478909716,41.012479571],[-74.478847216,41.012514484],[-74.478820637,41.012541498],[-74.478783623,41.01258661],[-74.47870769,41.012711134],[-74.478681253,41.012754018],[-74.478637829,41.012799758],[-74.478588745,41.0128312],[-74.478500051,41.012855039],[-74.478373995,41.012916604],[-74.478190171,41.013004751],[-74.477981192,41.01312154],[-74.47786645,41.013187393],[-74.4777772,41.013253423],[-74.477737551,41.01328344],[-74.477736754,41.013283953],[-74.47772191,41.013303339],[-74.477713413,41.013327526],[-74.477709093,41.013375732],[-74.477714578,41.013430572],[-74.477715527,41.013440069],[-74.477728188,41.013514178],[-74.477740406,41.01356136],[-74.477749454,41.013596186],[-74.477766417,41.013638912],[-74.477789734,41.013704791],[-74.477813149,41.013761234],[-74.477834295,41.013809445],[-74.477866221,41.013872247],[-74.47789803,41.013928519],[-74.47795111,41.014017054],[-74.478008495,41.014105589],[-74.478059436,41.01419343],[-74.478069952,41.014211101],[-74.478095536,41.014254512],[-74.478157111,41.014360717],[-74.478220832,41.014452513],[-74.478324979,41.014576395],[-74.478407739,41.014692384],[-74.478462969,41.014755181],[-74.478478704,41.014774222],[-74.478537356,41.014845259],[-74.478622252,41.014942724],[-74.478694477,41.015029541],[-74.478790026,41.015126144],[-74.478853767,41.015195291],[-74.478947274,41.015282283],[-74.479006715,41.015343541],[-74.479089585,41.01541904],[-74.479166013,41.015493169],[-74.479265873,41.015572788],[-74.479309333,41.015609085],[-74.479391204,41.015677463],[-74.479419612,41.015704224],[-74.479446677,41.015729624],[-74.479488909,41.015769256],[-74.479673784,41.015951992],[-74.479805468,41.01605341],[-74.479907483,41.016127372],[-74.480034855,41.016215918],[-74.480211265,41.016328652],[-74.480406696,41.016456673],[-74.480512912,41.016521017],[-74.480587414,41.016562041],[-74.48062127,41.016580571],[-74.480678569,41.016615918],[-74.480784774,41.016680443],[-74.480927227,41.01675921],[-74.481012155,41.016809142],[-74.481150294,41.016880021],[-74.481244614,41.016932358],[-74.481305314,41.016966166],[-74.481430662,41.017032061],[-74.48166224,41.017170549],[-74.481729096,41.017204807],[-74.481878453,41.017260982],[-74.481965272,41.017287682]]]},"properties":{"OBJECTID":12932,"COMID":null,"PERMANENT_IDENTIFIER":"60459951","GNIS_ID":"00876785","GNIS_NAME":"Green Pond","AREASQKM":2.0540521699999998,"REACHCODE":"02030103002404","FTYPE_DISPLAY":"Lake/Pond","HU8":"02030103","WATERBODY_NAME":"Green Pond","FEATURE_ID":876785,"FEATURE_NAME":"Green Pond","FEATURE_CLASS":"Lake","LEVELELEV":null,"GLOBALID":"{FADFC614-616A-446B-B366-CD176F68C661}"}}]}