{"type":"FeatureCollection","crs":{"type":"name","properties":{"name":"EPSG:4326"}},"features":[{"type":"Feature","id":62371,"geometry":{"type":"Polygon","coordinates":[[[-72.820745971,41.821987677],[-72.820599324,41.821872338],[-72.820584053,41.821746626],[-72.820356669,41.821394989],[-72.820451846,41.821203177],[-72.820825963,41.820911886],[-72.820980336,41.820758287],[-72.820987861,41.820511301],[-72.821024727,41.820467541],[-72.821112504,41.82042924],[-72.821185646,41.820429022],[-72.821222159,41.820478569],[-72.821215154,41.820780267],[-72.821266625,41.8208792],[-72.821274113,41.821016065],[-72.821178372,41.821109428],[-72.821149089,41.821170162],[-72.821193467,41.82128522],[-72.821230179,41.821307324],[-72.821347534,41.821268489],[-72.821501406,41.82107664],[-72.821545278,41.820939571],[-72.822021788,41.820154423],[-72.822367015,41.819671737],[-72.822638538,41.819100592],[-72.82280726,41.818870142],[-72.823071521,41.818776671],[-72.823342824,41.818831897],[-72.823592547,41.818859181],[-72.823959018,41.818925151],[-72.824127717,41.819078721],[-72.824149471,41.819254168],[-72.824076778,41.819446482],[-72.823959439,41.819693538],[-72.823936889,41.819825449],[-72.824010838,41.819929167],[-72.82401754,41.819973244],[-72.82383445,41.820072323],[-72.823812544,41.820165299],[-72.823841567,41.820280711],[-72.823812493,41.820318976],[-72.823599582,41.820407271],[-72.823533664,41.820511251],[-72.82305688,41.82083486],[-72.823005492,41.821016183],[-72.822932299,41.821175225],[-72.822815025,41.821285068],[-72.822271674,41.821554002],[-72.82198586,41.821658288],[-72.821919493,41.821773588],[-72.821831717,41.821811891],[-72.821464706,41.821894446],[-72.821185917,41.822130623],[-72.820995155,41.822141544],[-72.820885002,41.822059115],[-72.820745971,41.821987677]],[[-72.821978174,41.820933814],[-72.821934138,41.820922694],[-72.821743654,41.820972552],[-72.821685022,41.821032789],[-72.82171398,41.821093144],[-72.821809165,41.821120871],[-72.821963877,41.821065719],[-72.822000454,41.820966731],[-72.821978174,41.820933814]]]},"properties":{"OBJECTID":62371,"HYPOLY_COD":421,"HYDRO_POLY":"Reservoir, Lake, or Pond","AV_LEGEND":"Water","NAMEDP_COD":2,"NAMED_POLY":"Named Waterbody","LAKE_NO":2979,"LAKE":"Twin Lakes North","ACREAGE":12.27330017,"Shape__Area":534623.35766601563,"Shape__Length":4335.0903985983441}},{"type":"Feature","id":62936,"geometry":{"type":"Polygon","coordinates":[[[-72.825250349,41.817745153],[-72.825243278,41.817777572],[-72.825140325,41.817969909],[-72.824861616,41.818250003],[-72.824685355,41.818497099],[-72.824685526,41.818645115],[-72.824604676,41.818721835],[-72.824406882,41.818787825],[-72.824171846,41.818771681],[-72.824069319,41.818738129],[-72.823922107,41.81872742],[-72.823240196,41.818507972],[-72.822696654,41.818381737],[-72.822469542,41.81827211],[-72.822440145,41.818228221],[-72.822455228,41.81818413],[-72.822528315,41.818134861],[-72.822630796,41.818129478],[-72.822851186,41.818173077],[-72.823049476,41.818140191],[-72.823042064,41.818074164],[-72.82289498,41.817970146],[-72.822843749,41.817882363],[-72.822851249,41.817821814],[-72.822982904,41.817662735],[-72.82327629,41.817377321],[-72.823474455,41.816833836],[-72.823592322,41.816647495],[-72.823797259,41.816416675],[-72.824046943,41.816219446],[-72.824384521,41.816092994],[-72.824743978,41.816054686],[-72.825044817,41.81608176],[-72.825198748,41.816159015],[-72.825301183,41.816312282],[-72.825573197,41.816586529],[-72.825558546,41.816998345],[-72.825514614,41.817075213],[-72.825404465,41.817190716],[-72.825375194,41.817256596],[-72.825301503,41.817569315],[-72.825250349,41.817745153]]]},"properties":{"OBJECTID":62936,"HYPOLY_COD":421,"HYDRO_POLY":"Reservoir, Lake, or Pond","AV_LEGEND":"Water","NAMEDP_COD":2,"NAMED_POLY":"Named Waterbody","LAKE_NO":2980,"LAKE":"Twin Lakes South","ACREAGE":11.57989978,"Shape__Area":504419.32781982422,"Shape__Length":3015.3592410651363}},{"type":"Feature","id":85124,"geometry":{"type":"Polygon","coordinates":[[[-72.885213255,41.365020076],[-72.885329672,41.36505253],[-72.885416854,41.365151571],[-72.885489736,41.365162463],[-72.88555549,41.365140603],[-72.885657597,41.365190396],[-72.885723182,41.365195464],[-72.885773867,41.365152008],[-72.885868982,41.365124278],[-72.885941956,41.365179081],[-72.885985137,41.365250902],[-72.885941626,41.365349239],[-72.885839259,41.365393445],[-72.885744667,41.365453763],[-72.88573768,41.365486705],[-72.885751887,41.36553043],[-72.885839113,41.365541647],[-72.885919592,41.365590953],[-72.885934106,41.36567327],[-72.88580262,41.365838095],[-72.885569695,41.365947634],[-72.885380495,41.365953003],[-72.885285027,41.365919839],[-72.884950265,41.365782496],[-72.884797078,41.365804459],[-72.884556591,41.365892395],[-72.88442551,41.365924796],[-72.884432968,41.365787563],[-72.884513139,41.365688838],[-72.884556607,41.365568716],[-72.88477563,41.365453363],[-72.884819618,41.365365145],[-72.884833977,41.365151572],[-72.884929287,41.364997942],[-72.885052986,41.365030557],[-72.885213255,41.365020076]]]},"properties":{"OBJECTID":85124,"HYPOLY_COD":421,"HYDRO_POLY":"Reservoir, Lake, or Pond","AV_LEGEND":"Water","NAMEDP_COD":2,"NAMED_POLY":"Named Waterbody","LAKE_NO":2975,"LAKE":"Twin Clay Pit Pond No 1","ACREAGE":2.17208003,"Shape__Area":94615.9507446289,"Shape__Length":1440.9024354303763}},{"type":"Feature","id":86961,"geometry":{"type":"Polygon","coordinates":[[[-72.882647182,41.3667804],[-72.882311153,41.367137398],[-72.882217114,41.367137336],[-72.882158645,41.367048894],[-72.8821298,41.366972425],[-72.882005786,41.366785427],[-72.882013549,41.366571692],[-72.882042819,41.366522087],[-72.882107838,41.366472611],[-72.882209996,41.366434584],[-72.882326942,41.366280758],[-72.882443515,41.366165872],[-72.882538589,41.366116361],[-72.882793022,41.366055858],[-72.883004329,41.366061446],[-72.883113699,41.366099914],[-72.883281571,41.366132823],[-72.883303412,41.366012214],[-72.88378479,41.365589859],[-72.883799088,41.36556823],[-72.883923089,41.365524346],[-72.883944935,41.365518489],[-72.884010337,41.3655462],[-72.884105634,41.365606467],[-72.884105122,41.36568863],[-72.883901061,41.366106029],[-72.883675106,41.366396865],[-72.883470374,41.366599682],[-72.883368741,41.366670983],[-72.883230236,41.36674782],[-72.883098674,41.366769585],[-72.882836717,41.366714656],[-72.882749283,41.366714757],[-72.882647182,41.3667804]]]},"properties":{"OBJECTID":86961,"HYPOLY_COD":421,"HYDRO_POLY":"Reservoir, Lake, or Pond","AV_LEGEND":"Water","NAMEDP_COD":2,"NAMED_POLY":"Named Waterbody","LAKE_NO":2976,"LAKE":"Twin Clay Pit Pond No 2","ACREAGE":3.11992001,"Shape__Area":135903.65985107422,"Shape__Length":1861.926979384672}},{"type":"Feature","id":92263,"geometry":{"type":"Polygon","coordinates":[[[-73.460735792,41.30073272],[-73.460903128,41.300787946],[-73.460939823,41.300815507],[-73.460961466,41.30088107],[-73.460881453,41.301073688],[-73.46086684,41.301089733],[-73.460677302,41.30108439],[-73.460524906,41.301001795],[-73.460313782,41.300831911],[-73.460357117,41.300738326],[-73.460583152,41.300711024],[-73.460735792,41.30073272]]]},"properties":{"OBJECTID":92263,"HYPOLY_COD":421,"HYDRO_POLY":"Reservoir, Lake, or Pond","AV_LEGEND":"Water","NAMEDP_COD":2,"NAMED_POLY":"Named Waterbody","LAKE_NO":2978,"LAKE":"Twin Lakes","ACREAGE":0.38971701,"Shape__Area":16976.000610351563,"Shape__Length":499.89194083173891}}]}