{"type":"FeatureCollection","features":[{"type":"Feature","id":88510,"geometry":{"type":"Polygon","coordinates":[[[-73.990288929,44.296877598,0.0],[-73.989326396,44.296634998,0.0],[-73.989293996,44.296730998,0.0],[-73.989191929,44.296832998,0.0],[-73.989047996,44.296863998,0.0],[-73.988931929,44.296877998,0.0],[-73.988810062,44.296815931,0.0],[-73.988702062,44.296783065,0.0],[-73.988471062,44.296809998,0.0],[-73.988280996,44.296897998,0.0],[-73.988090996,44.296971998,0.0],[-73.987974996,44.296992998,0.0],[-73.987893996,44.296993065,0.0],[-73.987805996,44.296971998,0.0],[-73.987723929,44.296911065,0.0],[-73.987669929,44.296829998,0.0],[-73.987608929,44.296768998,0.0],[-73.987534062,44.296720998,0.0],[-73.987446062,44.296721065,0.0],[-73.987283062,44.296802998,0.0],[-73.987221996,44.296870998,0.0],[-73.987201062,44.296945065,0.0],[-73.987194996,44.297135065,0.0],[-73.987173996,44.297195998,0.0],[-73.987146996,44.297222998,0.0],[-73.987065996,44.297230065,0.0],[-73.986849062,44.297155998,0.0],[-73.986827996,44.297155998,0.0],[-73.986793929,44.297216998,0.0],[-73.986699062,44.297312065,0.0],[-73.986590996,44.297378931,0.0],[-73.986522996,44.297468065,0.0],[-73.986375996,44.297612065,0.0],[-73.986306062,44.297678065,0.0],[-73.986183062,44.297765998,0.0],[-73.986019996,44.297765998,0.0],[-73.985843996,44.297779998,0.0],[-73.985490996,44.297888065,0.0],[-73.985093996,44.297915998,0.0],[-73.984925929,44.297941998,0.0],[-73.984686062,44.297977065,0.0],[-73.984577996,44.298017998,0.0],[-73.984449062,44.298132998,0.0],[-73.984381062,44.298166998,0.0],[-73.984286062,44.298187065,0.0],[-73.984142996,44.298200998,0.0],[-73.983987062,44.298179998,0.0],[-73.983844996,44.298179998,0.0],[-73.983335929,44.298281998,0.0],[-73.983166062,44.298335998,0.0],[-73.983050929,44.298430998,0.0],[-73.982901062,44.298647998,0.0],[-73.982812929,44.298702998,0.0],[-73.982676996,44.298722998,0.0],[-73.982513929,44.298783998,0.0],[-73.982384996,44.298811065,0.0],[-73.982242929,44.298797998,0.0],[-73.981937062,44.298675998,0.0],[-73.981056996,44.298465998,0.0],[-73.980941996,44.298424998,0.0],[-73.980832996,44.298363998,0.0],[-73.980764996,44.298302931,0.0],[-73.980724996,44.298187998,0.0],[-73.980683929,44.298139998,0.0],[-73.980608929,44.298105998,0.0],[-73.980327996,44.298041065,0.0],[-73.980018929,44.297963998,0.0],[-73.979956996,44.297960998,0.0],[-73.979870062,44.297956998,0.0],[-73.979475996,44.297990998,0.0],[-73.979278996,44.297997998,0.0],[-73.978918996,44.297956931,0.0],[-73.978721996,44.297949998,0.0],[-73.978579996,44.297969931,0.0],[-73.978470996,44.298011065,0.0],[-73.978409996,44.298058998,0.0],[-73.978335996,44.298146998,0.0],[-73.978301996,44.298208065,0.0],[-73.978200062,44.298281998,0.0],[-73.978022929,44.298315998,0.0],[-73.977820062,44.298376998,0.0],[-73.977656929,44.298471998,0.0],[-73.977500929,44.298539998,0.0],[-73.977418929,44.298628065,0.0],[-73.977379062,44.298709931,0.0],[-73.977371996,44.298777998,0.0],[-73.977384929,44.298844998,0.0],[-73.977433062,44.298885998,0.0],[-73.977768062,44.299112998,0.0],[-73.977801929,44.299153998,0.0],[-73.977801996,44.299207998,0.0],[-73.977767996,44.299268998,0.0],[-73.977692929,44.299329998,0.0],[-73.977577929,44.299397931,0.0],[-73.977400996,44.299465998,0.0],[-73.977259062,44.299506998,0.0],[-73.977163996,44.299500065,0.0],[-73.977054996,44.299458998,0.0],[-73.976980996,44.299417998,0.0],[-73.976885929,44.299391065,0.0],[-73.976776996,44.299384998,0.0],[-73.976681996,44.299398065,0.0],[-73.976606996,44.299445998,0.0],[-73.976545996,44.299506998,0.0],[-73.976525996,44.299573998,0.0],[-73.976579996,44.299655931,0.0],[-73.976735996,44.299737065,0.0],[-73.976803996,44.299757998,0.0],[-73.976852062,44.299791998,0.0],[-73.976864996,44.299824998,0.0],[-73.976858062,44.299885931,0.0],[-73.976803996,44.299967998,0.0],[-73.976579929,44.300184998,0.0],[-73.976464929,44.300258998,0.0],[-73.976328996,44.300320998,0.0],[-73.976097996,44.300374998,0.0],[-73.975982996,44.300543998,0.0],[-73.975887929,44.300632998,0.0],[-73.975677062,44.300721065,0.0],[-73.975547929,44.300740998,0.0],[-73.975419929,44.300733998,0.0],[-73.975310996,44.300740998,0.0],[-73.975290996,44.300767998,0.0],[-73.975303929,44.300802065,0.0],[-73.975351996,44.300862931,0.0],[-73.975330996,44.300911065,0.0],[-73.975284062,44.300951065,0.0],[-73.975045929,44.301038998,0.0],[-73.974930929,44.301099998,0.0],[-73.974854062,44.301116998,0.0],[-73.974799996,44.301116998,0.0],[-73.974752996,44.301103998,0.0],[-73.974685062,44.301109998,0.0],[-73.974630062,44.301144065,0.0],[-73.974589929,44.301266065,0.0],[-73.974549062,44.301340998,0.0],[-73.974447062,44.301415998,0.0],[-73.974290929,44.301489931,0.0],[-73.974074062,44.301496998,0.0],[-73.973985929,44.301516998,0.0],[-73.973409062,44.301789065,0.0],[-73.973197996,44.301944931,0.0],[-73.973151062,44.302018998,0.0],[-73.973089929,44.302229998,0.0],[-73.973035062,44.302344998,0.0],[-73.972743996,44.302629931,0.0],[-73.972469996,44.302992998,0.0],[-73.972435996,44.303128998,0.0],[-73.972382062,44.303270998,0.0],[-73.972319996,44.303392998,0.0],[-73.972231929,44.303494931,0.0],[-73.972136996,44.303582998,0.0],[-73.971934062,44.303697998,0.0],[-73.971737062,44.303785998,0.0],[-73.971566996,44.303880998,0.0],[-73.971430929,44.303975998,0.0],[-73.971315996,44.304078065,0.0],[-73.971159996,44.304287998,0.0],[-73.971105062,44.304403998,0.0],[-73.970949062,44.304627998,0.0],[-73.970962996,44.304763065,0.0],[-73.971057996,44.304938998,0.0],[-73.971151996,44.305275998,0.0],[-73.971172062,44.305397998,0.0],[-73.971131062,44.305506998,0.0],[-73.971002996,44.305676065,0.0],[-73.970954929,44.305790998,0.0],[-73.970893996,44.305892998,0.0],[-73.970811929,44.306001998,0.0],[-73.970710996,44.306096998,0.0],[-73.970561062,44.306197998,0.0],[-73.970235929,44.306326998,0.0],[-73.970107062,44.306414998,0.0],[-73.969814996,44.306509998,0.0],[-73.969427996,44.306658998,0.0],[-73.968639929,44.306862998,0.0],[-73.968504929,44.306903998,0.0],[-73.968437062,44.306943998,0.0],[-73.968395929,44.306991998,0.0],[-73.968355062,44.307079998,0.0],[-73.968334996,44.307215998,0.0],[-73.968359996,44.307442998,0.0],[-73.968332996,44.307544998,0.0],[-73.968277996,44.307593065,0.0],[-73.968095062,44.307701065,0.0],[-73.968020996,44.307768998,0.0],[-73.967986996,44.307849998,0.0],[-73.967999996,44.308094931,0.0],[-73.968020996,44.308378998,0.0],[-73.968060996,44.308521998,0.0],[-73.968135996,44.308698065,0.0],[-73.968362929,44.309049065,0.0],[-73.968590996,44.309458065,0.0],[-73.968678996,44.309579998,0.0],[-73.968793996,44.309794931,0.0],[-73.968834929,44.309896998,0.0],[-73.968841996,44.310011998,0.0],[-73.968814996,44.310120998,0.0],[-73.968658996,44.310337998,0.0],[-73.968596996,44.310445998,0.0],[-73.968596996,44.310588931,0.0],[-73.968617996,44.310764998,0.0],[-73.968596929,44.310907065,0.0],[-73.968556929,44.311036065,0.0],[-73.968495996,44.311171998,0.0],[-73.968400929,44.311273998,0.0],[-73.968346062,44.311416065,0.0],[-73.968340062,44.311585998,0.0],[-73.968311996,44.311727931,0.0],[-73.968224062,44.311951998,0.0],[-73.968162996,44.312080998,0.0],[-73.968136062,44.312208998,0.0],[-73.968094996,44.312310998,0.0],[-73.968048062,44.312500998,0.0],[-73.966758062,44.313622998,0.0],[-73.966300996,44.314193931,0.0],[-73.965709996,44.314667998,0.0],[-73.964612996,44.315413998,0.0],[-73.964262996,44.315615998,0.0],[-73.963537062,44.316108998,0.0],[-73.962557062,44.316885998,0.0],[-73.962175996,44.317118998,0.0],[-73.962066996,44.317235998,0.0],[-73.961996996,44.317328998,0.0],[-73.961717062,44.317885998,0.0],[-73.961670062,44.318040998,0.0],[-73.961641062,44.318184998,0.0],[-73.961631062,44.318390998,0.0],[-73.961584062,44.318607998,0.0],[-73.961319996,44.319322931,0.0],[-73.961257929,44.319400998,0.0],[-73.961079062,44.319532998,0.0],[-73.960383062,44.319866931,0.0],[-73.960270929,44.319894998,0.0],[-73.959776996,44.320014998,0.0],[-73.959225062,44.320053998,0.0],[-73.959084996,44.320037998,0.0],[-73.958944929,44.319991931,0.0],[-73.958633996,44.319827998,0.0],[-73.958016996,44.319656931,0.0],[-73.957285996,44.319516998,0.0],[-73.956413996,44.319229998,0.0],[-73.956181062,44.319066998,0.0],[-73.955887996,44.318739998,0.0],[-73.955752929,44.318561931,0.0],[-73.955668062,44.318514998,0.0],[-73.955566996,44.318491998,0.0],[-73.955449929,44.318514998,0.0],[-73.955387996,44.318537998,0.0],[-73.955006996,44.318919065,0.0],[-73.954970062,44.319001998,0.0],[-73.954959996,44.319058931,0.0],[-73.954990996,44.319143998,0.0],[-73.955045996,44.319237998,0.0],[-73.955068996,44.319299998,0.0],[-73.955085062,44.319454998,0.0],[-73.955084996,44.319703998,0.0],[-73.955123062,44.319827931,0.0],[-73.955185929,44.319936998,0.0],[-73.955286929,44.320060998,0.0],[-73.955325929,44.320146998,0.0],[-73.955325929,44.320216998,0.0],[-73.955263929,44.320438998,0.0],[-73.955247996,44.320540998,0.0],[-73.955270996,44.320649065,0.0],[-73.955325996,44.320742998,0.0],[-73.955403996,44.320835998,0.0],[-73.955465996,44.320959998,0.0],[-73.955729996,44.321915998,0.0],[-73.955978996,44.322474998,0.0],[-73.956002062,44.322575931,0.0],[-73.956002062,44.322653998,0.0],[-73.955895996,44.323139998,0.0],[-73.955621929,44.323946998,0.0],[-73.955575996,44.324265998,0.0],[-73.955575996,44.324889998,0.0],[-73.955529996,44.325072998,0.0],[-73.955454062,44.325209998,0.0],[-73.955392996,44.325391998,0.0],[-73.955362996,44.325621065,0.0],[-73.955379062,44.325937998,0.0],[-73.955392996,44.326213998,0.0],[-73.955301996,44.327065998,0.0],[-73.955301929,44.327462065,0.0],[-73.955286996,44.327811998,0.0],[-73.955255996,44.328116065,0.0],[-73.955211062,44.328252998,0.0],[-73.955089062,44.328405998,0.0],[-73.954951996,44.328496998,0.0],[-73.954490996,44.328654998,0.0],[-73.953713929,44.328791998,0.0],[-73.953043929,44.328882998,0.0],[-73.951931996,44.329217998,0.0],[-73.951749062,44.329293998,0.0],[-73.951627062,44.329354998,0.0],[-73.951493929,44.329460998,0.0],[-73.951323062,44.329705065,0.0],[-73.951185062,44.329932998,0.0],[-73.951063062,44.330571998,0.0],[-73.951062929,44.330800998,0.0],[-73.951093996,44.331028998,0.0],[-73.951185062,44.331317998,0.0],[-73.951184929,44.331485998,0.0],[-73.951139996,44.331713998,0.0],[-73.950891062,44.332464998,0.0],[-73.950357996,44.333377998,0.0],[-73.950174996,44.333575998,0.0],[-73.949991996,44.333727998,0.0],[-73.949717996,44.333865065,0.0],[-73.949491996,44.333939065,0.0],[-73.949260996,44.333971998,0.0],[-73.949016996,44.333919998,0.0],[-73.948605996,44.333727931,0.0],[-73.948331996,44.333636998,0.0],[-73.948209929,44.333651998,0.0],[-73.947844996,44.333986998,0.0],[-73.947784996,44.334017065,0.0],[-73.947600996,44.334094065,0.0],[-73.947525062,44.334138998,0.0],[-73.947463996,44.334215065,0.0],[-73.947464062,44.334336998,0.0],[-73.947478929,44.334444065,0.0],[-73.947479062,44.334549998,0.0],[-73.947434062,44.334625998,0.0],[-73.947417929,44.334732998,0.0],[-73.947418062,44.334853998,0.0],[-73.947562929,44.335216998,0.0],[-73.947597996,44.335409998,0.0],[-73.947544929,44.335514998,0.0],[-73.947405062,44.335671998,0.0],[-73.947194996,44.335829998,0.0],[-73.947018929,44.335909998,0.0],[-73.944775996,44.336119998,0.0],[-73.944688996,44.336171998,0.0],[-73.944635929,44.336276998,0.0],[-73.944548996,44.336556998,0.0],[-73.944530062,44.336684998,0.0],[-73.944574996,44.337015998,0.0],[-73.944635996,44.337240065,0.0],[-73.944705062,44.337402998,0.0],[-73.944776062,44.337536998,0.0],[-73.944898996,44.337695065,0.0],[-73.945038996,44.337799931,0.0],[-73.945336996,44.337853065,0.0],[-73.946685929,44.337904998,0.0],[-73.947088996,44.338009998,0.0],[-73.947335062,44.338062931,0.0],[-73.947738062,44.338219998,0.0],[-73.948560996,44.338622998,0.0],[-73.948911996,44.338867998,0.0],[-73.949068996,44.339008065,0.0],[-73.949156996,44.339199998,0.0],[-73.949122062,44.339357998,0.0],[-73.948998996,44.339497931,0.0],[-73.948823996,44.339602998,0.0],[-73.947211929,44.340005998,0.0],[-73.947141996,44.340058065,0.0],[-73.947037062,44.340197931,0.0],[-73.947018996,44.340407998,0.0],[-73.947037062,44.340547998,0.0],[-73.947228996,44.341038998,0.0],[-73.947301996,44.341192998,0.0],[-73.947351996,44.341265998,0.0],[-73.947422062,44.341319065,0.0],[-73.947554062,44.341338998,0.0],[-73.947714996,44.341338998,0.0],[-73.947895062,44.341300998,0.0],[-73.948052996,44.341195998,0.0],[-73.948113062,44.341141998,0.0],[-73.948168996,44.341059998,0.0],[-73.948239996,44.340980931,0.0],[-73.948319996,44.340946065,0.0],[-73.948385996,44.340968998,0.0],[-73.948576996,44.341077931,0.0],[-73.948784996,44.341173931,0.0],[-73.949208996,44.341393998,0.0],[-73.949357996,44.341459065,0.0],[-73.949848996,44.341563998,0.0],[-73.950251929,44.341668998,0.0],[-73.950550062,44.341773998,0.0],[-73.950761996,44.341806065,0.0],[-73.951093062,44.341790998,0.0],[-73.951548929,44.341755998,0.0],[-73.951883062,44.341797998,0.0],[-73.952496996,44.341806065,0.0],[-73.953212996,44.341773998,0.0],[-73.953580996,44.341720998,0.0],[-73.953686062,44.341668998,0.0],[-73.953755996,44.341545931,0.0],[-73.953755929,44.341370998,0.0],[-73.953720996,44.341143998,0.0],[-73.953756062,44.340828931,0.0],[-73.953843996,44.340582998,0.0],[-73.953988996,44.340384998,0.0],[-73.954159062,44.340198065,0.0],[-73.954369996,44.340057998,0.0],[-73.954650062,44.339900998,0.0],[-73.954964996,44.339830998,0.0],[-73.955595996,44.339761065,0.0],[-73.955788929,44.339725998,0.0],[-73.955981996,44.339742931,0.0],[-73.956296996,44.339847998,0.0],[-73.956612062,44.340005998,0.0],[-73.956892996,44.340057998,0.0],[-73.957839062,44.340040998,0.0],[-73.958066929,44.340057998,0.0],[-73.958206996,44.340110998,0.0],[-73.958903996,44.340584998,0.0],[-73.959117996,44.340740998,0.0],[-73.959276062,44.340898998,0.0],[-73.959346062,44.341056065,0.0],[-73.959380996,44.341284065,0.0],[-73.959362996,44.341529065,0.0],[-73.959292996,44.341790998,0.0],[-73.959152062,44.342114998,0.0],[-73.958957062,44.342399998,0.0],[-73.958696062,44.342779998,0.0],[-73.958538996,44.342971998,0.0],[-73.958415996,44.343234998,0.0],[-73.958205996,44.344319998,0.0],[-73.958117996,44.344442998,0.0],[-73.957907996,44.344582998,0.0],[-73.957031929,44.344914998,0.0],[-73.956822062,44.344985998,0.0],[-73.956680996,44.345072998,0.0],[-73.956540996,44.345212998,0.0],[-73.956339929,44.345364931,0.0],[-73.956085929,44.345475998,0.0],[-73.955594929,44.345720998,0.0],[-73.955471929,44.345842998,0.0],[-73.955420062,44.345982998,0.0],[-73.955419929,44.346088064,0.0],[-73.955507062,44.346192998,0.0],[-73.955667996,44.346353998,0.0],[-73.955919862,44.346473131,0.0],[-73.956033062,44.346511998,0.0],[-73.956174996,44.346615064,0.0],[-73.956317996,44.346821998,0.0],[-73.956572062,44.347090931,0.0],[-73.956984929,44.347415931,0.0],[-73.957251062,44.347686064,0.0],[-73.957460996,44.347931064,0.0],[-73.957729062,44.348139998,0.0],[-73.958021929,44.348333998,0.0],[-73.958425062,44.348490998,0.0],[-73.958967996,44.348648998,0.0],[-73.959510996,44.348737064,0.0],[-73.960964929,44.348753931,0.0],[-73.961631062,44.348668998,0.0],[-73.961912062,44.348578998,0.0],[-73.962017062,44.348508998,0.0],[-73.962121996,44.348333998,0.0],[-73.962156929,44.348193998,0.0],[-73.962121929,44.347283931,0.0],[-73.962122062,44.347037998,0.0],[-73.962103996,44.346880998,0.0],[-73.961999062,44.346705998,0.0],[-73.961912062,44.346617998,0.0],[-73.961823929,44.346460998,0.0],[-73.961776929,44.346231998,0.0],[-73.961806996,44.346092998,0.0],[-73.961998929,44.345935998,0.0],[-73.962541929,44.345672998,0.0],[-73.962664996,44.345567998,0.0],[-73.962734996,44.345444998,0.0],[-73.962752996,44.345252931,0.0],[-73.962700062,44.344832998,0.0],[-73.962717996,44.344674998,0.0],[-73.962857929,44.344499998,0.0],[-73.962857996,44.344413065,0.0],[-73.962804996,44.344359998,0.0],[-73.962664929,44.344359931,0.0],[-73.962472062,44.344429931,0.0],[-73.962261996,44.344464998,0.0],[-73.962192062,44.344464998,0.0],[-73.962138996,44.344412998,0.0],[-73.962138996,44.344343065,0.0],[-73.962244996,44.344201998,0.0],[-73.962598996,44.343965998,0.0],[-73.962808929,44.343808065,0.0],[-73.963009929,44.343692998,0.0],[-73.963316929,44.343527998,0.0],[-73.963544996,44.343387998,0.0],[-73.964017996,44.343213065,0.0],[-73.964420996,44.342897998,0.0],[-73.964596062,44.342809998,0.0],[-73.964859062,44.342757998,0.0],[-73.965052062,44.342704998,0.0],[-73.965208929,44.342634998,0.0],[-73.965314929,44.342599998,0.0],[-73.965524996,44.342599998,0.0],[-73.965858062,44.342634998,0.0],[-73.966470996,44.342862998,0.0],[-73.966698996,44.342968065,0.0],[-73.966891929,44.342967998,0.0],[-73.967102062,44.342862998,0.0],[-73.967241996,44.342687998,0.0],[-73.967574996,44.342233065,0.0],[-73.967749996,44.342074998,0.0],[-73.968081996,44.341743998,0.0],[-73.968152996,44.341672998,0.0],[-73.968257996,44.341479998,0.0],[-73.968362996,44.340866998,0.0],[-73.968502929,44.340481998,0.0],[-73.968572996,44.340236998,0.0],[-73.968625996,44.339973998,0.0],[-73.968678996,44.339483998,0.0],[-73.968730929,44.339203998,0.0],[-73.968836062,44.339011998,0.0],[-73.968958996,44.338888998,0.0],[-73.969152062,44.338818998,0.0],[-73.969449996,44.338819065,0.0],[-73.969659929,44.338783998,0.0],[-73.970167996,44.338503998,0.0],[-73.970420062,44.338352998,0.0],[-73.971541929,44.338089998,0.0],[-73.972767929,44.337880065,0.0],[-73.973095996,44.337835998,0.0],[-73.973381996,44.337722998,0.0],[-73.973941996,44.337302931,0.0],[-73.974397996,44.336934931,0.0],[-73.974765929,44.336707998,0.0],[-73.975115996,44.336566998,0.0],[-73.975448996,44.336461998,0.0],[-73.977148996,44.336147065,0.0],[-73.977411996,44.336059998,0.0],[-73.977586929,44.335936931,0.0],[-73.977692062,44.335814998,0.0],[-73.977761996,44.335674998,0.0],[-73.977797062,44.335569998,0.0],[-73.977796996,44.335429998,0.0],[-73.977780062,44.335254998,0.0],[-73.977780062,44.334676998,0.0],[-73.977831996,44.334553931,0.0],[-73.977919996,44.334448931,0.0],[-73.978664996,44.333983931,0.0],[-73.978886929,44.333835931,0.0],[-73.979119996,44.333633998,0.0],[-73.979277929,44.333458998,0.0],[-73.979540929,44.333300998,0.0],[-73.979804062,44.333196065,0.0],[-73.980188929,44.333090998,0.0],[-73.980469062,44.333090931,0.0],[-73.980749996,44.333178998,0.0],[-73.981064929,44.333300998,0.0],[-73.981292996,44.333336998,0.0],[-73.981556062,44.333300998,0.0],[-73.981723062,44.333231998,0.0],[-73.981835996,44.333090998,0.0],[-73.981968929,44.332959998,0.0],[-73.982133996,44.332828998,0.0],[-73.982397996,44.332686998,0.0],[-73.982501996,44.332600931,0.0],[-73.982641996,44.332444065,0.0],[-73.982835062,44.332285998,0.0],[-73.983132996,44.332180998,0.0],[-73.983403929,44.332113998,0.0],[-73.983533996,44.332020998,0.0],[-73.983850996,44.331620998,0.0],[-73.984165996,44.331340931,0.0],[-73.984489062,44.331125931,0.0],[-73.984621996,44.331060998,0.0],[-73.985054196,44.330945265,0.0],[-73.985655929,44.330780998,0.0],[-73.985912062,44.330694998,0.0],[-73.985970929,44.330675998,0.0],[-73.986145996,44.330570998,0.0],[-73.986303996,44.330448065,0.0],[-73.986443996,44.330272998,0.0],[-73.986636996,44.329922998,0.0],[-73.986759996,44.329764998,0.0],[-73.987074929,44.329502998,0.0],[-73.988395996,44.328827931,0.0],[-73.988692062,44.328686998,0.0],[-73.988938929,44.328512998,0.0],[-73.989268929,44.328161998,0.0],[-73.989583996,44.327768998,0.0],[-73.989879929,44.327426998,0.0],[-73.990062062,44.327135998,0.0],[-73.990130062,44.326973065,0.0],[-73.990165996,44.326779998,0.0],[-73.990165996,44.326605065,0.0],[-73.990130062,44.326359998,0.0],[-73.990043062,44.326202998,0.0],[-73.989973062,44.326044998,0.0],[-73.989990062,44.325834998,0.0],[-73.990059996,44.325676998,0.0],[-73.990158929,44.325529998,0.0],[-73.990357996,44.325361998,0.0],[-73.990601062,44.325229998,0.0],[-73.990853996,44.325141998,0.0],[-73.991444996,44.324994998,0.0],[-73.991706929,44.324871998,0.0],[-73.991812996,44.324713998,0.0],[-73.991865062,44.324574065,0.0],[-73.991899996,44.324416998,0.0],[-73.991917996,44.324259065,0.0],[-73.992022996,44.323873998,0.0],[-73.992127929,44.323751931,0.0],[-73.992534062,44.323355998,0.0],[-73.992709996,44.323129065,0.0],[-73.992796996,44.322865998,0.0],[-73.992797062,44.322620998,0.0],[-73.992814996,44.322357998,0.0],[-73.992919996,44.322148065,0.0],[-73.993025062,44.322042998,0.0],[-73.993165062,44.321972998,0.0],[-73.993428062,44.321920998,0.0],[-73.993637996,44.321832998,0.0],[-73.993742996,44.321763065,0.0],[-73.994496996,44.321115998,0.0],[-73.994689929,44.320992998,0.0],[-73.994870929,44.320924998,0.0],[-73.995004996,44.320818065,0.0],[-73.995017996,44.320787998,0.0],[-73.995093062,44.320624998,0.0],[-73.995127996,44.320414998,0.0],[-73.995179996,44.320239998,0.0],[-73.995232996,44.320117998,0.0],[-73.995372929,44.320012998,0.0],[-73.995547996,44.319977998,0.0],[-73.995705996,44.319889931,0.0],[-73.995810996,44.319784998,0.0],[-73.995880996,44.319627998,0.0],[-73.995880929,44.319469998,0.0],[-73.995793062,44.319101998,0.0],[-73.995792996,44.318944998,0.0],[-73.995818996,44.318780998,0.0],[-73.995880996,44.318629998,0.0],[-73.995985996,44.318471998,0.0],[-73.996073929,44.318366998,0.0],[-73.996160996,44.318314998,0.0],[-73.996337062,44.318315065,0.0],[-73.997159996,44.318420065,0.0],[-73.998210996,44.318524931,0.0],[-73.998473996,44.318506998,0.0],[-73.998631996,44.318419998,0.0],[-73.998736996,44.318297065,0.0],[-73.999087062,44.317719065,0.0],[-73.999245062,44.317438998,0.0],[-73.999419996,44.317193998,0.0],[-73.999595996,44.317036998,0.0],[-73.999962996,44.316830998,0.0],[-74.000019996,44.316747931,0.0],[-74.000013062,44.316675998,0.0],[-74.000023996,44.316554998,0.0],[-74.000038929,44.316516998,0.0],[-74.000077996,44.316483931,0.0],[-74.000125996,44.316396998,0.0],[-74.000168062,44.316290998,0.0],[-74.000218996,44.316236998,0.0],[-74.000321062,44.316157065,0.0],[-74.000465996,44.315944998,0.0],[-74.000538996,44.315853998,0.0],[-74.000724996,44.315697998,0.0],[-74.000870996,44.315507931,0.0],[-74.000966062,44.315434931,0.0],[-74.001016996,44.315387931,0.0],[-74.001078996,44.315274998,0.0],[-74.001085996,44.315202065,0.0],[-74.001115062,44.314990998,0.0],[-74.001162996,44.314907065,0.0],[-74.001299996,44.314717998,0.0],[-74.001466996,44.314578998,0.0],[-74.001619996,44.314480998,0.0],[-74.001792062,44.314345998,0.0],[-74.001876062,44.314265931,0.0],[-74.001915996,44.314188998,0.0],[-74.002115929,44.313708998,0.0],[-74.002159996,44.313544998,0.0],[-74.002177929,44.313416998,0.0],[-74.002175929,44.313349998,0.0],[-74.002148996,44.313074998,0.0],[-74.002082929,44.312895998,0.0],[-74.001893996,44.312615931,0.0],[-74.001779062,44.312471998,0.0],[-74.001695062,44.312094998,0.0],[-74.001598996,44.311998998,0.0],[-74.001574996,44.311951998,0.0],[-74.001586929,44.311813998,0.0],[-74.001670996,44.311555998,0.0],[-74.001670996,44.311466065,0.0],[-74.001646996,44.311303998,0.0],[-74.001665062,44.311201998,0.0],[-74.001808996,44.310800998,0.0],[-74.001820929,44.310680998,0.0],[-74.001808996,44.310452998,0.0],[-74.001838929,44.310210998,0.0],[-74.001850996,44.309988931,0.0],[-74.001815062,44.309556931,0.0],[-74.001713062,44.309323998,0.0],[-74.001563996,44.309137998,0.0],[-74.001522062,44.308987998,0.0],[-74.001455996,44.308933931,0.0],[-74.001269996,44.308819998,0.0],[-74.001173996,44.308736065,0.0],[-74.001089929,44.308640931,0.0],[-74.000957929,44.308322998,0.0],[-74.000794929,44.308055998,0.0],[-74.000711996,44.307978998,0.0],[-74.000646062,44.307943065,0.0],[-74.000406062,44.307870998,0.0],[-74.000213996,44.307757065,0.0],[-74.000124062,44.307672998,0.0],[-73.999979996,44.307510998,0.0],[-73.999520996,44.307273998,0.0],[-73.998925996,44.306990998,0.0],[-73.998569062,44.306901998,0.0],[-73.998093929,44.306816998,0.0],[-73.997844996,44.306666998,0.0],[-73.997707996,44.306552998,0.0],[-73.997563062,44.306377998,0.0],[-73.997479062,44.306224998,0.0],[-73.997424929,44.306057998,0.0],[-73.997342062,44.305898065,0.0],[-73.997257996,44.305843998,0.0],[-73.997142996,44.305829065,0.0],[-73.996883996,44.305775998,0.0],[-73.996632062,44.305676998,0.0],[-73.996273929,44.305508998,0.0],[-73.996060062,44.305357065,0.0],[-73.995937996,44.305203998,0.0],[-73.995594662,44.304623198,0.0],[-73.995464596,44.304538398,0.0],[-73.995344862,44.304511731,0.0],[-73.995188996,44.304500065,0.0],[-73.995074062,44.304499998,0.0],[-73.994952062,44.304522998,0.0],[-73.994867996,44.304606931,0.0],[-73.994814929,44.304614931,0.0],[-73.994776996,44.304583998,0.0],[-73.994715929,44.304560998,0.0],[-73.994646996,44.304553998,0.0],[-73.994448996,44.304599065,0.0],[-73.994318929,44.304668065,0.0],[-73.994227996,44.304758998,0.0],[-73.994189996,44.304819998,0.0],[-73.994166996,44.304895998,0.0],[-73.994036996,44.305056998,0.0],[-73.993938062,44.305147931,0.0],[-73.993853929,44.305261998,0.0],[-73.993662996,44.305490998,0.0],[-73.993426996,44.305619998,0.0],[-73.993175062,44.305711998,0.0],[-73.993114062,44.305757998,0.0],[-73.993083996,44.305901998,0.0],[-73.992991996,44.306031998,0.0],[-73.992893062,44.306107998,0.0],[-73.992869929,44.306183998,0.0],[-73.992862996,44.306275998,0.0],[-73.992817062,44.306366998,0.0],[-73.992694929,44.306534998,0.0],[-73.992595996,44.306595931,0.0],[-73.992480996,44.306648998,0.0],[-73.992344062,44.306694998,0.0],[-73.992091996,44.306717998,0.0],[-73.991953062,44.306675998,0.0],[-73.991891996,44.306675998,0.0],[-73.991845996,44.306690998,0.0],[-73.991831062,44.306728998,0.0],[-73.991945062,44.306851065,0.0],[-73.991974996,44.306919998,0.0],[-73.991990929,44.307018998,0.0],[-73.991953062,44.307079931,0.0],[-73.991875996,44.307141065,0.0],[-73.991791996,44.307170998,0.0],[-73.991662996,44.307193998,0.0],[-73.991518062,44.307201998,0.0],[-73.991388062,44.307171065,0.0],[-73.991213062,44.307087998,0.0],[-73.991181996,44.307109998,0.0],[-73.991175062,44.307140998,0.0],[-73.991204929,44.307224998,0.0],[-73.991213062,44.307315998,0.0],[-73.991181996,44.307361998,0.0],[-73.991006996,44.307400065,0.0],[-73.990907996,44.307460998,0.0],[-73.990847062,44.307521931,0.0],[-73.990846996,44.307559931,0.0],[-73.990900062,44.307582998,0.0],[-73.991014996,44.307597998,0.0],[-73.991197996,44.307551998,0.0],[-73.991265929,44.307507065,0.0],[-73.991364996,44.307498998,0.0],[-73.991494996,44.307536998,0.0],[-73.991585996,44.307597998,0.0],[-73.991601996,44.307643998,0.0],[-73.991585996,44.307689998,0.0],[-73.991547996,44.307734931,0.0],[-73.991425996,44.307818931,0.0],[-73.991288996,44.307879931,0.0],[-73.991014996,44.307948998,0.0],[-73.990975996,44.307971998,0.0],[-73.990991996,44.308024998,0.0],[-73.991113996,44.308207998,0.0],[-73.991175062,44.308261065,0.0],[-73.991197929,44.308306998,0.0],[-73.991205062,44.308353065,0.0],[-73.991181929,44.308405931,0.0],[-73.991128996,44.308451998,0.0],[-73.991120996,44.308489931,0.0],[-73.991143996,44.308535998,0.0],[-73.991181996,44.308550998,0.0],[-73.991213062,44.308595998,0.0],[-73.991235929,44.308664998,0.0],[-73.991243062,44.308733998,0.0],[-73.991227996,44.308786998,0.0],[-73.991182062,44.308832998,0.0],[-73.991120996,44.308839998,0.0],[-73.991090996,44.308832998,0.0],[-73.991091062,44.308786998,0.0],[-73.991105996,44.308756998,0.0],[-73.991097996,44.308710998,0.0],[-73.991060062,44.308679998,0.0],[-73.990960996,44.308649998,0.0],[-73.990586996,44.308611998,0.0],[-73.990373996,44.308565998,0.0],[-73.990198062,44.308496998,0.0],[-73.990136996,44.308451998,0.0],[-73.990014996,44.308467065,0.0],[-73.989748996,44.308458998,0.0],[-73.989657062,44.308496998,0.0],[-73.989558062,44.308565998,0.0],[-73.989427996,44.308626998,0.0],[-73.989283062,44.308656998,0.0],[-73.989008929,44.308679998,0.0],[-73.988642929,44.308664998,0.0],[-73.988262062,44.308679998,0.0],[-73.988186996,44.308706998,0.0],[-73.988138996,44.308747998,0.0],[-73.988130996,44.308776998,0.0],[-73.988126062,44.308795065,0.0],[-73.988145929,44.308957998,0.0],[-73.988179996,44.309018998,0.0],[-73.988234929,44.309059998,0.0],[-73.988349996,44.309100998,0.0],[-73.989130062,44.309228998,0.0],[-73.989245929,44.309269998,0.0],[-73.989313996,44.309324065,0.0],[-73.989348062,44.309385065,0.0],[-73.989347996,44.309467065,0.0],[-73.989239062,44.309642998,0.0],[-73.989034929,44.309860065,0.0],[-73.988919929,44.309941998,0.0],[-73.988778062,44.309968931,0.0],[-73.988383996,44.309961931,0.0],[-73.988179929,44.309941931,0.0],[-73.988024062,44.309907998,0.0],[-73.987921929,44.309874065,0.0],[-73.987758996,44.309784998,0.0],[-73.987671062,44.309676998,0.0],[-73.987562929,44.309459998,0.0],[-73.987501062,44.309384931,0.0],[-73.987440062,44.309344998,0.0],[-73.987386062,44.309350998,0.0],[-73.987339062,44.309391998,0.0],[-73.987270996,44.309595998,0.0],[-73.987223062,44.309649998,0.0],[-73.987100929,44.309676998,0.0],[-73.986944996,44.309690998,0.0],[-73.986796062,44.309718065,0.0],[-73.986645996,44.309730998,0.0],[-73.986329062,44.309723998,0.0],[-73.986158996,44.309744998,0.0],[-73.986044062,44.309745065,0.0],[-73.985928996,44.309676998,0.0],[-73.985839996,44.309662998,0.0],[-73.985683996,44.309689998,0.0],[-73.985561929,44.309730998,0.0],[-73.985460062,44.309750998,0.0],[-73.985371996,44.309744998,0.0],[-73.985174929,44.309663065,0.0],[-73.984862996,44.309547998,0.0],[-73.984692996,44.309459931,0.0],[-73.984570996,44.309357931,0.0],[-73.984373996,44.309174998,0.0],[-73.984278996,44.309106998,0.0],[-73.983871996,44.308889998,0.0],[-73.983681929,44.308903931,0.0],[-73.983599996,44.308877065,0.0],[-73.983416929,44.308747998,0.0],[-73.983240929,44.308565065,0.0],[-73.983097996,44.308442065,0.0],[-73.982663929,44.308143931,0.0],[-73.982432996,44.308035998,0.0],[-73.982242996,44.307879998,0.0],[-73.982154996,44.307756998,0.0],[-73.982060062,44.307567931,0.0],[-73.982028996,44.307420065,0.0],[-73.981988929,44.307365998,0.0],[-73.981899929,44.307276998,0.0],[-73.981771996,44.307209931,0.0],[-73.981513996,44.307020065,0.0],[-73.981404996,44.306891065,0.0],[-73.981228996,44.306612998,0.0],[-73.981207996,44.306544998,0.0],[-73.981208062,44.306490998,0.0],[-73.981255996,44.306429998,0.0],[-73.981309996,44.306388998,0.0],[-73.981622062,44.306368998,0.0],[-73.981838929,44.306374998,0.0],[-73.981887062,44.306354998,0.0],[-73.981954929,44.306089998,0.0],[-73.982151996,44.305716931,0.0],[-73.982307996,44.305574998,0.0],[-73.982342062,44.305521065,0.0],[-73.982327996,44.305500065,0.0],[-73.982191929,44.305506998,0.0],[-73.982111062,44.305472998,0.0],[-73.982091062,44.305418931,0.0],[-73.982130996,44.305350998,0.0],[-73.982274062,44.305161065,0.0],[-73.982375996,44.304767998,0.0],[-73.982437062,44.304659065,0.0],[-73.982585996,44.304455998,0.0],[-73.982783062,44.304319998,0.0],[-73.983019996,44.304121998,0.0],[-73.983124062,44.304042931,0.0],[-73.983307996,44.303940998,0.0],[-73.983361929,44.303879931,0.0],[-73.983436996,44.303737998,0.0],[-73.983761996,44.303467065,0.0],[-73.983829996,44.303384998,0.0],[-73.983911996,44.303221931,0.0],[-73.983972929,44.303147998,0.0],[-73.984053996,44.303079998,0.0],[-73.984108062,44.303004998,0.0],[-73.984148929,44.302923998,0.0],[-73.984293996,44.302778998,0.0],[-73.984347996,44.302759065,0.0],[-73.984544929,44.302751931,0.0],[-73.984564996,44.302738998,0.0],[-73.984551996,44.302683998,0.0],[-73.984592062,44.302643998,0.0],[-73.984721062,44.302622998,0.0],[-73.984788996,44.302636998,0.0],[-73.984876996,44.302629998,0.0],[-73.985067062,44.302588998,0.0],[-73.985223062,44.302460998,0.0],[-73.985291062,44.302371998,0.0],[-73.985399996,44.302182998,0.0],[-73.985562996,44.302100998,0.0],[-73.985786929,44.302059931,0.0],[-73.985833929,44.302040065,0.0],[-73.985848062,44.301998998,0.0],[-73.985847996,44.301937931,0.0],[-73.985860996,44.301903931,0.0],[-73.985922996,44.301876931,0.0],[-73.986051996,44.301863998,0.0],[-73.986173929,44.301870998,0.0],[-73.986649062,44.301815998,0.0],[-73.986899996,44.301720998,0.0],[-73.987199062,44.301544998,0.0],[-73.987898996,44.301094998,0.0],[-73.987926062,44.301047998,0.0],[-73.987939996,44.300992998,0.0],[-73.987912996,44.300945998,0.0],[-73.987545996,44.300511998,0.0],[-73.987443996,44.300328998,0.0],[-73.987404062,44.300178998,0.0],[-73.987389996,44.300056998,0.0],[-73.987437996,44.299968998,0.0],[-73.987484929,44.299942065,0.0],[-73.987586929,44.299907998,0.0],[-73.987742996,44.299880998,0.0],[-73.987885929,44.299900998,0.0],[-73.988035062,44.299934998,0.0],[-73.988387929,44.300050931,0.0],[-73.988719996,44.300138998,0.0],[-73.988814996,44.300151998,0.0],[-73.988964996,44.300144998,0.0],[-73.989086996,44.300070998,0.0],[-73.989128062,44.300003065,0.0],[-73.989195996,44.299935065,0.0],[-73.989283929,44.299895065,0.0],[-73.989419929,44.299866998,0.0],[-73.989589062,44.299866998,0.0],[-73.989731996,44.299880998,0.0],[-73.990040996,44.300028065,0.0],[-73.990312929,44.300061931,0.0],[-73.990394062,44.300061931,0.0],[-73.990461929,44.300027998,0.0],[-73.990719929,44.299837931,0.0],[-73.990773996,44.299777065,0.0],[-73.990869062,44.299586998,0.0],[-73.990958062,44.299573065,0.0],[-73.991296996,44.299654998,0.0],[-73.991636062,44.299796998,0.0],[-73.991778996,44.299838065,0.0],[-73.991941996,44.299857998,0.0],[-73.992246996,44.299877998,0.0],[-73.992898996,44.299843931,0.0],[-73.993089062,44.299871998,0.0],[-73.993115996,44.299843998,0.0],[-73.993089062,44.299762998,0.0],[-73.993013929,44.299661065,0.0],[-73.992905996,44.299553065,0.0],[-73.992633996,44.299396931,0.0],[-73.992144996,44.299050998,0.0],[-73.991941996,44.299016998,0.0],[-73.991778996,44.298948998,0.0],[-73.991616062,44.298846998,0.0],[-73.991248996,44.298568998,0.0],[-73.990903062,44.298317998,0.0],[-73.990760996,44.298189998,0.0],[-73.990652062,44.298114998,0.0],[-73.990414996,44.298006065,0.0],[-73.990346996,44.297951931,0.0],[-73.990320062,44.297883998,0.0],[-73.990354062,44.297341998,0.0],[-73.990333062,44.297205998,0.0],[-73.990291929,44.296978931,0.0],[-73.990286062,44.296891065,0.0],[-73.990288929,44.296877598,0.0]],[[-73.967089996,44.334197065,0.0],[-73.964714062,44.334493931,0.0],[-73.964549996,44.334505998,0.0],[-73.963518929,44.334577065,0.0],[-73.963037996,44.334578931,0.0],[-73.962662062,44.334545998,0.0],[-73.962381996,44.334491998,0.0],[-73.961368929,44.334196065,0.0],[-73.960671929,44.333959998,0.0],[-73.960145996,44.333781998,0.0],[-73.959868929,44.333730998,0.0],[-73.958213996,44.333729998,0.0],[-73.957863062,44.333650998,0.0],[-73.957510996,44.333533998,0.0],[-73.956991996,44.333315998,0.0],[-73.956602996,44.333083065,0.0],[-73.956553062,44.333041998,0.0],[-73.956490996,44.332990998,0.0],[-73.956444062,44.332935998,0.0],[-73.956413996,44.332874998,0.0],[-73.956373062,44.332496998,0.0],[-73.956362996,44.332384998,0.0],[-73.956238996,44.331870998,0.0],[-73.956217062,44.331681998,0.0],[-73.956233062,44.331635998,0.0],[-73.956267996,44.331595998,0.0],[-73.956354996,44.331568998,0.0],[-73.956819929,44.331529065,0.0],[-73.956942996,44.331491998,0.0],[-73.957109996,44.331406998,0.0],[-73.957381929,44.331211931,0.0],[-73.957595996,44.331025998,0.0],[-73.957668062,44.330952065,0.0],[-73.957800929,44.330804998,0.0],[-73.957871996,44.330744065,0.0],[-73.957935929,44.330724998,0.0],[-73.958005996,44.330715998,0.0],[-73.958629996,44.330782998,0.0],[-73.958744062,44.330782931,0.0],[-73.958843996,44.330768998,0.0],[-73.958908929,44.330742931,0.0],[-73.959138062,44.330610998,0.0],[-73.959283996,44.330494065,0.0],[-73.959318062,44.330447998,0.0],[-73.959587929,44.330028998,0.0],[-73.959691996,44.329903998,0.0],[-73.959786996,44.329809998,0.0],[-73.959909996,44.329712931,0.0],[-73.960060996,44.329615065,0.0],[-73.960457062,44.329396998,0.0],[-73.960916929,44.329169998,0.0],[-73.961194996,44.329016998,0.0],[-73.961312929,44.328925998,0.0],[-73.961357996,44.328873998,0.0],[-73.961414996,44.328786998,0.0],[-73.961470062,44.328674998,0.0],[-73.961661062,44.328127998,0.0],[-73.961744996,44.327747998,0.0],[-73.961763929,44.327485065,0.0],[-73.961775929,44.327102998,0.0],[-73.961830996,44.326795998,0.0],[-73.961938062,44.326529998,0.0],[-73.962006929,44.326398998,0.0],[-73.962143996,44.326223998,0.0],[-73.962477062,44.325865065,0.0],[-73.962573929,44.325773998,0.0],[-73.962689062,44.325683998,0.0],[-73.962929062,44.325550998,0.0],[-73.963099929,44.325460998,0.0],[-73.963286996,44.325342998,0.0],[-73.963559996,44.325089998,0.0],[-73.963953996,44.324685998,0.0],[-73.964316062,44.324345998,0.0],[-73.964770929,44.324029998,0.0],[-73.964874996,44.323924998,0.0],[-73.964939929,44.323820065,0.0],[-73.964990929,44.323613998,0.0],[-73.964992996,44.323456998,0.0],[-73.964927996,44.323292998,0.0],[-73.964925996,44.323244998,0.0],[-73.964948996,44.323203931,0.0],[-73.965031996,44.323128998,0.0],[-73.965434996,44.322631998,0.0],[-73.965783062,44.322237998,0.0],[-73.966400929,44.321622931,0.0],[-73.966915996,44.321144931,0.0],[-73.967138996,44.320955065,0.0],[-73.967374996,44.320800998,0.0],[-73.967588996,44.320724065,0.0],[-73.967744996,44.320688998,0.0],[-73.968002929,44.320646998,0.0],[-73.968270996,44.320659998,0.0],[-73.968750062,44.320771998,0.0],[-73.968960929,44.320802998,0.0],[-73.969447996,44.320840065,0.0],[-73.969640996,44.320868998,0.0],[-73.970193996,44.320979998,0.0],[-73.970379929,44.320994998,0.0],[-73.971465996,44.320935998,0.0],[-73.971759996,44.320945931,0.0],[-73.972090996,44.321003998,0.0],[-73.972645929,44.321163998,0.0],[-73.972911996,44.321205998,0.0],[-73.973245062,44.321234998,0.0],[-73.973955996,44.321278998,0.0],[-73.974704996,44.321358998,0.0],[-73.977021996,44.321922065,0.0],[-73.977539996,44.322029065,0.0],[-73.977632996,44.322037998,0.0],[-73.977695062,44.322033065,0.0],[-73.977739996,44.322016998,0.0],[-73.977992996,44.321859998,0.0],[-73.978129929,44.321815998,0.0],[-73.978259996,44.321815998,0.0],[-73.978460062,44.321858998,0.0],[-73.978560062,44.321891998,0.0],[-73.980436996,44.322511065,0.0],[-73.980726996,44.322593998,0.0],[-73.980967929,44.322647998,0.0],[-73.981123996,44.322654998,0.0],[-73.981280996,44.322616998,0.0],[-73.981409996,44.322599998,0.0],[-73.981543062,44.322622998,0.0],[-73.981625996,44.322662998,0.0],[-73.981654996,44.322687998,0.0],[-73.981673062,44.322703998,0.0],[-73.981707996,44.322777998,0.0],[-73.981723929,44.322913931,0.0],[-73.981764996,44.323108931,0.0],[-73.981836996,44.323229998,0.0],[-73.981928062,44.323338998,0.0],[-73.982186996,44.323558998,0.0],[-73.982365996,44.323687998,0.0],[-73.982758062,44.323911998,0.0],[-73.983200996,44.324222998,0.0],[-73.983212929,44.324235998,0.0],[-73.983423062,44.324444998,0.0],[-73.983751062,44.324856065,0.0],[-73.983924996,44.325111998,0.0],[-73.983949996,44.325239998,0.0],[-73.983932996,44.325375931,0.0],[-73.983546062,44.325986931,0.0],[-73.983470062,44.326087065,0.0],[-73.983374996,44.326166065,0.0],[-73.983040996,44.326364998,0.0],[-73.982860062,44.326484998,0.0],[-73.982830996,44.326519998,0.0],[-73.982792996,44.326568998,0.0],[-73.982422062,44.327321998,0.0],[-73.982170062,44.327678998,0.0],[-73.981945062,44.327895998,0.0],[-73.981783996,44.328025998,0.0],[-73.980984062,44.328608065,0.0],[-73.980763062,44.328730998,0.0],[-73.980635996,44.328782998,0.0],[-73.980353929,44.328859998,0.0],[-73.979780996,44.328984931,0.0],[-73.979407929,44.329036998,0.0],[-73.979220996,44.329032998,0.0],[-73.978272062,44.328925998,0.0],[-73.977759929,44.328916998,0.0],[-73.977272062,44.328960998,0.0],[-73.976537062,44.329027931,0.0],[-73.975332062,44.329217998,0.0],[-73.975111996,44.329270998,0.0],[-73.975089929,44.329283998,0.0],[-73.975034929,44.329315998,0.0],[-73.974982996,44.329376065,0.0],[-73.974949996,44.329514998,0.0],[-73.974943996,44.329750998,0.0],[-73.974963996,44.329957998,0.0],[-73.974995929,44.330107998,0.0],[-73.975128929,44.330401998,0.0],[-73.975319996,44.330725998,0.0],[-73.975404996,44.330905998,0.0],[-73.975407996,44.331005931,0.0],[-73.975304929,44.331378998,0.0],[-73.975232996,44.331512998,0.0],[-73.974962996,44.331884998,0.0],[-73.974823062,44.332077998,0.0],[-73.974334996,44.332689931,0.0],[-73.974250929,44.332776998,0.0],[-73.974179062,44.332850998,0.0],[-73.974023929,44.332975998,0.0],[-73.973919996,44.333045998,0.0],[-73.973677996,44.333162998,0.0],[-73.973317996,44.333251998,0.0],[-73.972943996,44.333283998,0.0],[-73.972613996,44.333270065,0.0],[-73.972161996,44.333222065,0.0],[-73.971141062,44.333110998,0.0],[-73.969825996,44.332983998,0.0],[-73.969589996,44.332995998,0.0],[-73.969462996,44.333019998,0.0],[-73.969238929,44.333092998,0.0],[-73.968945996,44.333225998,0.0],[-73.968665062,44.333352998,0.0],[-73.968369996,44.333533998,0.0],[-73.968253929,44.333635998,0.0],[-73.967873996,44.334031998,0.0],[-73.967773929,44.334092065,0.0],[-73.967672996,44.334119998,0.0],[-73.967089996,44.334197065,0.0]],[[-73.981169996,44.320683998,0.0],[-73.979527996,44.320592998,0.0],[-73.978849062,44.320463998,0.0],[-73.978634996,44.320419065,0.0],[-73.978380996,44.320314998,0.0],[-73.978115996,44.320176998,0.0],[-73.977839996,44.319981065,0.0],[-73.977643996,44.319809065,0.0],[-73.977470929,44.319577998,0.0],[-73.977239929,44.319324998,0.0],[-73.976928996,44.319026065,0.0],[-73.976559996,44.318749065,0.0],[-73.976236996,44.318575998,0.0],[-73.975891062,44.318414998,0.0],[-73.975360929,44.318191998,0.0],[-73.974577062,44.317861998,0.0],[-73.974115996,44.317723998,0.0],[-73.973620996,44.317631931,0.0],[-73.972951996,44.317573998,0.0],[-73.971617996,44.317395998,0.0],[-73.971215062,44.317361998,0.0],[-73.970914996,44.317247065,0.0],[-73.970545929,44.317073998,0.0],[-73.970372996,44.316981998,0.0],[-73.970314996,44.316935998,0.0],[-73.970291996,44.316866998,0.0],[-73.970303996,44.316762998,0.0],[-73.970372929,44.316705065,0.0],[-73.970488062,44.316670931,0.0],[-73.970719062,44.316647998,0.0],[-73.970902996,44.316612998,0.0],[-73.971029996,44.316520998,0.0],[-73.971099062,44.316451998,0.0],[-73.971133996,44.316325065,0.0],[-73.971157062,44.316059998,0.0],[-73.971202996,44.315898998,0.0],[-73.971271996,44.315795998,0.0],[-73.971398929,44.315715065,0.0],[-73.971860062,44.315541998,0.0],[-73.971906062,44.315484998,0.0],[-73.971940996,44.315380931,0.0],[-73.971928996,44.315080931,0.0],[-73.971951929,44.314931998,0.0],[-73.971978929,44.314878065,0.0],[-73.972009996,44.314816998,0.0],[-73.972093996,44.314730998,0.0],[-73.972152062,44.314718998,0.0],[-73.972233062,44.314718998,0.0],[-73.972348062,44.314753998,0.0],[-73.972485996,44.314822998,0.0],[-73.972543996,44.314799998,0.0],[-73.972590062,44.314718931,0.0],[-73.972647996,44.314580998,0.0],[-73.972705062,44.314501065,0.0],[-73.972785996,44.314453931,0.0],[-73.972900929,44.314419998,0.0],[-73.973016996,44.314407931,0.0],[-73.973132062,44.314476998,0.0],[-73.973235996,44.314558065,0.0],[-73.973350929,44.314615931,0.0],[-73.973409996,44.314581065,0.0],[-73.973465996,44.314488998,0.0],[-73.973569996,44.314350998,0.0],[-73.974168996,44.313854998,0.0],[-73.974503929,44.313578998,0.0],[-73.974641996,44.313440931,0.0],[-73.974992996,44.313137998,0.0],[-73.975033996,44.313014931,0.0],[-73.975044929,44.312933998,0.0],[-73.975033996,44.312806998,0.0],[-73.975004996,44.312679998,0.0],[-73.975009929,44.312603065,0.0],[-73.975035062,44.312500998,0.0],[-73.975055929,44.312459998,0.0],[-73.975245996,44.312100998,0.0],[-73.975465996,44.311630998,0.0],[-73.975521996,44.311379998,0.0],[-73.975538996,44.311224998,0.0],[-73.975578996,44.311095998,0.0],[-73.975659996,44.310957998,0.0],[-73.975798062,44.310755065,0.0],[-73.976098929,44.310122998,0.0],[-73.976130996,44.309959998,0.0],[-73.976138996,44.309838998,0.0],[-73.976171929,44.309708998,0.0],[-73.976292929,44.309521998,0.0],[-73.976329062,44.309493998,0.0],[-73.976447996,44.309416998,0.0],[-73.976569062,44.309385065,0.0],[-73.976812996,44.309351998,0.0],[-73.977315929,44.309311931,0.0],[-73.977672996,44.309327998,0.0],[-73.977916996,44.309311998,0.0],[-73.978532996,44.309319998,0.0],[-73.979323996,44.309365998,0.0],[-73.979489996,44.309331065,0.0],[-73.979636062,44.309337998,0.0],[-73.979802929,44.309365998,0.0],[-73.979975996,44.309420998,0.0],[-73.980085996,44.309440998,0.0],[-73.980502929,44.309510931,0.0],[-73.980697929,44.309553065,0.0],[-73.980822996,44.309663998,0.0],[-73.980912996,44.309718998,0.0],[-73.981003062,44.309746998,0.0],[-73.981121062,44.309767998,0.0],[-73.981356996,44.309781998,0.0],[-73.981842929,44.309878998,0.0],[-73.982001996,44.309919998,0.0],[-73.982425929,44.310003998,0.0],[-73.982667996,44.310094065,0.0],[-73.982806996,44.310184065,0.0],[-73.983110062,44.310344998,0.0],[-73.983456996,44.310413998,0.0],[-73.983692996,44.310531998,0.0],[-73.983797062,44.310552998,0.0],[-73.983915062,44.310553065,0.0],[-73.984084996,44.310525998,0.0],[-73.984268996,44.310489998,0.0],[-73.984365996,44.310483065,0.0],[-73.984698996,44.310607998,0.0],[-73.985011996,44.310808998,0.0],[-73.985260996,44.310940931,0.0],[-73.985517996,44.311003065,0.0],[-73.985594996,44.311065998,0.0],[-73.985726062,44.311211065,0.0],[-73.985878929,44.311294931,0.0],[-73.986232996,44.311370998,0.0],[-73.986392996,44.311391998,0.0],[-73.986524062,44.311433065,0.0],[-73.986641929,44.311488998,0.0],[-73.986739996,44.311578998,0.0],[-73.986816062,44.311682998,0.0],[-73.986850996,44.311786931,0.0],[-73.986898996,44.311883998,0.0],[-73.986961996,44.311952998,0.0],[-73.987198062,44.312050065,0.0],[-73.987481929,44.312084931,0.0],[-73.987777996,44.312155998,0.0],[-73.987920062,44.312181065,0.0],[-73.988263996,44.312239998,0.0],[-73.988396062,44.312308931,0.0],[-73.988506996,44.312384998,0.0],[-73.988617996,44.312433998,0.0],[-73.988756929,44.312467998,0.0],[-73.989012996,44.312488998,0.0],[-73.989137996,44.312481998,0.0],[-73.989235996,44.312447998,0.0],[-73.989318996,44.312370998,0.0],[-73.989387996,44.312266998,0.0],[-73.989492062,44.312149065,0.0],[-73.989623996,44.312058998,0.0],[-73.989790929,44.311982998,0.0],[-73.989970996,44.311947998,0.0],[-73.990131996,44.311954998,0.0],[-73.990338996,44.311961998,0.0],[-73.990498062,44.312003998,0.0],[-73.990657996,44.312079998,0.0],[-73.990893996,44.312246998,0.0],[-73.990960929,44.312319065,0.0],[-73.991046996,44.312454998,0.0],[-73.991057929,44.312504998,0.0],[-73.990980996,44.313175065,0.0],[-73.990970062,44.313463065,0.0],[-73.990923062,44.313681998,0.0],[-73.990646996,44.314717998,0.0],[-73.990427996,44.315202065,0.0],[-73.990311929,44.315375065,0.0],[-73.990128062,44.315685998,0.0],[-73.989842929,44.316026998,0.0],[-73.989170062,44.316831998,0.0],[-73.989019996,44.316981998,0.0],[-73.988892996,44.317142998,0.0],[-73.988778062,44.317349931,0.0],[-73.988697062,44.317591931,0.0],[-73.988431996,44.318236998,0.0],[-73.988317062,44.318374998,0.0],[-73.988085996,44.318501998,0.0],[-73.986817996,44.319120065,0.0],[-73.984368996,44.320189998,0.0],[-73.984020062,44.320330998,0.0],[-73.983539062,44.320523998,0.0],[-73.983262996,44.320604998,0.0],[-73.982766996,44.320684998,0.0],[-73.981407062,44.320697065,0.0],[-73.981169996,44.320683998,0.0]],[[-73.956025996,44.336016931,0.0],[-73.955739996,44.336306065,0.0],[-73.955620996,44.336368931,0.0],[-73.955458062,44.336424998,0.0],[-73.955396996,44.336428998,0.0],[-73.955175996,44.336443998,0.0],[-73.954891929,44.336417998,0.0],[-73.954032996,44.336293065,0.0],[-73.953526062,44.336193065,0.0],[-73.953036996,44.335998931,0.0],[-73.952854929,44.335916998,0.0],[-73.952773996,44.335868998,0.0],[-73.952685996,44.335817065,0.0],[-73.952634929,44.335753998,0.0],[-73.952616996,44.335684931,0.0],[-73.952610062,44.335553998,0.0],[-73.952622996,44.335465998,0.0],[-73.952703929,44.335315998,0.0],[-73.952809996,44.335228065,0.0],[-73.952986062,44.335127998,0.0],[-73.953945996,44.334751998,0.0],[-73.954114996,44.334714998,0.0],[-73.954321996,44.334707998,0.0],[-73.954603996,44.334732998,0.0],[-73.955162929,44.334860998,0.0],[-73.955720929,44.334990998,0.0],[-73.955864996,44.335065998,0.0],[-73.955947062,44.335128998,0.0],[-73.956009929,44.335203998,0.0],[-73.956223929,44.335542998,0.0],[-73.956247996,44.335579998,0.0],[-73.956259996,44.335654998,0.0],[-73.956253996,44.335735998,0.0],[-73.956204062,44.335823998,0.0],[-73.956025996,44.336016931,0.0]]]},"properties":{"OBJECTID":88510,"GPO_NAME":"Lake Placid","GNIS_ID":"00960658","AreaSqKm":7.9737531700000002,"Elevation":566,"Permanent_Identifier":"115353775","ReachCode":"04300104001150","FType":390,"FCode":39009,"FCode_Description":"Lake/Pond: Hydrographic Category = Perennial; Stage = Average Water Elevation","GPO_County":"Essex","GPO_NAME_SOURCE":"NHD","GPO_HUC":"Ausable River"}},{"type":"Feature","id":135249,"geometry":{"type":"Polygon","coordinates":[[[-73.990503329,44.296780265,0.0],[-73.990785196,44.296858331,0.0],[-73.990901329,44.296934665,0.0],[-73.990965262,44.296976731,0.0],[-73.991023529,44.297080065,0.0],[-73.991071796,44.297237131,0.0],[-73.991076596,44.297245398,0.0],[-73.991182996,44.297430065,0.0],[-73.991368796,44.297465465,0.0],[-73.991522729,44.297414998,0.0],[-73.991627196,44.297302265,0.0],[-73.991688929,44.297166865,0.0],[-73.991690462,44.297163398,0.0],[-73.991772062,44.297079998,0.0],[-73.991792062,44.297073865,0.0],[-73.991843329,44.297057998,0.0],[-73.992009462,44.297008931,0.0],[-73.992139129,44.296982665,0.0],[-73.992343729,44.296950998,0.0],[-73.992534862,44.296882265,0.0],[-73.992561596,44.296798465,0.0],[-73.992670929,44.296646531,0.0],[-73.992901396,44.296596931,0.0],[-73.993080529,44.296650465,0.0],[-73.993323329,44.296637998,0.0],[-73.993407729,44.296584731,0.0],[-73.993632662,44.296330665,0.0],[-73.993798396,44.296232131,0.0],[-73.993853396,44.296124798,0.0],[-73.993877862,44.296030198,0.0],[-73.993929196,44.295994131,0.0],[-73.994023996,44.295955331,0.0],[-73.994151862,44.295912731,0.0],[-73.994283062,44.295793265,0.0],[-73.994382462,44.295688998,0.0],[-73.994514662,44.295666931,0.0],[-73.994627129,44.295669665,0.0],[-73.994731396,44.295659865,0.0],[-73.994787196,44.295608598,0.0],[-73.994868262,44.295516465,0.0],[-73.994962929,44.295462731,0.0],[-73.995140329,44.295428865,0.0],[-73.995263396,44.295414998,0.0],[-73.995318796,44.295391931,0.0],[-73.995333129,44.295322398,0.0],[-73.995261862,44.295284598,0.0],[-73.995231396,44.295279265,0.0],[-73.995100262,44.295256398,0.0],[-73.995082062,44.295244465,0.0],[-73.995054062,44.295098865,0.0],[-73.995071796,44.295071865,0.0],[-73.995075062,44.295066931,0.0],[-73.995115929,44.295004598,0.0],[-73.995140329,44.294918598,0.0],[-73.995125062,44.294896065,0.0],[-73.995043929,44.294898865,0.0],[-73.994936262,44.294906998,0.0],[-73.994929662,44.294905998,0.0],[-73.994837462,44.294891398,0.0],[-73.994746796,44.294852865,0.0],[-73.994644662,44.294777398,0.0],[-73.994538529,44.294700598,0.0],[-73.994515329,44.294667731,0.0],[-73.994350729,44.294577598,0.0],[-73.994247196,44.294560598,0.0],[-73.994207329,44.294537731,0.0],[-73.994127729,44.294509131,0.0],[-73.994063996,44.294503398,0.0],[-73.994032196,44.294480598,0.0],[-73.993968529,44.294474931,0.0],[-73.993944596,44.294451998,0.0],[-73.993888929,44.294446398,0.0],[-73.993705729,44.294366398,0.0],[-73.993649996,44.294354998,0.0],[-73.993626129,44.294337798,0.0],[-73.993570396,44.294326531,0.0],[-73.993546529,44.294309331,0.0],[-73.993403329,44.294292198,0.0],[-73.993204196,44.294297998,0.0],[-73.993100729,44.294252398,0.0],[-73.993005196,44.294229598,0.0],[-73.992981329,44.294235331,0.0],[-73.992941596,44.294258198,0.0],[-73.992925729,44.294298198,0.0],[-73.992965529,44.294423931,0.0],[-73.993018529,44.294540531,0.0],[-73.992890129,44.294589531,0.0],[-73.992781862,44.294593865,0.0],[-73.992747729,44.294599265,0.0],[-73.992722596,44.294632398,0.0],[-73.992745262,44.294697531,0.0],[-73.992807196,44.294817731,0.0],[-73.992791729,44.294791798,0.0],[-73.992838596,44.294904198,0.0],[-73.992847996,44.294924998,0.0],[-73.992894396,44.294984198,0.0],[-73.992894529,44.295087131,0.0],[-73.992878729,44.295155731,0.0],[-73.992838929,44.295201398,0.0],[-73.992735529,44.295230131,0.0],[-73.992647929,44.295224398,0.0],[-73.992417129,44.295201731,0.0],[-73.992385196,44.295184531,0.0],[-73.992297596,44.295173131,0.0],[-73.992265796,44.295155998,0.0],[-73.992162396,44.295144598,0.0],[-73.991987196,44.295116131,0.0],[-73.991915596,44.295110398,0.0],[-73.991692729,44.295081931,0.0],[-73.991541396,44.295053398,0.0],[-73.991477796,44.295053531,0.0],[-73.991455729,44.295084865,0.0],[-73.991339662,44.295085198,0.0],[-73.991222329,44.295088331,0.0],[-73.990964862,44.295135131,0.0],[-73.990680862,44.295157998,0.0],[-73.990518929,44.295155531,0.0],[-73.990283729,44.294945398,0.0],[-73.990100729,44.294934131,0.0],[-73.989909729,44.294945598,0.0],[-73.989750596,44.295042798,0.0],[-73.989726796,44.295071398,0.0],[-73.989694996,44.295157198,0.0],[-73.989695129,44.295237198,0.0],[-73.989671196,44.295277331,0.0],[-73.989615529,44.295317331,0.0],[-73.989472196,44.295345931,0.0],[-73.989313196,44.295448931,0.0],[-73.989305196,44.295494598,0.0],[-73.989321329,44.295608998,0.0],[-73.989313396,44.295660398,0.0],[-73.989281529,44.295677598,0.0],[-73.989241729,44.295746198,0.0],[-73.989233929,44.295837731,0.0],[-73.989265929,44.295951998,0.0],[-73.989305596,44.296003398,0.0],[-73.989321596,44.296037731,0.0],[-73.989345529,44.296060531,0.0],[-73.989377529,44.296134798,0.0],[-73.989369596,44.296186331,0.0],[-73.989345729,44.296232131,0.0],[-73.989321929,44.296363598,0.0],[-73.989330196,44.296635931,0.0],[-73.989488729,44.296675931,0.0],[-73.989684929,44.296725331,0.0],[-73.990104196,44.296830998,0.0],[-73.990187929,44.296852131,0.0],[-73.990277929,44.296828865,0.0],[-73.990487196,44.296774665,0.0],[-73.990503329,44.296780265,0.0]]]},"properties":{"OBJECTID":135249,"GPO_NAME":"Lake Placid","GNIS_ID":null,"AreaSqKm":0.088149140000000001,"Elevation":null,"Permanent_Identifier":"115353803","ReachCode":"04300104000993","FType":390,"FCode":39004,"FCode_Description":"Lake/Pond: Hydrographic Category = Perennial","GPO_County":"Essex","GPO_NAME_SOURCE":"AreaHydro","GPO_HUC":"Ausable River"}}]}