{"type":"FeatureCollection","features":[{"type":"Feature","id":122113,"geometry":{"type":"Polygon","coordinates":[[[-75.887476793,42.9783754,0.0],[-75.887536593,42.9783864,0.0],[-75.887566593,42.9784084,0.0],[-75.887745993,42.978463333,0.0],[-75.887790793,42.9784414,0.0],[-75.887790926,42.978397533,0.0],[-75.887760926,42.978370133,0.0],[-75.887701126,42.978331533,0.0],[-75.887656393,42.978331533,0.0],[-75.887581593,42.9782986,0.0],[-75.887506926,42.9782546,0.0],[-75.887491926,42.978210733,0.0],[-75.887536926,42.978166933,0.0],[-75.887656526,42.978062533,0.0],[-75.887671526,42.978035133,0.0],[-75.887880926,42.977931,0.0],[-75.888172526,42.977892733,0.0],[-75.888837926,42.9779094,0.0],[-75.888957393,42.9779094,0.0],[-75.889219126,42.977882133,0.0],[-75.889383726,42.9778602,0.0],[-75.889525593,42.9778328,0.0],[-75.889600526,42.977810933,0.0],[-75.889749993,42.977734133,0.0],[-75.889832393,42.9776792,0.0],[-75.889922126,42.9776024,0.0],[-75.889951993,42.977547533,0.0],[-75.890011926,42.9774872,0.0],[-75.890026926,42.977443333,0.0],[-75.890071793,42.9773994,0.0],[-75.890071793,42.9773884,0.0],[-75.890101726,42.977322533,0.0],[-75.890146726,42.977267733,0.0],[-75.890176526,42.9771798,0.0],[-75.890221526,42.977136,0.0],[-75.890251526,42.977059133,0.0],[-75.890281393,42.976960333,0.0],[-75.890311393,42.976927333,0.0],[-75.890348793,42.9768122,0.0],[-75.890371326,42.976762733,0.0],[-75.890386193,42.9767408,0.0],[-75.890438726,42.9765322,0.0],[-75.890498526,42.976477333,0.0],[-75.890558393,42.976433533,0.0],[-75.890618326,42.976301733,0.0],[-75.890678326,42.976060333,0.0],[-75.890708193,42.976038333,0.0],[-75.890738193,42.975851733,0.0],[-75.890813193,42.975676,0.0],[-75.890843326,42.9754236,0.0],[-75.890850793,42.9752808,0.0],[-75.890813593,42.975017333,0.0],[-75.890783926,42.974841733,0.0],[-75.890761526,42.9748032,0.0],[-75.890724193,42.974644,0.0],[-75.890567526,42.9742762,0.0],[-75.890537593,42.9742542,0.0],[-75.890500326,42.974144533,0.0],[-75.890455526,42.974089533,0.0],[-75.890395726,42.9740016,0.0],[-75.890335993,42.9739248,0.0],[-75.890306126,42.9739028,0.0],[-75.890276326,42.973848,0.0],[-75.890246393,42.973815,0.0],[-75.890096926,42.9736832,0.0],[-75.889977393,42.973567933,0.0],[-75.889312593,42.972969333,0.0],[-75.888632726,42.972442,0.0],[-75.888595393,42.972414533,0.0],[-75.888401126,42.9722828,0.0],[-75.888094793,42.972095933,0.0],[-75.888012593,42.972063,0.0],[-75.887706193,42.971876333,0.0],[-75.887683793,42.9718708,0.0],[-75.887601593,42.971821333,0.0],[-75.887526926,42.971788333,0.0],[-75.887474593,42.9717554,0.0],[-75.887078526,42.9715686,0.0],[-75.886914126,42.971469733,0.0],[-75.886779593,42.9714038,0.0],[-75.886757326,42.971398333,0.0],[-75.886719926,42.9713818,0.0],[-75.886495593,42.9713598,0.0],[-75.886316193,42.971370733,0.0],[-75.886181726,42.971392533,0.0],[-75.886106793,42.971409,0.0],[-75.885942393,42.9714418,0.0],[-75.885890126,42.971447333,0.0],[-75.885822793,42.9714418,0.0],[-75.885733126,42.9714198,0.0],[-75.885583593,42.971353933,0.0],[-75.885449193,42.971287933,0.0],[-75.885374393,42.971276933,0.0],[-75.885329593,42.971276933,0.0],[-75.885269726,42.9713208,0.0],[-75.885179993,42.9713976,0.0],[-75.885090326,42.9713976,0.0],[-75.884940793,42.971287733,0.0],[-75.884866126,42.9712658,0.0],[-75.884746526,42.971265733,0.0],[-75.884626926,42.9712876,0.0],[-75.884537193,42.9713314,0.0],[-75.884484793,42.971364333,0.0],[-75.884417593,42.971397333,0.0],[-75.884312926,42.9714192,0.0],[-75.884208193,42.9713972,0.0],[-75.884021526,42.971287333,0.0],[-75.883670193,42.9710456,0.0],[-75.883490993,42.970880933,0.0],[-75.883349126,42.970738133,0.0],[-75.883319193,42.970699733,0.0],[-75.883244526,42.9706228,0.0],[-75.883214793,42.9705568,0.0],[-75.883169926,42.970513,0.0],[-75.883169993,42.970425133,0.0],[-75.883199993,42.9704032,0.0],[-75.883199926,42.970348333,0.0],[-75.883140193,42.970315333,0.0],[-75.883050526,42.9703592,0.0],[-75.882960793,42.970381133,0.0],[-75.882900926,42.9703482,0.0],[-75.882893526,42.970309733,0.0],[-75.882871126,42.9702712,0.0],[-75.882833926,42.970112133,0.0],[-75.882804126,42.9700132,0.0],[-75.882736926,42.969876,0.0],[-75.882721993,42.969832,0.0],[-75.882692126,42.969810133,0.0],[-75.882595126,42.969568533,0.0],[-75.882580326,42.9695246,0.0],[-75.882550393,42.9695026,0.0],[-75.882505526,42.9694258,0.0],[-75.882490726,42.969381933,0.0],[-75.882460793,42.9693598,0.0],[-75.882430993,42.969305,0.0],[-75.882371126,42.969239133,0.0],[-75.882341393,42.9691622,0.0],[-75.882311526,42.9691402,0.0],[-75.882266793,42.9690304,0.0],[-75.882236926,42.969008533,0.0],[-75.882221926,42.968986533,0.0],[-75.882192126,42.9689206,0.0],[-75.882147193,42.968876733,0.0],[-75.882117393,42.9688108,0.0],[-75.882072593,42.968777933,0.0],[-75.882042726,42.968722933,0.0],[-75.881997993,42.968679,0.0],[-75.881982993,42.968635133,0.0],[-75.881923193,42.9685802,0.0],[-75.881885993,42.968503333,0.0],[-75.881811193,42.9684154,0.0],[-75.881796393,42.968371533,0.0],[-75.881676926,42.968250733,0.0],[-75.881647126,42.9681848,0.0],[-75.881617193,42.9681628,0.0],[-75.881572393,42.968064,0.0],[-75.881557526,42.968020133,0.0],[-75.881527726,42.967998133,0.0],[-75.881482926,42.967888333,0.0],[-75.881452926,42.9678664,0.0],[-75.881408326,42.967745533,0.0],[-75.881378326,42.9677236,0.0],[-75.881303793,42.967526,0.0],[-75.881251593,42.9673832,0.0],[-75.881206793,42.9672954,0.0],[-75.881176993,42.967196533,0.0],[-75.881147193,42.967174533,0.0],[-75.881102526,42.966998933,0.0],[-75.881072593,42.966943933,0.0],[-75.881065126,42.966905533,0.0],[-75.881012993,42.9667354,0.0],[-75.880983193,42.9667134,0.0],[-75.880938393,42.9665816,0.0],[-75.880893593,42.9665048,0.0],[-75.880871193,42.9663894,0.0],[-75.880833993,42.966307133,0.0],[-75.880796926,42.966010733,0.0],[-75.880767126,42.965988733,0.0],[-75.880707393,42.965708733,0.0],[-75.880655193,42.965549533,0.0],[-75.880573326,42.965357333,0.0],[-75.880558393,42.965269533,0.0],[-75.880528526,42.965247533,0.0],[-75.880483726,42.9651048,0.0],[-75.880461326,42.9650828,0.0],[-75.880401726,42.964951,0.0],[-75.880371793,42.964929133,0.0],[-75.880356926,42.9648742,0.0],[-75.880297193,42.964808333,0.0],[-75.880267393,42.9647424,0.0],[-75.880222526,42.964698533,0.0],[-75.880207593,42.964665533,0.0],[-75.880147926,42.9645996,0.0],[-75.880110593,42.964495333,0.0],[-75.880080793,42.9643416,0.0],[-75.880013793,42.9641384,0.0],[-75.879983926,42.964111,0.0],[-75.879968993,42.9640506,0.0],[-75.879939126,42.963984733,0.0],[-75.879916793,42.9639408,0.0],[-75.879857126,42.963787133,0.0],[-75.879827193,42.963754133,0.0],[-75.879797393,42.9636662,0.0],[-75.879752593,42.9636224,0.0],[-75.879707926,42.963501533,0.0],[-75.879677993,42.9634796,0.0],[-75.879648193,42.963391733,0.0],[-75.879603393,42.9633478,0.0],[-75.879558726,42.963238,0.0],[-75.879513793,42.963194,0.0],[-75.879469126,42.9630842,0.0],[-75.879439193,42.963051333,0.0],[-75.879394526,42.9629524,0.0],[-75.879364593,42.962930533,0.0],[-75.879334726,42.962853733,0.0],[-75.879319926,42.9627878,0.0],[-75.879297526,42.9627658,0.0],[-75.879252726,42.962656,0.0],[-75.879237926,42.962590133,0.0],[-75.879207926,42.962568133,0.0],[-75.879163326,42.9624144,0.0],[-75.879133526,42.9623924,0.0],[-75.879088593,42.9622826,0.0],[-75.879073726,42.962260733,0.0],[-75.879028993,42.9621618,0.0],[-75.878984126,42.962117933,0.0],[-75.878924526,42.961975133,0.0],[-75.878894593,42.9619532,0.0],[-75.878849993,42.961788533,0.0],[-75.878820126,42.9617666,0.0],[-75.878775326,42.961634733,0.0],[-75.878752926,42.9616128,0.0],[-75.878723193,42.961546933,0.0],[-75.878708326,42.961481,0.0],[-75.878678393,42.961459,0.0],[-75.878618726,42.961294333,0.0],[-75.878588793,42.961239533,0.0],[-75.878544126,42.961096733,0.0],[-75.878514326,42.961074733,0.0],[-75.878469593,42.960888133,0.0],[-75.878439726,42.960866133,0.0],[-75.878409926,42.960756333,0.0],[-75.878350326,42.9606904,0.0],[-75.878290393,42.9606904,0.0],[-75.878245593,42.9606574,0.0],[-75.878230793,42.960591533,0.0],[-75.878200793,42.9605696,0.0],[-75.878156126,42.9603774,0.0],[-75.878118793,42.960306,0.0],[-75.878074193,42.9601304,0.0],[-75.878044326,42.9601084,0.0],[-75.877999726,42.9599436,0.0],[-75.877969793,42.959921733,0.0],[-75.877924993,42.959757,0.0],[-75.877895193,42.959735,0.0],[-75.877768726,42.959175,0.0],[-75.877738926,42.959109133,0.0],[-75.877694193,42.9588566,0.0],[-75.877664393,42.958834733,0.0],[-75.877627193,42.958642533,0.0],[-75.877604793,42.958593133,0.0],[-75.877552726,42.958412,0.0],[-75.877530326,42.958362533,0.0],[-75.877515393,42.9583406,0.0],[-75.877493126,42.958247333,0.0],[-75.877470726,42.9582088,0.0],[-75.877463193,42.958121,0.0],[-75.877433393,42.958099,0.0],[-75.877410993,42.957994733,0.0],[-75.877373793,42.957912333,0.0],[-75.877314193,42.9577366,0.0],[-75.877284326,42.957714733,0.0],[-75.877224593,42.95755,0.0],[-75.877209726,42.957528,0.0],[-75.877187393,42.9574346,0.0],[-75.877135193,42.957319333,0.0],[-75.877120326,42.9572974,0.0],[-75.877075593,42.9571656,0.0],[-75.877045726,42.957143733,0.0],[-75.877038193,42.9571052,0.0],[-75.876948726,42.956891133,0.0],[-75.876933926,42.9568252,0.0],[-75.876889126,42.956781333,0.0],[-75.876859193,42.9566934,0.0],[-75.876814526,42.956649533,0.0],[-75.876784726,42.956572733,0.0],[-75.876739793,42.956528733,0.0],[-75.876710126,42.956462933,0.0],[-75.876665193,42.956418933,0.0],[-75.876605593,42.95632,0.0],[-75.876560793,42.9562652,0.0],[-75.876441326,42.956133333,0.0],[-75.876262126,42.9559136,0.0],[-75.876247326,42.955869733,0.0],[-75.876202393,42.955836733,0.0],[-75.876165193,42.955759933,0.0],[-75.876120393,42.955716,0.0],[-75.876075593,42.9556062,0.0],[-75.876045726,42.9555842,0.0],[-75.875941393,42.9553426,0.0],[-75.875911726,42.955166933,0.0],[-75.875881926,42.955112,0.0],[-75.875881993,42.954980333,0.0],[-75.875911993,42.9548266,0.0],[-75.875972126,42.9544478,0.0],[-75.875994593,42.954409533,0.0],[-75.876062193,42.954074733,0.0],[-75.876144526,42.953904533,0.0],[-75.876189526,42.953827733,0.0],[-75.876204526,42.9537618,0.0],[-75.876234393,42.953739933,0.0],[-75.876271926,42.953602733,0.0],[-75.876294393,42.953564333,0.0],[-75.876346793,42.953465533,0.0],[-75.876376793,42.953366733,0.0],[-75.876406726,42.9533448,0.0],[-75.876466593,42.953224,0.0],[-75.876496526,42.9531966,0.0],[-75.876526526,42.953064933,0.0],[-75.876556526,42.953043,0.0],[-75.876586393,42.952966133,0.0],[-75.876601393,42.952900333,0.0],[-75.876631326,42.952878333,0.0],[-75.876638793,42.952839933,0.0],[-75.876691326,42.9526698,0.0],[-75.876721193,42.9526478,0.0],[-75.876728726,42.9525764,0.0],[-75.876758726,42.9524776,0.0],[-75.876781193,42.952428333,0.0],[-75.876848726,42.9522526,0.0],[-75.876878526,42.952219733,0.0],[-75.876885993,42.9522032,0.0],[-75.876923526,42.952066133,0.0],[-75.876953526,42.952044,0.0],[-75.876960926,42.9520056,0.0],[-75.877013393,42.9518356,0.0],[-75.877043393,42.951813533,0.0],[-75.877073326,42.9517368,0.0],[-75.877088393,42.951648933,0.0],[-75.877118193,42.951627,0.0],[-75.877140793,42.951522733,0.0],[-75.877178193,42.9514294,0.0],[-75.877245793,42.951149533,0.0],[-75.877275726,42.951100133,0.0],[-75.877380726,42.9506116,0.0],[-75.877373393,42.9504854,0.0],[-75.877141993,42.950320533,0.0],[-75.877201793,42.9502712,0.0],[-75.877276526,42.950238333,0.0],[-75.877336326,42.9501944,0.0],[-75.877343926,42.950156,0.0],[-75.877366326,42.950128533,0.0],[-75.877448993,42.949634467,0.0],[-75.877449193,42.949415,0.0],[-75.877501793,42.949146,0.0],[-75.877546793,42.948959467,0.0],[-75.877599526,42.9484654,0.0],[-75.877629593,42.948322667,0.0],[-75.877659726,42.948048267,0.0],[-75.877652393,42.947867067,0.0],[-75.877615326,42.94762,0.0],[-75.877563193,42.9474444,0.0],[-75.877540926,42.947351067,0.0],[-75.877510993,42.947329067,0.0],[-75.877481193,42.947208267,0.0],[-75.877436393,42.9471534,0.0],[-75.877406526,42.9470766,0.0],[-75.877361793,42.9470326,0.0],[-75.877331993,42.946977667,0.0],[-75.877317126,42.9469338,0.0],[-75.877287193,42.946906267,0.0],[-75.877227593,42.946791,0.0],[-75.877197726,42.946758,0.0],[-75.877167926,42.9466702,0.0],[-75.877123126,42.9466262,0.0],[-75.877093326,42.9465384,0.0],[-75.877048526,42.946483467,0.0],[-75.877011193,42.9463956,0.0],[-75.876966526,42.946351667,0.0],[-75.876906726,42.946252867,0.0],[-75.876876793,42.946219867,0.0],[-75.876861993,42.946176,0.0],[-75.876817193,42.946143067,0.0],[-75.876787326,42.946077067,0.0],[-75.876742526,42.946033267,0.0],[-75.876712726,42.945967267,0.0],[-75.876697793,42.9459454,0.0],[-75.876682926,42.9459014,0.0],[-75.876653126,42.945879467,0.0],[-75.876593326,42.9457806,0.0],[-75.876563593,42.945747667,0.0],[-75.876548726,42.9456818,0.0],[-75.876503793,42.945637867,0.0],[-75.876473993,42.94555,0.0],[-75.876459193,42.945484067,0.0],[-75.876429326,42.9454622,0.0],[-75.876414393,42.945396267,0.0],[-75.876362326,42.945253467,0.0],[-75.876332393,42.945198667,0.0],[-75.876302593,42.945066867,0.0],[-75.876272793,42.945044867,0.0],[-75.876265393,42.945006467,0.0],[-75.876213126,42.944891067,0.0],[-75.876153593,42.9447046,0.0],[-75.876123726,42.944682467,0.0],[-75.876071726,42.944347667,0.0],[-75.876102393,42.943535267,0.0],[-75.876110993,42.9424594,0.0],[-75.876073793,42.9422014,0.0],[-75.876051393,42.942173867,0.0],[-75.876006793,42.941976267,0.0],[-75.875976926,42.941954267,0.0],[-75.875947126,42.9418884,0.0],[-75.875924793,42.941795067,0.0],[-75.875894993,42.941723667,0.0],[-75.875865193,42.941559,0.0],[-75.875835393,42.941504067,0.0],[-75.875768726,42.940927667,0.0],[-75.875746393,42.9409002,0.0],[-75.875694393,42.940609267,0.0],[-75.875664593,42.940461,0.0],[-75.875664726,42.9403402,0.0],[-75.875634993,42.9401756,0.0],[-75.875605126,42.940142667,0.0],[-75.875560393,42.940076667,0.0],[-75.875515593,42.9400438,0.0],[-75.875440926,42.9400108,0.0],[-75.875411126,42.9399778,0.0],[-75.875485926,42.939890067,0.0],[-75.875515793,42.9398242,0.0],[-75.875463793,42.9395552,0.0],[-75.875419193,42.939363067,0.0],[-75.875374393,42.939264267,0.0],[-75.875322326,42.9390392,0.0],[-75.875299993,42.939011667,0.0],[-75.875232993,42.938720667,0.0],[-75.875210593,42.938682267,0.0],[-75.875166126,42.938451667,0.0],[-75.875136193,42.9383968,0.0],[-75.875128793,42.9383474,0.0],[-75.875091593,42.938193667,0.0],[-75.875069193,42.9381662,0.0],[-75.875017126,42.9379302,0.0],[-75.874994793,42.937902667,0.0],[-75.874927793,42.937611667,0.0],[-75.874905326,42.937584267,0.0],[-75.874860793,42.937375667,0.0],[-75.874830926,42.937320667,0.0],[-75.874823526,42.937249267,0.0],[-75.874786393,42.937084667,0.0],[-75.874734126,42.936969267,0.0],[-75.874656193,42.936951667,0.0],[-75.874619126,42.935916467,0.0],[-75.874612993,42.935914267,0.0],[-75.874605526,42.935793467,0.0],[-75.874590526,42.9357826,0.0],[-75.874605393,42.935755067,0.0],[-75.874575526,42.935727667,0.0],[-75.874567993,42.935623267,0.0],[-75.874552993,42.9356124,0.0],[-75.874530526,42.9354916,0.0],[-75.874530526,42.9354752,0.0],[-75.874522993,42.9354642,0.0],[-75.874500526,42.9353544,0.0],[-75.874500393,42.935321467,0.0],[-75.874485526,42.935310467,0.0],[-75.874477926,42.935294067,0.0],[-75.874462926,42.9351842,0.0],[-75.874440526,42.935162267,0.0],[-75.874417926,42.9350196,0.0],[-75.874402926,42.9350086,0.0],[-75.874380393,42.934898867,0.0],[-75.874357993,42.934855,0.0],[-75.874357926,42.934827467,0.0],[-75.874342993,42.9348166,0.0],[-75.874335593,42.9347782,0.0],[-75.874313126,42.934695867,0.0],[-75.874312993,42.9346794,0.0],[-75.874290526,42.934662867,0.0],[-75.874290526,42.9346244,0.0],[-75.874253126,42.934553067,0.0],[-75.874253126,42.934525667,0.0],[-75.874238126,42.934514667,0.0],[-75.874230726,42.934476267,0.0],[-75.874215726,42.934448867,0.0],[-75.874193126,42.934350067,0.0],[-75.874170726,42.9343336,0.0],[-75.874170726,42.9343116,0.0],[-75.874178126,42.9343062,0.0],[-75.874170593,42.934295067,0.0],[-75.874170593,42.934251267,0.0],[-75.874155593,42.934240267,0.0],[-75.874133126,42.934158,0.0],[-75.874133193,42.934141467,0.0],[-75.874095726,42.9340756,0.0],[-75.874103126,42.934009667,0.0],[-75.874088193,42.934004267,0.0],[-75.874065726,42.933922,0.0],[-75.874065726,42.933883467,0.0],[-75.874028326,42.933839667,0.0],[-75.874043193,42.933784667,0.0],[-75.874028193,42.933773667,0.0],[-75.874005726,42.9336366,0.0],[-75.873998193,42.9336256,0.0],[-75.873960726,42.933471867,0.0],[-75.873960593,42.933428,0.0],[-75.873953193,42.933417,0.0],[-75.873915593,42.933345667,0.0],[-75.873923126,42.933318267,0.0],[-75.873900726,42.9332908,0.0],[-75.873893193,42.933213867,0.0],[-75.873863326,42.933197467,0.0],[-75.873840726,42.9331262,0.0],[-75.873818326,42.9330712,0.0],[-75.873795926,42.933049267,0.0],[-75.873773526,42.932988867,0.0],[-75.873743526,42.932961467,0.0],[-75.873720993,42.9329286,0.0],[-75.873713593,42.932912067,0.0],[-75.873683593,42.932884667,0.0],[-75.873586393,42.932785867,0.0],[-75.873563993,42.9327366,0.0],[-75.873541593,42.932709067,0.0],[-75.873504193,42.9326762,0.0],[-75.873504126,42.932654267,0.0],[-75.873466726,42.9326268,0.0],[-75.873444326,42.932582867,0.0],[-75.873444193,42.932561,0.0],[-75.873414393,42.932544467,0.0],[-75.873406793,42.932506067,0.0],[-75.873384393,42.932489667,0.0],[-75.873369393,42.9324622,0.0],[-75.873369393,42.932445667,0.0],[-75.873347126,42.9324238,0.0],[-75.873332126,42.932396267,0.0],[-75.873332126,42.932368867,0.0],[-75.873309593,42.9323524,0.0],[-75.873272126,42.932242667,0.0],[-75.873234726,42.932171267,0.0],[-75.873242193,42.9321494,0.0],[-75.873249593,42.932143867,0.0],[-75.873227193,42.932089,0.0],[-75.873241993,42.9320396,0.0],[-75.873227126,42.932034067,0.0],[-75.873241993,42.932023067,0.0],[-75.873241993,42.932012067,0.0],[-75.873227126,42.9320066,0.0],[-75.873256726,42.931776067,0.0],[-75.873286593,42.9317322,0.0],[-75.873286593,42.931704667,0.0],[-75.873293993,42.931693667,0.0],[-75.873308993,42.9316608,0.0],[-75.873346193,42.931562,0.0],[-75.873353593,42.931523467,0.0],[-75.873360993,42.9315126,0.0],[-75.873390793,42.9313204,0.0],[-75.873383326,42.931293,0.0],[-75.873405593,42.931276467,0.0],[-75.873420593,42.931232467,0.0],[-75.873472726,42.9311776,0.0],[-75.873532393,42.9311172,0.0],[-75.873547393,42.9311172,0.0],[-75.873569926,42.9310952,0.0],[-75.873584793,42.9310952,0.0],[-75.873629526,42.9310678,0.0],[-75.873771526,42.931051267,0.0],[-75.873831193,42.9310292,0.0],[-75.873883526,42.9309908,0.0],[-75.873883393,42.9309798,0.0],[-75.873905926,42.930963267,0.0],[-75.873950593,42.930902867,0.0],[-75.873935593,42.930853467,0.0],[-75.873965526,42.9308096,0.0],[-75.873965526,42.930793067,0.0],[-75.873950393,42.930743667,0.0],[-75.873965393,42.9307382,0.0],[-75.873980326,42.930716267,0.0],[-75.873950393,42.930644867,0.0],[-75.873965326,42.930633867,0.0],[-75.873980193,42.9306174,0.0],[-75.873965326,42.930606467,0.0],[-75.873965326,42.930579,0.0],[-75.873942926,42.9305626,0.0],[-75.873957726,42.930535067,0.0],[-75.873957726,42.930496667,0.0],[-75.873935193,42.9304528,0.0],[-75.873942593,42.9304418,0.0],[-75.873920126,42.930244267,0.0],[-75.873934993,42.9302332,0.0],[-75.873912526,42.930150867,0.0],[-75.873927393,42.9301454,0.0],[-75.873904993,42.930041067,0.0],[-75.873912393,42.930035667,0.0],[-75.873904926,42.9300246,0.0],[-75.873904793,42.9298984,0.0],[-75.873889793,42.9298874,0.0],[-75.873874726,42.929667867,0.0],[-75.873859726,42.929656867,0.0],[-75.873852126,42.9295142,0.0],[-75.873837193,42.9295032,0.0],[-75.873806993,42.9292672,0.0],[-75.873784593,42.9291958,0.0],[-75.873784526,42.929146467,0.0],[-75.873769593,42.929140867,0.0],[-75.873747126,42.929031067,0.0],[-75.873732126,42.9290202,0.0],[-75.873702126,42.928926867,0.0],[-75.873687126,42.928899467,0.0],[-75.873664726,42.9288446,0.0],[-75.873627326,42.9287732,0.0],[-75.873589793,42.9287074,0.0],[-75.873567393,42.928641467,0.0],[-75.873544926,42.928625067,0.0],[-75.873544926,42.9286086,0.0],[-75.873559793,42.9285976,0.0],[-75.873544993,42.928586667,0.0],[-75.873544926,42.9285702,0.0],[-75.873507526,42.928526267,0.0],[-75.873522393,42.9284988,0.0],[-75.873522326,42.9284604,0.0],[-75.873507393,42.9284494,0.0],[-75.873469993,42.928378067,0.0],[-75.873484926,42.9283342,0.0],[-75.873462393,42.9282848,0.0],[-75.873462393,42.9282518,0.0],[-75.873424926,42.9281586,0.0],[-75.873402526,42.928142067,0.0],[-75.873402526,42.928103667,0.0],[-75.873394993,42.928092667,0.0],[-75.873380126,42.9280598,0.0],[-75.873357593,42.928037867,0.0],[-75.873357593,42.9280324,0.0],[-75.873342593,42.9280104,0.0],[-75.873245393,42.9279226,0.0],[-75.873222993,42.927900667,0.0],[-75.873223126,42.9278952,0.0],[-75.873036193,42.927763467,0.0],[-75.872998793,42.927736067,0.0],[-75.872916526,42.9276538,0.0],[-75.872886593,42.9276044,0.0],[-75.872864193,42.927577,0.0],[-75.872826726,42.927544067,0.0],[-75.872826793,42.927522067,0.0],[-75.872804393,42.9275056,0.0],[-75.872789393,42.9274672,0.0],[-75.872759393,42.927423267,0.0],[-75.872729526,42.9273684,0.0],[-75.872721993,42.92733,0.0],[-75.872699593,42.9273136,0.0],[-75.872699526,42.927302667,0.0],[-75.872707126,42.927297067,0.0],[-75.872699526,42.9272862,0.0],[-75.872669593,42.927242267,0.0],[-75.872662126,42.9272038,0.0],[-75.872676993,42.927192867,0.0],[-75.872662126,42.9271654,0.0],[-75.872661993,42.927138,0.0],[-75.872647126,42.927132467,0.0],[-75.872661993,42.927083,0.0],[-75.872661993,42.9270282,0.0],[-75.872631793,42.926863467,0.0],[-75.872631793,42.926847067,0.0],[-75.872616926,42.926836067,0.0],[-75.872609393,42.9268086,0.0],[-75.872594393,42.926737267,0.0],[-75.872579393,42.926726267,0.0],[-75.872571926,42.9266988,0.0],[-75.872534526,42.926627467,0.0],[-75.872511993,42.926528667,0.0],[-75.872489526,42.9265068,0.0],[-75.872489593,42.926501267,0.0],[-75.872474593,42.926490267,0.0],[-75.872489526,42.926462867,0.0],[-75.872489526,42.9264354,0.0],[-75.872467126,42.926391467,0.0],[-75.872489393,42.926369467,0.0],[-75.872474526,42.926364067,0.0],[-75.872466993,42.926281667,0.0],[-75.872481926,42.9262708,0.0],[-75.872466926,42.926204867,0.0],[-75.872466926,42.926133467,0.0],[-75.872444193,42.925996267,0.0],[-75.872421793,42.9259798,0.0],[-75.872421926,42.925968867,0.0],[-75.872414326,42.9259524,0.0],[-75.872421793,42.9259414,0.0],[-75.872414393,42.925930467,0.0],[-75.872414326,42.925908467,0.0],[-75.872399326,42.925897467,0.0],[-75.872376793,42.925831667,0.0],[-75.872354393,42.9258152,0.0],[-75.872339526,42.9257658,0.0],[-75.872339526,42.9257384,0.0],[-75.872317126,42.925721867,0.0],[-75.872316993,42.925710867,0.0],[-75.872279726,42.925678,0.0],[-75.872264593,42.9256232,0.0],[-75.872242193,42.9256012,0.0],[-75.872234793,42.925568267,0.0],[-75.872197393,42.9255408,0.0],[-75.872197326,42.9255024,0.0],[-75.872167393,42.925486,0.0],[-75.872167393,42.925475,0.0],[-75.872159926,42.925431067,0.0],[-75.872137393,42.925409067,0.0],[-75.872099993,42.925321267,0.0],[-75.872077593,42.925299267,0.0],[-75.872077593,42.925282867,0.0],[-75.872047726,42.9252664,0.0],[-75.872047726,42.9252554,0.0],[-75.872040193,42.925211467,0.0],[-75.872010193,42.9251896,0.0],[-75.872002793,42.9251512,0.0],[-75.871965326,42.9250908,0.0],[-75.871965393,42.9250688,0.0],[-75.871942793,42.9250524,0.0],[-75.871927993,42.925014,0.0],[-75.871905526,42.924997467,0.0],[-75.871905526,42.924986467,0.0],[-75.871883126,42.9249592,0.0],[-75.871853193,42.924931667,0.0],[-75.871830726,42.924904267,0.0],[-75.871793393,42.924871267,0.0],[-75.871673726,42.9247562,0.0],[-75.871539126,42.9246574,0.0],[-75.871486926,42.924646467,0.0],[-75.871441993,42.924619067,0.0],[-75.871412126,42.924619,0.0],[-75.871404593,42.924608067,0.0],[-75.871352393,42.9246026,0.0],[-75.871329993,42.9245806,0.0],[-75.871217926,42.924553267,0.0],[-75.871075926,42.924525867,0.0],[-75.871038593,42.924526,0.0],[-75.871031126,42.924514867,0.0],[-75.870978793,42.924504,0.0],[-75.870530593,42.924471267,0.0],[-75.870321393,42.9244714,0.0],[-75.869933126,42.9244936,0.0],[-75.869918126,42.9245046,0.0],[-75.869831926,42.924509467,0.0],[-75.869820993,42.924510067,0.0],[-75.869806126,42.924521067,0.0],[-75.869709126,42.9245376,0.0],[-75.869671726,42.9245486,0.0],[-75.869544726,42.9245706,0.0],[-75.869522393,42.9245926,0.0],[-75.869492393,42.924587067,0.0],[-75.869343126,42.924658467,0.0],[-75.869156526,42.9247794,0.0],[-75.869044526,42.924878267,0.0],[-75.869037126,42.924905667,0.0],[-75.868902726,42.925032,0.0],[-75.868872926,42.925048467,0.0],[-75.868872793,42.925059467,0.0],[-75.868357793,42.925433,0.0],[-75.868268193,42.925488,0.0],[-75.868066726,42.9256418,0.0],[-75.868066793,42.9256528,0.0],[-75.868044393,42.9256802,0.0],[-75.867865126,42.925823067,0.0],[-75.867865193,42.9258394,0.0],[-75.867827926,42.925866867,0.0],[-75.867790526,42.925910867,0.0],[-75.867745793,42.925938267,0.0],[-75.867745726,42.925960267,0.0],[-75.867738326,42.925960267,0.0],[-75.867663726,42.926031667,0.0],[-75.867633926,42.9260482,0.0],[-75.867633793,42.926059067,0.0],[-75.867618926,42.9260756,0.0],[-75.867581726,42.9261086,0.0],[-75.867544326,42.926147067,0.0],[-75.867506993,42.926185467,0.0],[-75.867491993,42.926201867,0.0],[-75.867290526,42.9263612,0.0],[-75.867215793,42.9264382,0.0],[-75.867163593,42.926471067,0.0],[-75.867163593,42.926482067,0.0],[-75.867141193,42.926482067,0.0],[-75.867111326,42.9264986,0.0],[-75.867111326,42.9265096,0.0],[-75.866961993,42.926580867,0.0],[-75.866887326,42.926624867,0.0],[-75.866835126,42.9266304,0.0],[-75.866760393,42.926668867,0.0],[-75.866723126,42.9266744,0.0],[-75.866610993,42.926712867,0.0],[-75.866558793,42.926740267,0.0],[-75.866536393,42.9267404,0.0],[-75.866446793,42.926773267,0.0],[-75.866401993,42.9267844,0.0],[-75.866372126,42.9268008,0.0],[-75.866364593,42.926800867,0.0],[-75.866319926,42.926828267,0.0],[-75.866297526,42.926828267,0.0],[-75.866260126,42.9268558,0.0],[-75.866245126,42.9268558,0.0],[-75.866118193,42.9269272,0.0],[-75.866118326,42.926932667,0.0],[-75.866080993,42.926971067,0.0],[-75.866080926,42.9269876,0.0],[-75.866006326,42.927059,0.0],[-75.865991393,42.927059,0.0],[-75.865879326,42.9270536,0.0],[-75.865871793,42.9270426,0.0],[-75.865782193,42.927020667,0.0],[-75.865468393,42.927009867,0.0],[-75.865460993,42.927020867,0.0],[-75.865423726,42.9270264,0.0],[-75.865386193,42.927020867,0.0],[-75.865311526,42.9270154,0.0],[-75.865296593,42.9270264,0.0],[-75.865274193,42.9270264,0.0],[-75.865259326,42.927015467,0.0],[-75.865244393,42.927026467,0.0],[-75.865132393,42.927032,0.0],[-75.865124793,42.927026467,0.0],[-75.865109926,42.927032,0.0],[-75.864908193,42.927048467,0.0],[-75.864811193,42.927076,0.0],[-75.864758793,42.927076067,0.0],[-75.864743926,42.927087067,0.0],[-75.864699126,42.927092467,0.0],[-75.864661793,42.927103467,0.0],[-75.864624393,42.92712,0.0],[-75.864572126,42.927120067,0.0],[-75.864460126,42.927164,0.0],[-75.864437793,42.927180467,0.0],[-75.864400393,42.927180467,0.0],[-75.864355593,42.927208,0.0],[-75.864333126,42.927208067,0.0],[-75.864273526,42.927235467,0.0],[-75.864168926,42.9272794,0.0],[-75.864004593,42.927367267,0.0],[-75.863959793,42.9273784,0.0],[-75.863870193,42.927422267,0.0],[-75.863840393,42.9274388,0.0],[-75.863795593,42.9274388,0.0],[-75.863765726,42.927455267,0.0],[-75.863743193,42.927455267,0.0],[-75.863728326,42.9274498,0.0],[-75.863705926,42.927466267,0.0],[-75.863608793,42.9274938,0.0],[-75.863332526,42.9275268,0.0],[-75.863295126,42.9275268,0.0],[-75.862958993,42.927549,0.0],[-75.862944126,42.927559867,0.0],[-75.862846993,42.927576467,0.0],[-75.862817126,42.927582,0.0],[-75.862720126,42.9276094,0.0],[-75.862667793,42.927620467,0.0],[-75.862645326,42.927636867,0.0],[-75.862570726,42.9276534,0.0],[-75.862354193,42.9277798,0.0],[-75.862324326,42.927807267,0.0],[-75.862316793,42.927807267,0.0],[-75.862115193,42.927972,0.0],[-75.862115326,42.927977467,0.0],[-75.862085393,42.928005,0.0],[-75.862062993,42.9280324,0.0],[-75.862025726,42.928070867,0.0],[-75.862010793,42.928103867,0.0],[-75.861988393,42.9281258,0.0],[-75.861973526,42.928158667,0.0],[-75.861943726,42.9281752,0.0],[-75.861936193,42.9282136,0.0],[-75.861906326,42.928230067,0.0],[-75.861906393,42.928252067,0.0],[-75.861898926,42.9282576,0.0],[-75.861906393,42.928268467,0.0],[-75.861868993,42.928296,0.0],[-75.861854126,42.928329,0.0],[-75.861831726,42.928351,0.0],[-75.861816793,42.9283948,0.0],[-75.861794393,42.928411267,0.0],[-75.861794393,42.9284498,0.0],[-75.861757126,42.9284882,0.0],[-75.861742193,42.928510067,0.0],[-75.861742326,42.928532067,0.0],[-75.861712326,42.9285486,0.0],[-75.861689926,42.9285926,0.0],[-75.861660126,42.9286584,0.0],[-75.861637793,42.928674867,0.0],[-75.861622793,42.9287188,0.0],[-75.861600393,42.928740667,0.0],[-75.861570593,42.928812067,0.0],[-75.861548193,42.928828667,0.0],[-75.861548326,42.9288396,0.0],[-75.861533326,42.928856067,0.0],[-75.861540251,42.928948625,0.0],[-75.861545926,42.929024467,0.0],[-75.861555998,42.929158003,0.0],[-75.861593393,42.9291744,0.0],[-75.861660593,42.9292512,0.0],[-75.861653193,42.929278667,0.0],[-75.861653193,42.929361067,0.0],[-75.861660726,42.929372,0.0],[-75.861645726,42.929377467,0.0],[-75.861645726,42.929388467,0.0],[-75.861660793,42.929394,0.0],[-75.861645926,42.929405,0.0],[-75.861645793,42.929416,0.0],[-75.861660793,42.9294214,0.0],[-75.861645926,42.9294324,0.0],[-75.861660793,42.929476267,0.0],[-75.861660926,42.929608,0.0],[-75.861631126,42.9296904,0.0],[-75.861608593,42.9297068,0.0],[-75.861608726,42.9297178,0.0],[-75.861578793,42.9297234,0.0],[-75.861563926,42.9297344,0.0],[-75.861541526,42.9297344,0.0],[-75.861519126,42.9297508,0.0],[-75.861429393,42.929739867,0.0],[-75.861414526,42.929728867,0.0],[-75.861392126,42.929739867,0.0],[-75.861377126,42.929750867,0.0],[-75.861265126,42.929750867,0.0],[-75.861205326,42.9297564,0.0],[-75.861115726,42.929827867,0.0],[-75.861100793,42.929855267,0.0],[-75.861100926,42.9299102,0.0],[-75.861130793,42.929926667,0.0],[-75.861138326,42.929954067,0.0],[-75.861138193,42.929976,0.0],[-75.861272926,42.930069267,0.0],[-75.861310126,42.9300968,0.0],[-75.861332593,42.930124067,0.0],[-75.861332726,42.9301406,0.0],[-75.861362593,42.9301572,0.0],[-75.861362526,42.930179,0.0],[-75.861392526,42.930244867,0.0],[-75.861392593,42.930294267,0.0],[-75.861422393,42.930316267,0.0],[-75.861444993,42.930459,0.0],[-75.861452526,42.930469867,0.0],[-75.861437526,42.9304974,0.0],[-75.861452393,42.9305084,0.0],[-75.861452393,42.930535867,0.0],[-75.861474926,42.930590667,0.0],[-75.861459993,42.9305962,0.0],[-75.861459993,42.9306346,0.0],[-75.861489926,42.930651067,0.0],[-75.861475126,42.930700467,0.0],[-75.861497526,42.9307828,0.0],[-75.861482526,42.930788267,0.0],[-75.861504993,42.930953,0.0],[-75.861519993,42.9309914,0.0],[-75.861527526,42.9310024,0.0],[-75.861527526,42.931046267,0.0],[-75.861549993,42.9311396,0.0],[-75.861587393,42.931167,0.0],[-75.861579993,42.9311726,0.0],[-75.861624793,42.9312274,0.0],[-75.861647193,42.9312548,0.0],[-75.861647326,42.9312658,0.0],[-75.861722126,42.931320667,0.0],[-75.861759393,42.93137,0.0],[-75.861759393,42.931425,0.0],[-75.861737126,42.9314414,0.0],[-75.861722126,42.9315018,0.0],[-75.861729593,42.9315128,0.0],[-75.861692326,42.931540267,0.0],[-75.861692393,42.9315568,0.0],[-75.861677526,42.931606067,0.0],[-75.861655126,42.9316226,0.0],[-75.861625193,42.9317324,0.0],[-75.861617793,42.931737867,0.0],[-75.861617926,42.931831267,0.0],[-75.861625393,42.9318422,0.0],[-75.861610393,42.931847667,0.0],[-75.861610393,42.93193,0.0],[-75.861632993,42.9321166,0.0],[-75.861648326,42.93249,0.0],[-75.861663193,42.9324954,0.0],[-75.861663326,42.9325448,0.0],[-75.861678193,42.9325722,0.0],[-75.861663193,42.932577667,0.0],[-75.861685726,42.932671,0.0],[-75.861670793,42.932682067,0.0],[-75.861670926,42.932715,0.0],[-75.861685926,42.932742467,0.0],[-75.861693193,42.9327534,0.0],[-75.861685793,42.9327644,0.0],[-75.861685926,42.932808267,0.0],[-75.861708393,42.9328522,0.0],[-75.861693526,42.9329016,0.0],[-75.861700993,42.932973,0.0],[-75.861693526,42.932983867,0.0],[-75.861708793,42.933445,0.0],[-75.861693793,42.933456067,0.0],[-75.861694126,42.9336756,0.0],[-75.861701526,42.9336866,0.0],[-75.861694126,42.933692067,0.0],[-75.861701526,42.933736,0.0],[-75.861679193,42.933812867,0.0],[-75.861686593,42.933818267,0.0],[-75.861671793,42.933873267,0.0],[-75.861664326,42.9338952,0.0],[-75.861649393,42.933900667,0.0],[-75.861649393,42.9339282,0.0],[-75.861634526,42.9339556,0.0],[-75.861649526,42.933966467,0.0],[-75.861649526,42.933983,0.0],[-75.861612126,42.934010467,0.0],[-75.861597193,42.934076267,0.0],[-75.861567393,42.934092867,0.0],[-75.861582393,42.934120267,0.0],[-75.861559993,42.9341642,0.0],[-75.861530126,42.9341862,0.0],[-75.861507726,42.9342576,0.0],[-75.861515326,42.934263,0.0],[-75.861492926,42.934285,0.0],[-75.861462993,42.9343564,0.0],[-75.861462993,42.9343948,0.0],[-75.861440726,42.9344552,0.0],[-75.861448126,42.934466067,0.0],[-75.861448193,42.9344826,0.0],[-75.861425793,42.934526467,0.0],[-75.861418393,42.934685667,0.0],[-75.861448326,42.9347022,0.0],[-75.861448326,42.934718667,0.0],[-75.861433393,42.934746067,0.0],[-75.861455926,42.9347956,0.0],[-75.861470793,42.934801,0.0],[-75.861470793,42.934822867,0.0],[-75.861478393,42.9348834,0.0],[-75.861508326,42.934905267,0.0],[-75.861508326,42.9349218,0.0],[-75.861530726,42.9349382,0.0],[-75.861538193,42.934993067,0.0],[-75.861553193,42.935004067,0.0],[-75.861553193,42.935031467,0.0],[-75.861598126,42.9351138,0.0],[-75.861598126,42.935141267,0.0],[-75.861628126,42.9351632,0.0],[-75.861620526,42.935196067,0.0],[-75.861657993,42.9352346,0.0],[-75.861687926,42.935289467,0.0],[-75.861695393,42.9353004,0.0],[-75.861680393,42.935305867,0.0],[-75.861695393,42.935355267,0.0],[-75.861717926,42.9353828,0.0],[-75.861732926,42.9354102,0.0],[-75.861717926,42.935415667,0.0],[-75.861732926,42.935465067,0.0],[-75.861732926,42.9354816,0.0],[-75.861755326,42.935498067,0.0],[-75.861770326,42.9355364,0.0],[-75.861777793,42.9355474,0.0],[-75.861762793,42.935574867,0.0],[-75.861762793,42.935591267,0.0],[-75.861792726,42.9356078,0.0],[-75.861815193,42.935701067,0.0],[-75.861822726,42.935712067,0.0],[-75.861837726,42.9357944,0.0],[-75.861860126,42.9358108,0.0],[-75.861860193,42.935838267,0.0],[-75.861882593,42.9359206,0.0],[-75.861897593,42.9359316,0.0],[-75.861897593,42.935975467,0.0],[-75.861919993,42.9360194,0.0],[-75.861934993,42.9360304,0.0],[-75.861920126,42.9360414,0.0],[-75.861934993,42.9360468,0.0],[-75.861965193,42.9362664,0.0],[-75.861979993,42.9362774,0.0],[-75.861965193,42.9363214,0.0],[-75.861987593,42.9363762,0.0],[-75.861972726,42.9363872,0.0],[-75.861972726,42.93653,0.0],[-75.861942926,42.9366068,0.0],[-75.861920593,42.936722067,0.0],[-75.861890726,42.936738467,0.0],[-75.861890793,42.936777,0.0],[-75.861868393,42.9367934,0.0],[-75.861853526,42.936820867,0.0],[-75.861853393,42.936842867,0.0],[-75.861816193,42.9368704,0.0],[-75.861816193,42.9369032,0.0],[-75.861786326,42.9369252,0.0],[-75.861726593,42.9370022,0.0],[-75.861726726,42.937024,0.0],[-75.861696726,42.9370406,0.0],[-75.861674526,42.937112,0.0],[-75.861659526,42.937122867,0.0],[-75.861644593,42.937194267,0.0],[-75.861659593,42.937205267,0.0],[-75.861644593,42.937232667,0.0],[-75.861637126,42.9372656,0.0],[-75.861622193,42.9372766,0.0],[-75.861614926,42.9374578,0.0],[-75.861652393,42.9376224,0.0],[-75.861652526,42.9376718,0.0],[-75.861689926,42.9376992,0.0],[-75.861674926,42.937726667,0.0],[-75.861682393,42.937831067,0.0],[-75.861697393,42.9378584,0.0],[-75.861712326,42.937869467,0.0],[-75.861704926,42.9379244,0.0],[-75.861734926,42.937946267,0.0],[-75.861719926,42.9379518,0.0],[-75.861734793,42.9380066,0.0],[-75.861742393,42.9380176,0.0],[-75.861757326,42.938088867,0.0],[-75.861764926,42.9381054,0.0],[-75.861779793,42.9381164,0.0],[-75.861787326,42.9381988,0.0],[-75.861817326,42.938220667,0.0],[-75.861824926,42.938308467,0.0],[-75.861839793,42.938325,0.0],[-75.861847193,42.938336,0.0],[-75.861862326,42.938407267,0.0],[-75.861884593,42.938429267,0.0],[-75.861907193,42.93855,0.0],[-75.861922126,42.938555467,0.0],[-75.861922126,42.938566467,0.0],[-75.861944526,42.938582867,0.0],[-75.861929593,42.938593867,0.0],[-75.861952126,42.9386762,0.0],[-75.861966993,42.9386872,0.0],[-75.861967126,42.9387202,0.0],[-75.862011993,42.938802467,0.0],[-75.862026926,42.9388134,0.0],[-75.862011993,42.938824467,0.0],[-75.862026993,42.9388574,0.0],[-75.862041926,42.9388684,0.0],[-75.862049526,42.938939667,0.0],[-75.862086793,42.938967067,0.0],[-75.862071993,42.9389946,0.0],[-75.862086926,42.939022,0.0],[-75.862086793,42.939033,0.0],[-75.862109193,42.939049467,0.0],[-75.862109326,42.9390988,0.0],[-75.862131726,42.939115267,0.0],[-75.862124326,42.939126267,0.0],[-75.862169193,42.9392086,0.0],[-75.862191726,42.9392964,0.0],[-75.862214126,42.9393184,0.0],[-75.862243993,42.9394062,0.0],[-75.862251526,42.9394172,0.0],[-75.862251593,42.9394556,0.0],[-75.862273993,42.939472,0.0],[-75.862273993,42.939483,0.0],[-75.862303926,42.9394994,0.0],[-75.862288993,42.939510467,0.0],[-75.862296526,42.939565267,0.0],[-75.862326393,42.9395818,0.0],[-75.862326393,42.9396092,0.0],[-75.862348793,42.939625667,0.0],[-75.862371326,42.939735467,0.0],[-75.862423726,42.939784867,0.0],[-75.862408793,42.939812267,0.0],[-75.862416326,42.9398398,0.0],[-75.862416193,42.9398452,0.0],[-75.862446193,42.9398672,0.0],[-75.862446193,42.939883667,0.0],[-75.862453726,42.939911067,0.0],[-75.862476193,42.939933067,0.0],[-75.862476126,42.939949467,0.0],[-75.862491126,42.9399934,0.0],[-75.862513593,42.9400154,0.0],[-75.862513593,42.940042867,0.0],[-75.862535993,42.940059267,0.0],[-75.862565993,42.9401416,0.0],[-75.862588393,42.940158067,0.0],[-75.862595926,42.940196467,0.0],[-75.862625793,42.940212867,0.0],[-75.862633326,42.9402678,0.0],[-75.862648193,42.9402898,0.0],[-75.862670726,42.940344667,0.0],[-75.862693193,42.940361067,0.0],[-75.862693193,42.9403776,0.0],[-75.862708126,42.940427,0.0],[-75.862730593,42.940443467,0.0],[-75.862752993,42.940509267,0.0],[-75.862782926,42.9405532,0.0],[-75.862805393,42.9405696,0.0],[-75.862805393,42.9405916,0.0],[-75.862827926,42.940652,0.0],[-75.862842793,42.940663,0.0],[-75.862835326,42.9406904,0.0],[-75.862865326,42.940734267,0.0],[-75.862865326,42.940756267,0.0],[-75.862887726,42.940772667,0.0],[-75.862887726,42.9408002,0.0],[-75.862910326,42.940844067,0.0],[-75.862932593,42.940866,0.0],[-75.862932726,42.940893467,0.0],[-75.862962526,42.940909867,0.0],[-75.862969993,42.9409648,0.0],[-75.862992526,42.9409868,0.0],[-75.862992526,42.941003267,0.0],[-75.863029993,42.941069067,0.0],[-75.863029993,42.941085467,0.0],[-75.863052393,42.941102,0.0],[-75.863082393,42.9411788,0.0],[-75.863104793,42.941195267,0.0],[-75.863112326,42.9412502,0.0],[-75.863142193,42.9412666,0.0],[-75.863149726,42.941316067,0.0],[-75.863172193,42.941332467,0.0],[-75.863187126,42.9413874,0.0],[-75.863224393,42.9414258,0.0],[-75.863246993,42.9414862,0.0],[-75.863269393,42.9415082,0.0],[-75.863261993,42.9415136,0.0],[-75.863269393,42.941535467,0.0],[-75.863291926,42.941579467,0.0],[-75.863306793,42.941590467,0.0],[-75.863306926,42.9416234,0.0],[-75.863344326,42.9417332,0.0],[-75.863351793,42.941744067,0.0],[-75.863344393,42.941771467,0.0],[-75.863344393,42.941799,0.0],[-75.863366793,42.941843,0.0],[-75.863381926,42.942100867,0.0],[-75.863374526,42.942111867,0.0],[-75.863367193,42.9422272,0.0],[-75.863359593,42.9422766,0.0],[-75.863329793,42.942293,0.0],[-75.863329926,42.942320467,0.0],[-75.863344793,42.942326,0.0],[-75.863314926,42.942348,0.0],[-75.863314926,42.9423754,0.0],[-75.863188126,42.9424798,0.0],[-75.863113326,42.9425182,0.0],[-75.863090926,42.942518267,0.0],[-75.863068593,42.942534667,0.0],[-75.862993793,42.942545667,0.0],[-75.862978793,42.942551267,0.0],[-75.862948926,42.9425512,0.0],[-75.862926593,42.9425732,0.0],[-75.862792126,42.9425898,0.0],[-75.862717393,42.942606267,0.0],[-75.862605393,42.942633667,0.0],[-75.862478393,42.942655667,0.0],[-75.862463393,42.942666667,0.0],[-75.862411126,42.9426668,0.0],[-75.862388793,42.9426832,0.0],[-75.862298993,42.942699667,0.0],[-75.862261793,42.9427272,0.0],[-75.862239393,42.9427272,0.0],[-75.862186993,42.942754667,0.0],[-75.862172126,42.9427546,0.0],[-75.862134726,42.942782067,0.0],[-75.862037726,42.942837067,0.0],[-75.861910726,42.942925,0.0],[-75.861873393,42.942968867,0.0],[-75.861843593,42.942990867,0.0],[-75.861843526,42.9429964,0.0],[-75.861821126,42.9430184,0.0],[-75.861798793,42.9430788,0.0],[-75.861753993,42.943122667,0.0],[-75.861746526,42.943161067,0.0],[-75.861731593,42.943199467,0.0],[-75.861716593,42.943205,0.0],[-75.861716726,42.943270867,0.0],[-75.861701926,42.943353267,0.0],[-75.861716793,42.943358667,0.0],[-75.861716793,42.9433862,0.0],[-75.861739393,42.943545267,0.0],[-75.861746793,42.9435508,0.0],[-75.861746793,42.943578267,0.0],[-75.861784326,42.943655067,0.0],[-75.861821726,42.9437704,0.0],[-75.861844193,42.9438362,0.0],[-75.861881593,42.943863667,0.0],[-75.861866726,42.943874667,0.0],[-75.861881726,42.943929467,0.0],[-75.861904126,42.943946,0.0],[-75.861904126,42.9439844,0.0],[-75.861926526,42.9440008,0.0],[-75.861948993,42.9441106,0.0],[-75.861963993,42.944127067,0.0],[-75.861971526,42.944138067,0.0],[-75.861971526,42.9441546,0.0],[-75.861986526,42.944203867,0.0],[-75.862023926,42.944242267,0.0],[-75.862008926,42.944264267,0.0],[-75.862023926,42.944297267,0.0],[-75.862023926,42.9443138,0.0],[-75.862046326,42.9443302,0.0],[-75.862046393,42.9443576,0.0],[-75.862068926,42.944407,0.0],[-75.862091393,42.9445168,0.0],[-75.862106326,42.9445332,0.0],[-75.862128793,42.944599067,0.0],[-75.862151193,42.944615467,0.0],[-75.862151193,42.944632,0.0],[-75.862188593,42.9446978,0.0],[-75.862188593,42.944714267,0.0],[-75.862211126,42.944736267,0.0],[-75.862233593,42.9447912,0.0],[-75.862263526,42.944807667,0.0],[-75.862285926,42.944879,0.0],[-75.862308326,42.944900867,0.0],[-75.862308393,42.9449174,0.0],[-75.862323393,42.9449448,0.0],[-75.862360593,42.944972267,0.0],[-75.862345726,42.944983267,0.0],[-75.862353193,42.945010667,0.0],[-75.862353326,42.9450162,0.0],[-75.862383126,42.945038067,0.0],[-75.862390593,42.945082,0.0],[-75.862427993,42.945109467,0.0],[-75.862413126,42.945137,0.0],[-75.862427993,42.9451644,0.0],[-75.862428126,42.9451754,0.0],[-75.862450526,42.9451918,0.0],[-75.862450526,42.9452302,0.0],[-75.862472993,42.945246667,0.0],[-75.862488126,42.945318,0.0],[-75.862502926,42.945329,0.0],[-75.862495593,42.945372867,0.0],[-75.862532926,42.9454058,0.0],[-75.862525526,42.9454278,0.0],[-75.862555393,42.945521067,0.0],[-75.862577926,42.945619867,0.0],[-75.862592926,42.945630867,0.0],[-75.862615393,42.945729667,0.0],[-75.862630393,42.9457406,0.0],[-75.862637793,42.945817467,0.0],[-75.862667726,42.945833867,0.0],[-75.862690193,42.9459162,0.0],[-75.862727593,42.945982067,0.0],[-75.862757593,42.946064467,0.0],[-75.862794993,42.946091867,0.0],[-75.862794993,42.946119267,0.0],[-75.862817393,42.9461358,0.0],[-75.862832393,42.946179667,0.0],[-75.862854926,42.9462016,0.0],[-75.862869793,42.9462346,0.0],[-75.862892326,42.9462566,0.0],[-75.862907326,42.946284,0.0],[-75.862907193,42.946289467,0.0],[-75.862929726,42.9463114,0.0],[-75.862944593,42.946344267,0.0],[-75.862967126,42.946366267,0.0],[-75.862974593,42.9463992,0.0],[-75.863004393,42.946421067,0.0],[-75.863011926,42.9464486,0.0],[-75.863011993,42.946459467,0.0],[-75.863049393,42.946487,0.0],[-75.863049326,42.946503467,0.0],[-75.863086793,42.946541867,0.0],[-75.863109193,42.946569267,0.0],[-75.863124193,42.946585667,0.0],[-75.863124193,42.946596667,0.0],[-75.863161593,42.9466242,0.0],[-75.863161593,42.946651667,0.0],[-75.863183993,42.946668067,0.0],[-75.863198993,42.946695467,0.0],[-75.863221526,42.946723,0.0],[-75.863236393,42.9467504,0.0],[-75.863266393,42.9467888,0.0],[-75.863266326,42.946794267,0.0],[-75.863296193,42.9468162,0.0],[-75.863296326,42.946832667,0.0],[-75.863341126,42.946871067,0.0],[-75.863341126,42.9468986,0.0],[-75.863356126,42.946926,0.0],[-75.863393526,42.946964467,0.0],[-75.863393526,42.946969867,0.0],[-75.863430926,42.946997267,0.0],[-75.863430926,42.947019267,0.0],[-75.863460793,42.947046667,0.0],[-75.863490793,42.9471016,0.0],[-75.863498193,42.947107067,0.0],[-75.863498193,42.947118067,0.0],[-75.863528126,42.947134467,0.0],[-75.863535726,42.947172867,0.0],[-75.863573126,42.9472004,0.0],[-75.863573126,42.947227867,0.0],[-75.863625393,42.9472662,0.0],[-75.863625393,42.9472772,0.0],[-75.863610526,42.947282667,0.0],[-75.863632926,42.947304667,0.0],[-75.863647926,42.9473376,0.0],[-75.863670326,42.947359467,0.0],[-75.863670326,42.947376,0.0],[-75.863692726,42.947392467,0.0],[-75.863707726,42.947419867,0.0],[-75.863730126,42.947447267,0.0],[-75.863767593,42.947529667,0.0],[-75.863789993,42.9475516,0.0],[-75.863789993,42.947557067,0.0],[-75.863827393,42.947584467,0.0],[-75.863827526,42.947623,0.0],[-75.863864926,42.947650267,0.0],[-75.863879793,42.947650267,0.0],[-75.863864926,42.9476778,0.0],[-75.863872393,42.9476888,0.0],[-75.863872326,42.947694267,0.0],[-75.863902326,42.9477162,0.0],[-75.863909793,42.947749067,0.0],[-75.863939593,42.947771067,0.0],[-75.863947126,42.9477986,0.0],[-75.863947193,42.947815,0.0],[-75.863969593,42.947836867,0.0],[-75.863984593,42.947869867,0.0],[-75.864006993,42.947891867,0.0],[-75.864006993,42.9479082,0.0],[-75.864021993,42.947935667,0.0],[-75.864044393,42.9479522,0.0],[-75.864044393,42.9479742,0.0],[-75.864066926,42.9479906,0.0],[-75.864081793,42.948045467,0.0],[-75.864089326,42.948056467,0.0],[-75.864089326,42.948062,0.0],[-75.864119326,42.948083867,0.0],[-75.864119326,42.9481004,0.0],[-75.864156726,42.9481662,0.0],[-75.864186593,42.9482266,0.0],[-75.864209126,42.9483034,0.0],[-75.864238993,42.9483198,0.0],[-75.864246526,42.9483748,0.0],[-75.864276393,42.9483912,0.0],[-75.864283926,42.948446067,0.0],[-75.864298993,42.948468067,0.0],[-75.864321393,42.948522867,0.0],[-75.864343793,42.9485394,0.0],[-75.864358793,42.948594267,0.0],[-75.864366326,42.9486162,0.0],[-75.864403726,42.948698467,0.0],[-75.864418726,42.948704067,0.0],[-75.864426193,42.948780867,0.0],[-75.864441193,42.9487974,0.0],[-75.864448593,42.948808267,0.0],[-75.864448726,42.948852267,0.0],[-75.864478593,42.948868667,0.0],[-75.864478726,42.948879667,0.0],[-75.864486126,42.9488906,0.0],[-75.864478726,42.9488962,0.0],[-75.864501193,42.948989467,0.0],[-75.864538526,42.949016867,0.0],[-75.864538593,42.949033267,0.0],[-75.864523593,42.9490608,0.0],[-75.864531126,42.9490718,0.0],[-75.864531126,42.9490992,0.0],[-75.864560993,42.949115667,0.0],[-75.864561126,42.9491266,0.0],[-75.864568526,42.9491376,0.0],[-75.864561126,42.949143067,0.0],[-75.864576193,42.949329667,0.0],[-75.864568593,42.9493352,0.0],[-75.864568726,42.9493736,0.0],[-75.864576126,42.9493792,0.0],[-75.864568726,42.949390067,0.0],[-75.864576326,42.949434,0.0],[-75.864576193,42.949483467,0.0],[-75.864561326,42.949510867,0.0],[-75.864576326,42.9495164,0.0],[-75.864561393,42.949582267,0.0],[-75.864576393,42.9496262,0.0],[-75.864561526,42.9496536,0.0],[-75.864561526,42.949681067,0.0],[-75.864568993,42.9497304,0.0],[-75.864546593,42.949746867,0.0],[-75.864546593,42.9497854,0.0],[-75.864554126,42.949812933,0.0],[-75.864546726,42.949818333,0.0],[-75.864546593,42.949829333,0.0],[-75.864516793,42.949845733,0.0],[-75.864494393,42.949972133,0.0],[-75.864464593,42.949994,0.0],[-75.864464726,42.950027,0.0],[-75.864442193,42.950048933,0.0],[-75.864427393,42.9500928,0.0],[-75.864442326,42.9500984,0.0],[-75.864390126,42.9501532,0.0],[-75.864390126,42.950180733,0.0],[-75.864360126,42.9502026,0.0],[-75.864352726,42.950235533,0.0],[-75.864360193,42.9502466,0.0],[-75.864322926,42.950274,0.0],[-75.864322926,42.950301533,0.0],[-75.864300393,42.950318,0.0],[-75.864300526,42.950329,0.0],[-75.864270726,42.9503454,0.0],[-75.864270726,42.950361933,0.0],[-75.864248326,42.9503838,0.0],[-75.864233326,42.950427733,0.0],[-75.864233393,42.950438733,0.0],[-75.864195993,42.950460733,0.0],[-75.864195993,42.9504882,0.0],[-75.864143793,42.950570533,0.0],[-75.864143793,42.950581533,0.0],[-75.864121326,42.950598,0.0],[-75.864106526,42.9506474,0.0],[-75.864076726,42.9506638,0.0],[-75.864069193,42.950691333,0.0],[-75.864069193,42.9507078,0.0],[-75.864039193,42.950724333,0.0],[-75.864016993,42.9507792,0.0],[-75.863987126,42.9508286,0.0],[-75.864001993,42.950834133,0.0],[-75.864002126,42.950845133,0.0],[-75.863964726,42.950872533,0.0],[-75.863919993,42.9510152,0.0],[-75.863882726,42.951064733,0.0],[-75.863882593,42.951097733,0.0],[-75.863867726,42.951125,0.0],[-75.863882726,42.951136,0.0],[-75.863852993,42.951262333,0.0],[-75.863845526,42.951273333,0.0],[-75.863867993,42.9514818,0.0],[-75.863860726,42.9514984,0.0],[-75.863875726,42.9516356,0.0],[-75.863898126,42.951657533,0.0],[-75.863898126,42.951674,0.0],[-75.863935526,42.951739933,0.0],[-75.863942993,42.9517838,0.0],[-75.863972993,42.9518002,0.0],[-75.863980393,42.951838733,0.0],[-75.864010326,42.951855133,0.0],[-75.864002926,42.951877,0.0],[-75.864040326,42.951904533,0.0],[-75.864055193,42.9519374,0.0],[-75.864077726,42.951959333,0.0],[-75.864077726,42.9519648,0.0],[-75.864107726,42.951986733,0.0],[-75.864100193,42.952014333,0.0],[-75.864152526,42.952047133,0.0],[-75.864309593,42.952206333,0.0],[-75.864548926,42.9523928,0.0],[-75.864541393,42.9523982,0.0],[-75.864571393,42.9524202,0.0],[-75.864900393,42.952716533,0.0],[-75.864915326,42.952716533,0.0],[-75.864915326,42.952721933,0.0],[-75.865154726,42.9529194,0.0],[-75.865244326,42.952974333,0.0],[-75.865259326,42.952974333,0.0],[-75.865259326,42.9529798,0.0],[-75.865378993,42.9530676,0.0],[-75.865393993,42.953067533,0.0],[-75.865393926,42.953073,0.0],[-75.865506126,42.9531498,0.0],[-75.865528526,42.953177333,0.0],[-75.865565926,42.953204733,0.0],[-75.865573393,42.953204733,0.0],[-75.865573393,42.9532212,0.0],[-75.865625793,42.9532596,0.0],[-75.865640726,42.9532596,0.0],[-75.865640593,42.953270533,0.0],[-75.865685593,42.9533034,0.0],[-75.865700393,42.9533034,0.0],[-75.865700526,42.9533144,0.0],[-75.866007126,42.953561333,0.0],[-75.866014726,42.953583333,0.0],[-75.866014593,42.9535888,0.0],[-75.866044593,42.953610733,0.0],[-75.866119326,42.953676533,0.0],[-75.866126793,42.953676533,0.0],[-75.866126793,42.953693,0.0],[-75.866179193,42.9537314,0.0],[-75.866186593,42.9537314,0.0],[-75.866186593,42.9537478,0.0],[-75.866216526,42.953764333,0.0],[-75.866253993,42.9537862,0.0],[-75.866283926,42.9538466,0.0],[-75.866508326,42.9540496,0.0],[-75.866530726,42.954077133,0.0],[-75.866530726,42.954088133,0.0],[-75.866582993,42.9541264,0.0],[-75.866582993,42.9541538,0.0],[-75.866627926,42.954208733,0.0],[-75.866627993,42.954219733,0.0],[-75.866665393,42.954247133,0.0],[-75.866665393,42.9542636,0.0],[-75.866725193,42.954318533,0.0],[-75.866725326,42.954356933,0.0],[-75.866747726,42.954373333,0.0],[-75.866814993,42.954444733,0.0],[-75.866814993,42.9544666,0.0],[-75.866844926,42.954494133,0.0],[-75.866874793,42.954521533,0.0],[-75.866874793,42.954538,0.0],[-75.866919726,42.9545928,0.0],[-75.866919793,42.9546148,0.0],[-75.866957126,42.954647733,0.0],[-75.866957193,42.954658733,0.0],[-75.866994593,42.954686133,0.0],[-75.867017126,42.954752,0.0],[-75.867031993,42.954757533,0.0],[-75.867032126,42.954779533,0.0],[-75.867069393,42.954812333,0.0],[-75.867091926,42.9548672,0.0],[-75.867129326,42.9548946,0.0],[-75.867114393,42.954922133,0.0],[-75.867114393,42.954933133,0.0],[-75.867136793,42.9549496,0.0],[-75.867151726,42.954998933,0.0],[-75.867189126,42.9550264,0.0],[-75.867219126,42.9551362,0.0],[-75.867248993,42.9551526,0.0],[-75.867249126,42.955169133,0.0],[-75.867271526,42.955191,0.0],[-75.867271526,42.955207533,0.0],[-75.867294126,42.9553172,0.0],[-75.867331393,42.955344733,0.0],[-75.867316593,42.955372133,0.0],[-75.867353993,42.955465533,0.0],[-75.867361526,42.9555752,0.0],[-75.867391526,42.955591733,0.0],[-75.867391393,42.9556026,0.0],[-75.867376593,42.955608133,0.0],[-75.867384126,42.955619133,0.0],[-75.867384126,42.955646533,0.0],[-75.867413993,42.9556904,0.0],[-75.867399126,42.9557014,0.0],[-75.867421726,42.9559594,0.0],[-75.867429126,42.955964933,0.0],[-75.867391926,42.956047333,0.0],[-75.867406793,42.9560582,0.0],[-75.867406926,42.956085733,0.0],[-75.867376993,42.956102133,0.0],[-75.867362126,42.956222933,0.0],[-75.867362126,42.9562284,0.0],[-75.867339726,42.9562504,0.0],[-75.867339793,42.956294333,0.0],[-75.867309926,42.9563382,0.0],[-75.867280126,42.956486533,0.0],[-75.867257793,42.956503,0.0],[-75.867257926,42.9565414,0.0],[-75.867272793,42.956546933,0.0],[-75.867242926,42.9565688,0.0],[-75.867227993,42.956684133,0.0],[-75.867242993,42.956695133,0.0],[-75.867228126,42.956733533,0.0],[-75.867213193,42.956739,0.0],[-75.867213193,42.9567664,0.0],[-75.867228193,42.956793933,0.0],[-75.867242993,42.9568048,0.0],[-75.867228193,42.956821333,0.0],[-75.867213326,42.956832333,0.0],[-75.867213193,42.9568652,0.0],[-75.867228193,42.9568926,0.0],[-75.867235726,42.956903733,0.0],[-75.867213326,42.956931133,0.0],[-75.867235793,42.956986,0.0],[-75.867235793,42.957002533,0.0],[-75.867220793,42.957029933,0.0],[-75.867235793,42.9570574,0.0],[-75.867250793,42.957068333,0.0],[-75.867258393,42.957194533,0.0],[-75.867295726,42.957222,0.0],[-75.867295793,42.957233,0.0],[-75.867303326,42.957244,0.0],[-75.867295793,42.957249533,0.0],[-75.867295793,42.957287933,0.0],[-75.867318193,42.957304333,0.0],[-75.867333193,42.9573318,0.0],[-75.867325793,42.9573702,0.0],[-75.867355726,42.957386733,0.0],[-75.867355726,42.9574086,0.0],[-75.867378193,42.957469,0.0],[-75.867385726,42.957479933,0.0],[-75.867385726,42.9575074,0.0],[-75.867415593,42.9575238,0.0],[-75.867415726,42.957573333,0.0],[-75.867438126,42.957589733,0.0],[-75.867468193,42.9577434,0.0],[-75.867498126,42.9577654,0.0],[-75.867483126,42.9578092,0.0],[-75.867490593,42.957847733,0.0],[-75.867520526,42.9578642,0.0],[-75.867505593,42.9578752,0.0],[-75.867505726,42.957880733,0.0],[-75.867490793,42.9578916,0.0],[-75.867505593,42.957902533,0.0],[-75.867513193,42.9579904,0.0],[-75.867550593,42.958067333,0.0],[-75.867565726,42.958083733,0.0],[-75.867588126,42.9581276,0.0],[-75.867722726,42.958259333,0.0],[-75.867812393,42.958314133,0.0],[-75.867819926,42.958325133,0.0],[-75.867849793,42.958325133,0.0],[-75.867849793,42.9583306,0.0],[-75.867887193,42.958352533,0.0],[-75.867894726,42.9583634,0.0],[-75.867917193,42.958363533,0.0],[-75.867917126,42.958369,0.0],[-75.867991926,42.9584074,0.0],[-75.868066726,42.958445733,0.0],[-75.868096593,42.9584512,0.0],[-75.868156393,42.958484133,0.0],[-75.868208726,42.9584896,0.0],[-75.868238726,42.958511533,0.0],[-75.868253593,42.9585006,0.0],[-75.868290993,42.958517,0.0],[-75.868403126,42.9585554,0.0],[-75.868418126,42.958566333,0.0],[-75.868455526,42.958566333,0.0],[-75.868500193,42.958593733,0.0],[-75.868530126,42.9585938,0.0],[-75.868567593,42.9586156,0.0],[-75.868664726,42.958643133,0.0],[-75.868702126,42.958659533,0.0],[-75.868709593,42.958654,0.0],[-75.868739526,42.9586594,0.0],[-75.868799326,42.958686933,0.0],[-75.868821793,42.958686933,0.0],[-75.868873993,42.958714333,0.0],[-75.868911393,42.958714333,0.0],[-75.868948926,42.9587362,0.0],[-75.868963726,42.958747133,0.0],[-75.868986193,42.9587472,0.0],[-75.869038593,42.9587746,0.0],[-75.869060993,42.9587746,0.0],[-75.869105926,42.958802,0.0],[-75.869210526,42.9588294,0.0],[-75.869232926,42.958845933,0.0],[-75.869285326,42.9588568,0.0],[-75.869367526,42.9588952,0.0],[-75.869427326,42.9589226,0.0],[-75.869479726,42.95895,0.0],[-75.869502126,42.95895,0.0],[-75.869651726,42.9590432,0.0],[-75.869666593,42.9590432,0.0],[-75.869935793,42.959229733,0.0],[-75.869935793,42.9592462,0.0],[-75.869958193,42.9592462,0.0],[-75.870227526,42.9594656,0.0],[-75.870227526,42.9594766,0.0],[-75.870369593,42.959580933,0.0],[-75.870377126,42.9595808,0.0],[-75.870377126,42.959586333,0.0],[-75.870429526,42.959624733,0.0],[-75.870429526,42.9596412,0.0],[-75.870466926,42.959668733,0.0],[-75.870474326,42.959674133,0.0],[-75.870474393,42.9596906,0.0],[-75.870526726,42.959729,0.0],[-75.870534193,42.959728933,0.0],[-75.870534326,42.9597344,0.0],[-75.870736126,42.959904533,0.0],[-75.870736193,42.95991,0.0],[-75.870780993,42.9599484,0.0],[-75.870915593,42.960069133,0.0],[-75.870915726,42.9600746,0.0],[-75.871005393,42.9601514,0.0],[-75.871005393,42.960167933,0.0],[-75.871065326,42.960222733,0.0],[-75.871087793,42.9602502,0.0],[-75.871110193,42.960277533,0.0],[-75.871147726,42.960316,0.0],[-75.871177593,42.9603434,0.0],[-75.871185126,42.960359933,0.0],[-75.871185126,42.960370933,0.0],[-75.871207526,42.960387333,0.0],[-75.871222526,42.960387333,0.0],[-75.871222393,42.960425733,0.0],[-75.871282326,42.960491533,0.0],[-75.871304793,42.960535533,0.0],[-75.871357193,42.9605848,0.0],[-75.871364726,42.9606398,0.0],[-75.871402126,42.9606726,0.0],[-75.871402126,42.9606836,0.0],[-75.871439526,42.960711133,0.0],[-75.871439526,42.960727533,0.0],[-75.871454526,42.960755,0.0],[-75.871476926,42.960776933,0.0],[-75.871491926,42.9608318,0.0],[-75.871529393,42.960864733,0.0],[-75.871521793,42.960886733,0.0],[-75.871559193,42.960914133,0.0],[-75.871559393,42.960958,0.0],[-75.871589326,42.960974533,0.0],[-75.871596726,42.961012933,0.0],[-75.871619126,42.961040333,0.0],[-75.871634126,42.961051333,0.0],[-75.871634126,42.961078733,0.0],[-75.871671593,42.961161133,0.0],[-75.871708993,42.9611884,0.0],[-75.871708993,42.9612324,0.0],[-75.871738993,42.9612598,0.0],[-75.871738993,42.9613092,0.0],[-75.871776526,42.9613366,0.0],[-75.871776393,42.9613696,0.0],[-75.871813926,42.961397,0.0],[-75.871813926,42.961446533,0.0],[-75.871851393,42.9614738,0.0],[-75.871851393,42.9615178,0.0],[-75.871888793,42.9615452,0.0],[-75.871888793,42.9615836,0.0],[-75.871911193,42.961611133,0.0],[-75.871926193,42.961616533,0.0],[-75.871918793,42.961654933,0.0],[-75.871948726,42.9616824,0.0],[-75.871971126,42.961748333,0.0],[-75.871993593,42.961764733,0.0],[-75.871993593,42.9617812,0.0],[-75.872045926,42.9618306,0.0],[-75.872045993,42.961863533,0.0],[-75.872075993,42.961890933,0.0],[-75.872068393,42.961901933,0.0],[-75.872113326,42.961956733,0.0],[-75.872128326,42.961978733,0.0],[-75.872150793,42.9620062,0.0],[-75.872150793,42.962011733,0.0],[-75.872173326,42.9620336,0.0],[-75.872173326,42.962061,0.0],[-75.872210726,42.962088533,0.0],[-75.872210726,42.962105,0.0],[-75.872263126,42.9621598,0.0],[-75.872270526,42.962176333,0.0],[-75.872270593,42.962187333,0.0],[-75.872307993,42.9622146,0.0],[-75.872307993,42.962231133,0.0],[-75.872360393,42.962286,0.0],[-75.872382793,42.962335333,0.0],[-75.872420193,42.9623628,0.0],[-75.872420193,42.962379333,0.0],[-75.872502526,42.9624616,0.0],[-75.872517526,42.962483533,0.0],[-75.872517526,42.962489,0.0],[-75.872562393,42.9625274,0.0],[-75.872562393,42.962543933,0.0],[-75.872629793,42.962598733,0.0],[-75.872667126,42.962637133,0.0],[-75.872674593,42.9626536,0.0],[-75.872711993,42.962692,0.0],[-75.872749526,42.9627304,0.0],[-75.872749526,42.9627414,0.0],[-75.872786793,42.9627688,0.0],[-75.872786926,42.962785333,0.0],[-75.872824193,42.962812733,0.0],[-75.872831726,42.962812733,0.0],[-75.872831793,42.9628292,0.0],[-75.872869193,42.9628566,0.0],[-75.872898993,42.962884,0.0],[-75.872891593,42.962906,0.0],[-75.872981393,42.962977333,0.0],[-75.872996326,42.962993733,0.0],[-75.873018726,42.963026733,0.0],[-75.873018793,42.9630322,0.0],[-75.873056193,42.9630596,0.0],[-75.873056193,42.963081533,0.0],[-75.873093593,42.963109,0.0],[-75.873093593,42.9631254,0.0],[-75.873123593,42.9631638,0.0],[-75.873153526,42.963191333,0.0],[-75.873190926,42.9632242,0.0],[-75.873213326,42.9632516,0.0],[-75.873250793,42.96329,0.0],[-75.873250793,42.963301,0.0],[-75.873295726,42.963333933,0.0],[-75.873310726,42.963372333,0.0],[-75.873392926,42.9634656,0.0],[-75.873392926,42.9634766,0.0],[-75.873430393,42.963504133,0.0],[-75.873565126,42.9636302,0.0],[-75.873565126,42.9636576,0.0],[-75.873587526,42.963685133,0.0],[-75.873602393,42.963696133,0.0],[-75.873602526,42.963712533,0.0],[-75.873654793,42.963750933,0.0],[-75.873654793,42.963778333,0.0],[-75.873677326,42.9637948,0.0],[-75.873714726,42.9638442,0.0],[-75.873714793,42.9638716,0.0],[-75.873759726,42.963926533,0.0],[-75.873759593,42.963932,0.0],[-75.873796993,42.9639594,0.0],[-75.873797126,42.963986933,0.0],[-75.873834526,42.964014333,0.0],[-75.873834526,42.964052733,0.0],[-75.873871993,42.964118533,0.0],[-75.873871993,42.964124,0.0],[-75.873909393,42.964151533,0.0],[-75.873901926,42.964178933,0.0],[-75.873954326,42.9642338,0.0],[-75.873976726,42.9642668,0.0],[-75.873991726,42.9642832,0.0],[-75.874029126,42.9643216,0.0],[-75.874036593,42.964338133,0.0],[-75.874066526,42.964365533,0.0],[-75.874066593,42.964376533,0.0],[-75.874103993,42.964403933,0.0],[-75.874103993,42.964420333,0.0],[-75.874216193,42.964535533,0.0],[-75.874373326,42.964672733,0.0],[-75.874582726,42.9648318,0.0],[-75.874617726,42.9648728,0.0],[-75.874654793,42.9650524,0.0],[-75.874750926,42.965052533,0.0],[-75.874930193,42.965217333,0.0],[-75.874937593,42.9652448,0.0],[-75.874982393,42.965283133,0.0],[-75.875086993,42.965404,0.0],[-75.875161593,42.965480933,0.0],[-75.875206393,42.9655358,0.0],[-75.875251193,42.9656126,0.0],[-75.875310793,42.9656786,0.0],[-75.875325793,42.965722533,0.0],[-75.875400526,42.965810333,0.0],[-75.875415326,42.965854333,0.0],[-75.875460126,42.9658982,0.0],[-75.875489993,42.965975133,0.0],[-75.875534793,42.966019,0.0],[-75.875564593,42.966106933,0.0],[-75.875594526,42.9661288,0.0],[-75.875609393,42.966172733,0.0],[-75.875698993,42.966337533,0.0],[-75.875721193,42.9664034,0.0],[-75.875766126,42.966447333,0.0],[-75.875795926,42.9665132,0.0],[-75.875840726,42.966568133,0.0],[-75.875870526,42.966666933,0.0],[-75.875900393,42.966688933,0.0],[-75.875915326,42.966754733,0.0],[-75.875959993,42.9668866,0.0],[-75.875989793,42.966908533,0.0],[-75.876034526,42.967117133,0.0],[-75.876049526,42.967139133,0.0],[-75.876094193,42.967237933,0.0],[-75.876109126,42.9673038,0.0],[-75.876138993,42.967325733,0.0],[-75.876183726,42.967479533,0.0],[-75.876213593,42.967501533,0.0],[-75.876235793,42.967611333,0.0],[-75.876265593,42.967688133,0.0],[-75.876295593,42.967710133,0.0],[-75.876340193,42.9678748,0.0],[-75.876370126,42.9678968,0.0],[-75.876414726,42.9682042,0.0],[-75.876444526,42.9682372,0.0],[-75.876481793,42.9683634,0.0],[-75.876489326,42.968379933,0.0],[-75.876519126,42.9684128,0.0],[-75.876533993,42.968456733,0.0],[-75.876578793,42.968533733,0.0],[-75.876623593,42.9685666,0.0],[-75.876728126,42.9686874,0.0],[-75.876855126,42.968786333,0.0],[-75.876974726,42.9688412,0.0],[-75.877056793,42.9688742,0.0],[-75.877094193,42.9688962,0.0],[-75.877378193,42.9689512,0.0],[-75.877467926,42.9689732,0.0],[-75.877572526,42.9690062,0.0],[-75.877662126,42.9690392,0.0],[-75.877893726,42.969149133,0.0],[-75.878513793,42.969594,0.0],[-75.878790193,42.969824733,0.0],[-75.878864793,42.969912533,0.0],[-75.878924593,42.9700114,0.0],[-75.878954393,42.9700334,0.0],[-75.878984193,42.970121333,0.0],[-75.878999126,42.970198133,0.0],[-75.878969126,42.970307933,0.0],[-75.878849393,42.9704066,0.0],[-75.878535393,42.970521733,0.0],[-75.878490393,42.970543733,0.0],[-75.878213726,42.970774133,0.0],[-75.878206326,42.970774133,0.0],[-75.878206193,42.970785133,0.0],[-75.878161326,42.9708728,0.0],[-75.878131326,42.9708948,0.0],[-75.878078926,42.971026533,0.0],[-75.878048926,42.9710594,0.0],[-75.878026326,42.9712954,0.0],[-75.878033793,42.971355933,0.0],[-75.878063593,42.9714766,0.0],[-75.878085926,42.971526,0.0],[-75.878093393,42.9715644,0.0],[-75.878197726,42.971828,0.0],[-75.878227593,42.971849933,0.0],[-75.878272393,42.971992733,0.0],[-75.878302326,42.972014733,0.0],[-75.878346993,42.972124533,0.0],[-75.878376926,42.9721574,0.0],[-75.878429126,42.9722672,0.0],[-75.878473926,42.9723112,0.0],[-75.878503793,42.972377,0.0],[-75.878533593,42.972399133,0.0],[-75.878593326,42.9725418,0.0],[-75.878638126,42.972585733,0.0],[-75.878652993,42.972629733,0.0],[-75.878682793,42.9726626,0.0],[-75.878742526,42.9727724,0.0],[-75.878787393,42.9728164,0.0],[-75.878817193,42.972882333,0.0],[-75.878847126,42.9729042,0.0],[-75.878906793,42.973047,0.0],[-75.878951593,42.973090933,0.0],[-75.878981526,42.9731568,0.0],[-75.879026193,42.973200733,0.0],[-75.879056126,42.9732666,0.0],[-75.879100926,42.973310533,0.0],[-75.879123193,42.9733874,0.0],[-75.879168126,42.973431333,0.0],[-75.879212793,42.9735192,0.0],[-75.879272526,42.973607,0.0],[-75.879287526,42.97364,0.0],[-75.879347193,42.9737168,0.0],[-75.879362126,42.9737498,0.0],[-75.879406926,42.973804733,0.0],[-75.879436726,42.9738926,0.0],[-75.879466593,42.9739146,0.0],[-75.879496393,42.9739914,0.0],[-75.879541193,42.9740792,0.0],[-75.879585993,42.9741342,0.0],[-75.879600926,42.974189133,0.0],[-75.879645726,42.974244,0.0],[-75.879675593,42.9743098,0.0],[-75.879720393,42.9743538,0.0],[-75.879735326,42.974375733,0.0],[-75.879795126,42.9744416,0.0],[-75.879832326,42.974518533,0.0],[-75.879981726,42.974672333,0.0],[-75.879996726,42.9746998,0.0],[-75.880280526,42.974935933,0.0],[-75.880325326,42.974996333,0.0],[-75.880624193,42.975254533,0.0],[-75.880743726,42.975353333,0.0],[-75.880833193,42.975408333,0.0],[-75.880870593,42.975424733,0.0],[-75.880907993,42.9754412,0.0],[-75.881087393,42.9754742,0.0],[-75.881438793,42.975490933,0.0],[-75.881595726,42.975485533,0.0],[-75.882223793,42.9754144,0.0],[-75.882545193,42.975387133,0.0],[-75.882649993,42.975370733,0.0],[-75.882732126,42.9753598,0.0],[-75.882926593,42.975315933,0.0],[-75.883076126,42.975272133,0.0],[-75.883285526,42.975217333,0.0],[-75.883375193,42.975184333,0.0],[-75.883592126,42.975085733,0.0],[-75.883749193,42.9749924,0.0],[-75.883876326,42.9749266,0.0],[-75.883973593,42.9748608,0.0],[-75.884018526,42.974805933,0.0],[-75.884048393,42.974784,0.0],[-75.884078393,42.974696133,0.0],[-75.884108193,42.9746742,0.0],[-75.884153326,42.974454733,0.0],[-75.884183326,42.974432733,0.0],[-75.884198326,42.974366933,0.0],[-75.884250593,42.974312,0.0],[-75.884280593,42.974290133,0.0],[-75.884340393,42.9742132,0.0],[-75.884377793,42.9741748,0.0],[-75.884385193,42.974158333,0.0],[-75.884445126,42.974092533,0.0],[-75.884504993,42.9740486,0.0],[-75.884609726,42.9739828,0.0],[-75.884669526,42.973971933,0.0],[-75.884811593,42.973933533,0.0],[-75.884968593,42.973928133,0.0],[-75.885132993,42.973950133,0.0],[-75.885237726,42.973994,0.0],[-75.885342193,42.974049,0.0],[-75.885476793,42.974136933,0.0],[-75.885596326,42.974230333,0.0],[-75.885947393,42.9745158,0.0],[-75.885962393,42.9745432,0.0],[-75.886007193,42.974581733,0.0],[-75.886066926,42.9746586,0.0],[-75.886141593,42.9747684,0.0],[-75.886171393,42.974790333,0.0],[-75.886186326,42.974834333,0.0],[-75.886246126,42.9749002,0.0],[-75.886275926,42.974977,0.0],[-75.886305793,42.974999,0.0],[-75.886365526,42.9751418,0.0],[-75.886395526,42.9751638,0.0],[-75.886440193,42.975273533,0.0],[-75.886470126,42.9752956,0.0],[-75.886499926,42.975405333,0.0],[-75.886529726,42.975460333,0.0],[-75.886581993,42.975613933,0.0],[-75.886611793,42.975635933,0.0],[-75.886671393,42.9758226,0.0],[-75.886686526,42.975844533,0.0],[-75.886708793,42.975894,0.0],[-75.886746126,42.9760752,0.0],[-75.886775926,42.976097133,0.0],[-75.886820726,42.9763002,0.0],[-75.886843126,42.9763386,0.0],[-75.886887726,42.9766516,0.0],[-75.886909926,42.976700933,0.0],[-75.886939393,42.977249933,0.0],[-75.886916793,42.977584733,0.0],[-75.886894326,42.9776122,0.0],[-75.886849393,42.9777768,0.0],[-75.886841926,42.977793333,0.0],[-75.886804526,42.9778262,0.0],[-75.886766926,42.977996333,0.0],[-75.886789326,42.9780018,0.0],[-75.886849126,42.977990933,0.0],[-75.886916393,42.977947,0.0],[-75.886968793,42.977903133,0.0],[-75.887283126,42.977661733,0.0],[-75.887335393,42.9776288,0.0],[-75.887440126,42.9776288,0.0],[-75.887469993,42.9776508,0.0],[-75.887514793,42.977705733,0.0],[-75.887514726,42.9777826,0.0],[-75.887477193,42.9779472,0.0],[-75.887387393,42.9781338,0.0],[-75.887357393,42.9781558,0.0],[-75.887312526,42.9781558,0.0],[-75.887177993,42.9781118,0.0],[-75.887148126,42.9780898,0.0],[-75.887073393,42.978045933,0.0],[-75.887028526,42.978045933,0.0],[-75.886983593,42.978089733,0.0],[-75.886968726,42.978111733,0.0],[-75.887088193,42.9781886,0.0],[-75.887125593,42.9781996,0.0],[-75.887177926,42.9782216,0.0],[-75.887267593,42.9782656,0.0],[-75.887387193,42.9783424,0.0],[-75.887394726,42.978342533,0.0],[-75.887476793,42.9783754,0.0]]]},"properties":{"OBJECTID":122113,"GPO_NAME":"Cazenovia Lake","GNIS_ID":"00946092","AreaSqKm":4.7169095099999998,"Elevation":363.30000000000001,"Permanent_Identifier":"124502375","ReachCode":"04140202001728","FType":390,"FCode":39009,"FCode_Description":"Lake/Pond: Hydrographic Category = Perennial; Stage = Average Water Elevation","GPO_County":"Madison","GPO_NAME_SOURCE":"NHD","GPO_HUC":"Oneida"}}]}