{"type":"FeatureCollection","crs":{"type":"name","properties":{"name":"EPSG:4326"}},"features":[{"type":"Feature","id":63657,"geometry":{"type":"Polygon","coordinates":[[[-73.217887532,41.71680033],[-73.217506384,41.716865852],[-73.217008406,41.717047281],[-73.21666453,41.717233917],[-73.216539799,41.71736598],[-73.216481106,41.717480964],[-73.216481022,41.7175964],[-73.216436925,41.717640145],[-73.216364285,41.717662221],[-73.216298118,41.717629556],[-73.216209641,41.717487037],[-73.215792543,41.71751994],[-73.215528476,41.7175361],[-73.215125413,41.717706503],[-73.214883969,41.717717425],[-73.214327158,41.717613668],[-73.213916946,41.717585817],[-73.213806914,41.717597064],[-73.213249877,41.717525891],[-73.212847512,41.717410529],[-73.212553737,41.717273634],[-73.21245166,41.717212982],[-73.212238748,41.716955181],[-73.212063226,41.716482997],[-73.212011491,41.716290757],[-73.211982063,41.716241307],[-73.211681624,41.71613205],[-73.211513017,41.716115229],[-73.210912269,41.716236495],[-73.210370793,41.716258554],[-73.210165367,41.716247368],[-73.209894122,41.716186875],[-73.209520905,41.716209288],[-73.2093816,41.716192518],[-73.208685653,41.716286367],[-73.208157986,41.716319166],[-73.207828181,41.716297321],[-73.20754985,41.716303056],[-73.207044109,41.71623165],[-73.206414001,41.71624821],[-73.205843077,41.716379968],[-73.205469389,41.71633582],[-73.205264386,41.716253956],[-73.204904922,41.716050748],[-73.204714594,41.715842242],[-73.204575046,41.715562012],[-73.204552947,41.715414075],[-73.204457824,41.715299017],[-73.204304274,41.715013351],[-73.204253095,41.714799323],[-73.204282039,41.714617909],[-73.204216293,41.714448019],[-73.20424561,41.71412407],[-73.204223055,41.714041485],[-73.204222726,41.713668255],[-73.204281582,41.713443503],[-73.204435059,41.712707926],[-73.204523063,41.712592146],[-73.204567427,41.712488199],[-73.204713265,41.712263104],[-73.205071916,41.711604417],[-73.205152734,41.71134613],[-73.205364903,41.710984237],[-73.205606746,41.710610736],[-73.205811853,41.710286951],[-73.206075556,41.709962932],[-73.206287568,41.709710129],[-73.20663984,41.709254544],[-73.206910791,41.709018486],[-73.207349553,41.708689139],[-73.20761378,41.708376434],[-73.207855043,41.708151126],[-73.208265693,41.707958762],[-73.208565863,41.70745398],[-73.208588014,41.707382369],[-73.208624556,41.707338314],[-73.208844061,41.707305707],[-73.20897551,41.707250297],[-73.209056397,41.707069191],[-73.209276073,41.706899195],[-73.209356358,41.70679459],[-73.209459093,41.706531582],[-73.209620549,41.706124944],[-73.209737409,41.705949356],[-73.210067178,41.705812195],[-73.210418435,41.705768083],[-73.210536038,41.705729878],[-73.210733719,41.70571897],[-73.211122014,41.705669219],[-73.211560938,41.70565803],[-73.211941773,41.705685321],[-73.212117721,41.705740532],[-73.212242365,41.705822876],[-73.212404139,41.705976255],[-73.212945774,41.706596537],[-73.213063248,41.706860209],[-73.213422203,41.707507464],[-73.213451949,41.707634098],[-73.213854787,41.708462818],[-73.213935449,41.708539335],[-73.21449301,41.709428489],[-73.214719729,41.709730314],[-73.214873622,41.709867767],[-73.215497043,41.710553571],[-73.215774971,41.71071831],[-73.215906681,41.710762546],[-73.216559053,41.71104738],[-73.216617497,41.711025874],[-73.216742152,41.710948871],[-73.216822653,41.710811671],[-73.216866701,41.710602922],[-73.219409504,41.713242784],[-73.219387958,41.713396555],[-73.219424551,41.71367633],[-73.219388344,41.713797402],[-73.219329084,41.713896097],[-73.219139454,41.714104923],[-73.218934004,41.714247435],[-73.218626345,41.714533069],[-73.218582451,41.714604431],[-73.218574995,41.71468096],[-73.218905457,41.715394863],[-73.218934737,41.71558153],[-73.218956581,41.715910593],[-73.218905507,41.716097243],[-73.218759494,41.716355635],[-73.218509983,41.716547724],[-73.218180644,41.716717666],[-73.217887532,41.71680033]]]},"properties":{"OBJECTID":63657,"HYPOLY_COD":421,"HYDRO_POLY":"Reservoir, Lake, or Pond","AV_LEGEND":"Water","NAMEDP_COD":2,"NAMED_POLY":"Named Waterbody","LAKE_NO":110,"LAKE":"Bantam Lake","ACREAGE":261.33499145,"Shape__Area":11383755.584960938,"Shape__Length":14222.555910925052}},{"type":"Feature","id":67831,"geometry":{"type":"Polygon","coordinates":[[[-73.22290595,41.715377326],[-73.222803182,41.715316685],[-73.222758868,41.714828373],[-73.222656188,41.714592093],[-73.22259725,41.714389083],[-73.222516363,41.714158716],[-73.222604102,41.713916853],[-73.222545776,41.713829273],[-73.222039899,41.713456055],[-73.221871432,41.713269442],[-73.221725176,41.713209152],[-73.221373027,41.713198069],[-73.221050356,41.71302255],[-73.220925767,41.712825292],[-73.220838299,41.712759099],[-73.220743253,41.712721066],[-73.220486184,41.712721086],[-73.220215402,41.712786683],[-73.219988212,41.712803389],[-73.219900648,41.712786937],[-73.219827535,41.712742982],[-73.219732269,41.712737538],[-73.219621906,41.712765088],[-73.219555878,41.712814242],[-73.219475225,41.712930003],[-73.21940245,41.713122061],[-73.219409504,41.713242784],[-73.216866701,41.710602922],[-73.21687393,41.71052605],[-73.216991207,41.710251483],[-73.217027298,41.71011412],[-73.21707866,41.709428166],[-73.216938943,41.708939551],[-73.216931946,41.708731179],[-73.216843375,41.707748716],[-73.216835982,41.707199705],[-73.216916745,41.706782063],[-73.216828193,41.706150877],[-73.216849611,41.705915291],[-73.216791136,41.705645895],[-73.216798634,41.705289099],[-73.21688631,41.704751193],[-73.216966375,41.704142308],[-73.217003338,41.703999279],[-73.216929703,41.70337335],[-73.216944272,41.702632142],[-73.216899962,41.702549821],[-73.216914932,41.7023086],[-73.216987544,41.702094589],[-73.216987445,41.702017404],[-73.217038956,41.70192423],[-73.217507342,41.701495755],[-73.217975799,41.701204668],[-73.218276169,41.700996079],[-73.218364487,41.700897266],[-73.218495713,41.700656086],[-73.218561429,41.700375551],[-73.218744843,41.699882023],[-73.218737028,41.699782742],[-73.218634435,41.699552633],[-73.218707713,41.699178932],[-73.218876042,41.698910156],[-73.218934453,41.698696032],[-73.218941679,41.69849292],[-73.218787811,41.69810333],[-73.218795006,41.697927835],[-73.218853793,41.697702385],[-73.218867708,41.697411599],[-73.218934018,41.697213906],[-73.219270299,41.696626273],[-73.219423923,41.696445206],[-73.219768685,41.6961764],[-73.220039099,41.696006176],[-73.220302594,41.695797386],[-73.22068376,41.695374401],[-73.221019859,41.695111112],[-73.221188453,41.694913345],[-73.221313439,41.694792252],[-73.221562319,41.694589011],[-73.222213855,41.694056509],[-73.222411593,41.693995839],[-73.222726021,41.693869681],[-73.222865007,41.693754704],[-73.223077795,41.69334252],[-73.223106437,41.693221993],[-73.223231193,41.693007764],[-73.223582334,41.69233258],[-73.223779778,41.691794733],[-73.22378703,41.6915038],[-73.223720309,41.690734966],[-73.223961956,41.690109286],[-73.223969458,41.689977696],[-73.223917387,41.689741552],[-73.223726974,41.689456064],[-73.22371949,41.689340488],[-73.223748897,41.689231279],[-73.223712617,41.688994896],[-73.223689944,41.688835816],[-73.223565209,41.688457263],[-73.223499284,41.688391499],[-73.223067687,41.688199107],[-73.223316165,41.68822656],[-73.223719033,41.68818271],[-73.223806475,41.688061769],[-73.223974896,41.687562288],[-73.224107018,41.687512519],[-73.224238287,41.687408206],[-73.224290007,41.687221549],[-73.22434112,41.687139521],[-73.224443309,41.687002055],[-73.224567694,41.686957803],[-73.225000221,41.686903022],[-73.225146155,41.686864856],[-73.22569508,41.686644758],[-73.225834914,41.68661708],[-73.226171469,41.686611574],[-73.226229832,41.686644608],[-73.226720434,41.68677088],[-73.227328272,41.686814675],[-73.227504531,41.686792506],[-73.227870287,41.686682245],[-73.228089953,41.686589398],[-73.228990688,41.68613884],[-73.229407868,41.685990455],[-73.23005206,41.685907501],[-73.230227765,41.685935069],[-73.230572494,41.686044952],[-73.230733584,41.686138102],[-73.23101911,41.686379445],[-73.231209326,41.68651141],[-73.231495366,41.686791],[-73.231920629,41.687329005],[-73.231957557,41.687433137],[-73.232089317,41.687888837],[-73.232192091,41.688876553],[-73.232324493,41.689386964],[-73.232368984,41.6897384],[-73.232310506,41.690089924],[-73.232244669,41.690221759],[-73.232062081,41.690501419],[-73.231695724,41.691209795],[-73.231652595,41.691687668],[-73.231703658,41.691907347],[-73.231674732,41.692110035],[-73.231740857,41.692631875],[-73.231719272,41.69286798],[-73.231499593,41.693515882],[-73.231455849,41.693603541],[-73.231207442,41.693927385],[-73.231002077,41.694130811],[-73.230702317,41.694350239],[-73.230424061,41.694476437],[-73.229976826,41.694652567],[-73.229750386,41.694668777],[-73.229457465,41.694669309],[-73.229098104,41.694597904],[-73.228658682,41.694438671],[-73.22819026,41.694318148],[-73.227816337,41.694257777],[-73.2276695,41.69426902],[-73.227479345,41.694302227],[-73.2273916,41.694351473],[-73.227259583,41.694510506],[-73.227011045,41.694757671],[-73.226652521,41.695235129],[-73.226542661,41.695482232],[-73.226550121,41.695625251],[-73.226477237,41.695921431],[-73.22630903,41.696201365],[-73.226169646,41.696542069],[-73.226184833,41.696646464],[-73.226235796,41.696761517],[-73.226140767,41.696909762],[-73.226169751,41.697085282],[-73.226279937,41.69725532],[-73.226382818,41.697365526],[-73.226785347,41.697672432],[-73.226924524,41.697738751],[-73.22702743,41.697820826],[-73.227291197,41.697930711],[-73.227554626,41.697963409],[-73.227840824,41.698073026],[-73.228199572,41.698276167],[-73.22836811,41.698319891],[-73.228675749,41.698357894],[-73.22888095,41.698407812],[-73.229070901,41.698407366],[-73.229195842,41.698374258],[-73.22940104,41.69842366],[-73.229561784,41.698527963],[-73.22984749,41.698632089],[-73.230433357,41.698598948],[-73.230711976,41.698549761],[-73.230741087,41.698494409],[-73.230689426,41.698379361],[-73.230660637,41.698231456],[-73.230660171,41.697336282],[-73.230564666,41.697017991],[-73.230571482,41.6968262],[-73.23064504,41.696469297],[-73.230504945,41.695909174],[-73.230526933,41.695541508],[-73.230614534,41.695442519],[-73.230710203,41.695382087],[-73.23086404,41.695327071],[-73.23104665,41.695294406],[-73.231141751,41.695250272],[-73.231669281,41.695162135],[-73.231808505,41.69517339],[-73.23215268,41.695140391],[-73.232577141,41.695194702],[-73.232672672,41.695238898],[-73.232841258,41.695535442],[-73.23302511,41.696007046],[-73.233325473,41.696665806],[-73.233347824,41.69680859],[-73.23332579,41.696983978],[-73.233347674,41.697033801],[-73.233048098,41.697554941],[-73.232813837,41.697873925],[-73.232674531,41.697944832],[-73.232279345,41.698197768],[-73.232103753,41.698466934],[-73.232111374,41.698845281],[-73.232147936,41.698960735],[-73.232141004,41.699136233],[-73.232053068,41.699405718],[-73.232045589,41.699630787],[-73.232206912,41.699965268],[-73.232295064,41.700277929],[-73.232302707,41.700689551],[-73.232178524,41.700947697],[-73.23206127,41.701030519],[-73.231907232,41.701090679],[-73.231665467,41.701080199],[-73.231570539,41.701118158],[-73.231358401,41.701244941],[-73.230934425,41.702216671],[-73.230781001,41.702853317],[-73.230809707,41.702897107],[-73.230788472,41.703242985],[-73.230854897,41.70358901],[-73.231015661,41.70393996],[-73.231279606,41.704346396],[-73.231382647,41.704444936],[-73.231434006,41.704549177],[-73.231536715,41.704664528],[-73.231778528,41.705048757],[-73.231851803,41.705114658],[-73.231896125,41.70525718],[-73.231961987,41.70537251],[-73.232108155,41.705575668],[-73.232284471,41.705800824],[-73.232387249,41.705894046],[-73.232753383,41.706404166],[-73.233149083,41.706980366],[-73.233339868,41.707364463],[-73.233435262,41.707479669],[-73.233537718,41.707682665],[-73.23361857,41.707995868],[-73.233691981,41.708171372],[-73.23389818,41.708901362],[-73.234030259,41.709208519],[-73.234198795,41.709768346],[-73.234287329,41.710465384],[-73.234412124,41.710899154],[-73.234419512,41.711091227],[-73.234375474,41.711140641],[-73.234207133,41.711250606],[-73.233936015,41.711360662],[-73.233855628,41.711354995],[-73.23365745,41.711239877],[-73.233511492,41.711251123],[-73.233423091,41.711245319],[-73.233312984,41.711091584],[-73.233100481,41.710866578],[-73.232902488,41.710499321],[-73.232866254,41.710367573],[-73.232689968,41.710087358],[-73.23257986,41.709994511],[-73.232404284,41.709901251],[-73.232089028,41.709862603],[-73.231920637,41.709873428],[-73.231042075,41.710022204],[-73.230602336,41.710143244],[-73.230470141,41.710219951],[-73.230141211,41.710467114],[-73.229994551,41.710692246],[-73.229452647,41.711329648],[-73.229071986,41.711702574],[-73.228793764,41.711905955],[-73.228281113,41.71213672],[-73.228156466,41.712213736],[-73.228061469,41.712306752],[-73.227958946,41.712372698],[-73.227563168,41.712559754],[-73.22722675,41.71266423],[-73.226904161,41.712812388],[-73.226655013,41.71286213],[-73.226142614,41.712911587],[-73.225710184,41.712878381],[-73.225175168,41.7127468],[-73.224889248,41.712620881],[-73.224838258,41.712566031],[-73.224750144,41.712412197],[-73.224632401,41.711495552],[-73.224631724,41.711215803],[-73.224734345,41.71100681],[-73.224873476,41.71059527],[-73.224909459,41.709914692],[-73.224806849,41.70965646],[-73.224807179,41.709514095],[-73.22472669,41.709244793],[-73.224447838,41.708893807],[-73.224315771,41.708613568],[-73.224234976,41.708520592],[-73.223876267,41.708235281],[-73.223766197,41.708114296],[-73.223626767,41.708015902],[-73.223466062,41.70785636],[-73.222996642,41.70754903],[-73.22258657,41.707626011],[-73.222520407,41.707686829],[-73.222506045,41.707851549],[-73.222535325,41.707911805],[-73.222549939,41.708032496],[-73.222586761,41.70827951],[-73.222631146,41.708652904],[-73.222660748,41.708976443],[-73.222762988,41.709624208],[-73.223665106,41.710941396],[-73.223826698,41.711314823],[-73.223980739,41.712000621],[-73.22407632,41.712236756],[-73.22417156,41.712676147],[-73.224223028,41.712889825],[-73.22420161,41.713153541],[-73.224165107,41.713389362],[-73.22409142,41.713548667],[-73.224128251,41.713795677],[-73.224084324,41.713861552],[-73.223915945,41.714031708],[-73.223769618,41.714212921],[-73.223681514,41.714279147],[-73.223432477,41.714564553],[-73.223198655,41.714926911],[-73.223073763,41.71509723],[-73.223022572,41.715234484],[-73.22290595,41.715377326]]]},"properties":{"OBJECTID":67831,"HYPOLY_COD":421,"HYDRO_POLY":"Reservoir, Lake, or Pond","AV_LEGEND":"Water","NAMEDP_COD":2,"NAMED_POLY":"Named Waterbody","LAKE_NO":110,"LAKE":"Bantam Lake","ACREAGE":694.10900878,"Shape__Area":30235394.190551758,"Shape__Length":37834.06053097226}}]}