{"type":"FeatureCollection","features":[{"type":"Feature","id":58,"geometry":{"type":"Polygon","coordinates":[[[-74.655936666,41.026472971],[-74.657051131,41.026873218],[-74.657654605,41.027100692],[-74.657655614,41.027101236],[-74.65767085,41.02707634],[-74.657698783,41.027030677],[-74.655990522,41.026402971],[-74.655936666,41.026472971]]]},"properties":{"OBJECTID":58,"COMID":null,"PERMANENT_IDENTIFIER":"61772655","GNIS_ID":"00878426","GNIS_NAME":"Lake Mohawk","AREASQKM":0.00135172,"REACHCODE":"02020007001513","FTYPE_DISPLAY":"Lake/Pond","HU8":"02020007","WATERBODY_NAME":"Lake Mohawk","FEATURE_ID":878426,"FEATURE_NAME":"Lake Mohawk","FEATURE_CLASS":"Reservoir","LEVELELEV":null,"GLOBALID":"{6C20AA54-21F2-464F-AAE3-E34DE9427FC9}"}},{"type":"Feature","id":59,"geometry":{"type":"Polygon","coordinates":[[[-74.648895725,41.032443385],[-74.648922933,41.032445488],[-74.648933489,41.032446826],[-74.648911588,41.032244486],[-74.648888604,41.032250843],[-74.648872786,41.032250637],[-74.648895725,41.032443385]]]},"properties":{"OBJECTID":59,"COMID":null,"PERMANENT_IDENTIFIER":"61772655","GNIS_ID":"00878426","GNIS_NAME":"Lake Mohawk","AREASQKM":7.0340000000000008e-05,"REACHCODE":"02020007001513","FTYPE_DISPLAY":"Lake/Pond","HU8":"02020007","WATERBODY_NAME":"Lake Mohawk","FEATURE_ID":878426,"FEATURE_NAME":"Lake Mohawk","FEATURE_CLASS":"Reservoir","LEVELELEV":null,"GLOBALID":"{852072B1-B7F5-45F9-A26A-EF3B1B014987}"}},{"type":"Feature","id":9997,"geometry":{"type":"Polygon","coordinates":[[[-74.650242288,41.035032923],[-74.650359211,41.035061095],[-74.650513545,41.035096288],[-74.650604727,41.035105024],[-74.650720506,41.035110118],[-74.650775246,41.035104328],[-74.650822407,41.035087111],[-74.650837401,41.035075719],[-74.650845026,41.035069926],[-74.650865741,41.035047025],[-74.650886474,41.035031272],[-74.650911011,41.035028381],[-74.650984658,41.035034003],[-74.651054664,41.035030255],[-74.651094151,41.035028141],[-74.651177185,41.035010876],[-74.651230023,41.03499937],[-74.6512621,41.03499075],[-74.651280938,41.03497214],[-74.651292227,41.03495497],[-74.651320504,41.034936347],[-74.651335586,41.034926321],[-74.651354423,41.03490771],[-74.651356273,41.034890552],[-74.651375117,41.034874802],[-74.651392079,41.034861913],[-74.651410903,41.034837585],[-74.651431597,41.034804676],[-74.651440952,41.034767494],[-74.651472011,41.034676489],[-74.651488255,41.034614508],[-74.651551119,41.03451533],[-74.651551143,41.034515303],[-74.65159775,41.03447103],[-74.651642109,41.034446183],[-74.651642139,41.034446169],[-74.65173318,41.034407133],[-74.65181953,41.03435216],[-74.651880147,41.034295437],[-74.651965999,41.034206563],[-74.651966025,41.034206535],[-74.652070203,41.034087233],[-74.652079608,41.034076669],[-74.652137826,41.034030321],[-74.652156673,41.034015999],[-74.652169842,41.033995967],[-74.652173572,41.033975948],[-74.65218783,41.033952213],[-74.652212372,41.033931326],[-74.652212407,41.033931301],[-74.652317397,41.033862161],[-74.652342536,41.033842041],[-74.652451058,41.03375524],[-74.652499327,41.033702635],[-74.652544685,41.033654061],[-74.652768979,41.033390294],[-74.652781564,41.033368888],[-74.652774957,41.033364809],[-74.652757884,41.033354269],[-74.652777182,41.033333083],[-74.65282063,41.033309129],[-74.65283387,41.03330183],[-74.65290175,41.033284084],[-74.652921081,41.033277548],[-74.652937177,41.033266133],[-74.652954338,41.033250646],[-74.652966693,41.033228634],[-74.652970442,41.033217192],[-74.653060108,41.032975413],[-74.653071764,41.03294543],[-74.653079293,41.032935412],[-74.653096275,41.0329311],[-74.653111101,41.032927173],[-74.653129195,41.032922381],[-74.653137936,41.03292357],[-74.653164418,41.032846822],[-74.653176679,41.032847494],[-74.653180415,41.032847699],[-74.65320877,41.032812221],[-74.653214651,41.03279382],[-74.653219927,41.032769588],[-74.65322931,41.032728305],[-74.653232797,41.03269914],[-74.653230803,41.032659298],[-74.653240007,41.032604426],[-74.653260936,41.032547765],[-74.653291958,41.032487115],[-74.653314416,41.032443264],[-74.653351633,41.032368883],[-74.653398665,41.032253057],[-74.653406088,41.032197292],[-74.653417953,41.032093824],[-74.65341904,41.032084335],[-74.65345593,41.031709724],[-74.653461512,41.031688393],[-74.653474643,41.031638219],[-74.653506615,41.03158528],[-74.653547997,41.031519462],[-74.653581837,41.031457943],[-74.653615693,41.031403572],[-74.6536609,41.031359193],[-74.653750882,41.031242043],[-74.653802293,41.031187851],[-74.653827931,41.031154176],[-74.653837618,41.031136495],[-74.653842918,41.031126808],[-74.653851191,41.031111692],[-74.65387447,41.031060365],[-74.653880082,41.031040903],[-74.653931707,41.030905641],[-74.653978761,41.030844104],[-74.65410306,41.030713843],[-74.654153026,41.030640373],[-74.65420639,41.030588239],[-74.654216486,41.030578966],[-74.654270693,41.030546353],[-74.654297036,41.030509147],[-74.65432338,41.030471942],[-74.654372154,41.030401749],[-74.654556922,41.030232881],[-74.654660552,41.030145536],[-74.654737788,41.030073951],[-74.654847031,41.029965152],[-74.654929947,41.029900708],[-74.654979133,41.029861853],[-74.654995406,41.029852787],[-74.655044947,41.029831932],[-74.655069426,41.029804736],[-74.655134287,41.029741997],[-74.655170663,41.029708294],[-74.655170688,41.029708268],[-74.655235945,41.029626767],[-74.655277866,41.02956302],[-74.655332666,41.029507174],[-74.655381954,41.029438331],[-74.655436521,41.029361058],[-74.655454483,41.029326963],[-74.655510279,41.029221053],[-74.655541276,41.029145471],[-74.655647066,41.028980493],[-74.655669616,41.028936145],[-74.655672798,41.028915345],[-74.655673334,41.028911836],[-74.655680852,41.02889753],[-74.655690258,41.028883221],[-74.655730734,41.02885362],[-74.65574164,41.028845962],[-74.655761078,41.028832324],[-74.655803077,41.028805728],[-74.655849731,41.028763176],[-74.655890537,41.028718031],[-74.655916129,41.028675493],[-74.655934725,41.028631227],[-74.655946329,41.028602895],[-74.655983659,41.028574529],[-74.656006999,41.028562103],[-74.656035006,41.028547907],[-74.656051343,41.028540819],[-74.656081684,41.028524836],[-74.656107348,41.028507105],[-74.656172728,41.028475165],[-74.6562614,41.02843436],[-74.656261435,41.028434345],[-74.656513546,41.028322495],[-74.656565241,41.028302381],[-74.656636561,41.028291504],[-74.656681802,41.02826285],[-74.656726998,41.028215611],[-74.656768655,41.028173392],[-74.656856947,41.028083908],[-74.656913459,41.028032365],[-74.656928511,41.028010901],[-74.656952982,41.027980845],[-74.656990667,41.027950771],[-74.657039669,41.027916393],[-74.657163993,41.027801854],[-74.657213246,41.02775488],[-74.657216104,41.027752782],[-74.657296126,41.02769406],[-74.657405771,41.027610726],[-74.657405803,41.027610697],[-74.657541002,41.02747782],[-74.657631939,41.027394506],[-74.657692525,41.027314773],[-74.657763605,41.027217364],[-74.657770522,41.027181927],[-74.657770526,41.027181897],[-74.657770477,41.027166031],[-74.657770479,41.027166004],[-74.657757837,41.027155278],[-74.657751737,41.027150098],[-74.65768735,41.027118358],[-74.657655614,41.027101236],[-74.657654605,41.027100692],[-74.657051131,41.026873218],[-74.655936666,41.026472971],[-74.655788604,41.026620959],[-74.655704612,41.026675933],[-74.655534336,41.026783786],[-74.6554946,41.026808954],[-74.655443248,41.026833801],[-74.655181768,41.026947416],[-74.655181738,41.026947432],[-74.655093077,41.026995308],[-74.655027733,41.027032569],[-74.654912256,41.027115025],[-74.654872606,41.027157553],[-74.654825992,41.027203627],[-74.654792764,41.027234935],[-74.654611204,41.027419273],[-74.654545845,41.027455577],[-74.654343006,41.027538758],[-74.654225267,41.027589054],[-74.654211441,41.027614237],[-74.654141048,41.027650549],[-74.654114238,41.027639942],[-74.6541142,41.027639962],[-74.654062876,41.02766656],[-74.653990532,41.027705577],[-74.653932206,41.027753441],[-74.653904283,41.027801267],[-74.653904274,41.027801298],[-74.653897376,41.027849058],[-74.653905343,41.027950217],[-74.653905805,41.02795611],[-74.653918003,41.028184431],[-74.653908934,41.028292365],[-74.653892675,41.028341954],[-74.653836727,41.02839689],[-74.653764407,41.028442968],[-74.653764378,41.028442983],[-74.653661637,41.02848029],[-74.653628717,41.028486275],[-74.653563537,41.028498098],[-74.653444341,41.02850004],[-74.653411481,41.02849818],[-74.653353193,41.028494867],[-74.653236282,41.028468473],[-74.65310994,41.0284067],[-74.653011604,41.028328962],[-74.652869147,41.028188007],[-74.652816015,41.02813543],[-74.65280425,41.028125774],[-74.652762203,41.028091231],[-74.652610059,41.027999433],[-74.652588761,41.027986812],[-74.65255222,41.027965164],[-74.65253454,41.027952494],[-74.652534507,41.027952476],[-74.652522884,41.027947764],[-74.652479001,41.027921735],[-74.652383128,41.027897093],[-74.652254536,41.027881298],[-74.652198473,41.027876407],[-74.652175075,41.027874358],[-74.652149634,41.027871759],[-74.652123663,41.027869105],[-74.652115542,41.027869109],[-74.652076923,41.027869169],[-74.652027859,41.027876308],[-74.651941442,41.02790121],[-74.651919645,41.027909497],[-74.651833534,41.027941442],[-74.651676606,41.028065235],[-74.651676567,41.028065257],[-74.651646203,41.028079432],[-74.651621203,41.028080431],[-74.651591714,41.028073945],[-74.651569072,41.028068953],[-74.651554436,41.028062877],[-74.651551889,41.028059996],[-74.65149634,41.028023891],[-74.651625007,41.027496359],[-74.651696377,41.027404084],[-74.651960053,41.027134967],[-74.652007671,41.027045315],[-74.65203777,41.026999528],[-74.652047764,41.026967109],[-74.652055245,41.0269366],[-74.652060226,41.02691372],[-74.652115462,41.02685265],[-74.652235934,41.026701904],[-74.652270425,41.026654855],[-74.652409286,41.026560618],[-74.652545022,41.02648038],[-74.652640506,41.026409725],[-74.652751028,41.026310458],[-74.652833901,41.026228383],[-74.65286903,41.026180682],[-74.652876528,41.026157799],[-74.652881513,41.026136824],[-74.652946708,41.026029992],[-74.652979285,41.025967046],[-74.653004288,41.025894578],[-74.653011781,41.025869787],[-74.653014258,41.025852629],[-74.653099523,41.025717178],[-74.653164852,41.025667531],[-74.653232665,41.025604537],[-74.653325649,41.02554151],[-74.653353278,41.025516693],[-74.653380912,41.025493782],[-74.653416098,41.025470861],[-74.65349155,41.025445981],[-74.653569385,41.025432832],[-74.653599663,41.025439039],[-74.653607218,41.025439031],[-74.653623003,41.02543903],[-74.653641378,41.025435509],[-74.653688429,41.025426531],[-74.653763138,41.025391042],[-74.653836159,41.025350213],[-74.653833601,41.025333061],[-74.653981919,41.025252804],[-74.654190504,41.025113375],[-74.654301084,41.025040792],[-74.654333752,41.025017875],[-74.654378212,41.024963421],[-74.654504981,41.024879932],[-74.654515234,41.02487318],[-74.654522122,41.024875776],[-74.654544364,41.024884161],[-74.654627339,41.024847833],[-74.654680098,41.024805826],[-74.654722748,41.024746678],[-74.654908656,41.024597747],[-74.655089556,41.024460259],[-74.655159822,41.024370575],[-74.65531194,41.024155441],[-74.655395789,41.024042057],[-74.655395809,41.024042034],[-74.65553567,41.02390563],[-74.65557169,41.023873554],[-74.655631296,41.023820519],[-74.655684969,41.023793907],[-74.6557093,41.023787726],[-74.655741003,41.023779697],[-74.655761746,41.023780621],[-74.655778417,41.023781389],[-74.655829822,41.02378132],[-74.655946717,41.023798858],[-74.655989398,41.023814393],[-74.656014534,41.023823552],[-74.656124485,41.023880033],[-74.65619708,41.023940101],[-74.656276739,41.024024955],[-74.656411472,41.024186693],[-74.656539007,41.024321056],[-74.656584498,41.024399148],[-74.656657837,41.024545822],[-74.656677616,41.024584218],[-74.656707678,41.024642578],[-74.65672819,41.024695959],[-74.656728262,41.024731355],[-74.65671667,41.024775617],[-74.656684071,41.02483403],[-74.656665549,41.024896027],[-74.656654004,41.024961497],[-74.656615969,41.025023489],[-74.656596168,41.025075821],[-74.656504937,41.025163484],[-74.656346404,41.025323697],[-74.656320532,41.02534989],[-74.656275843,41.025398307],[-74.656275754,41.025398426],[-74.65598635,41.025783964],[-74.655941325,41.025898363],[-74.655926352,41.025950979],[-74.655927916,41.025974883],[-74.655929484,41.025998996],[-74.655962883,41.026076702],[-74.65596866,41.026119667],[-74.655972105,41.026145293],[-74.655960198,41.026218486],[-74.655951339,41.026303107],[-74.655966535,41.026344249],[-74.655978671,41.026369388],[-74.655990522,41.026402971],[-74.657698783,41.027030677],[-74.657702925,41.027024249],[-74.657706484,41.027018725],[-74.657736817,41.02700276],[-74.657782405,41.026998298],[-74.657885202,41.02699282],[-74.657964615,41.026978554],[-74.658044012,41.026950108],[-74.65811804,41.026913813],[-74.658188738,41.026879164],[-74.658303138,41.026834764],[-74.658360927,41.026807432],[-74.658434036,41.02678675],[-74.658467973,41.026768118],[-74.65849434,41.026742348],[-74.658516946,41.026722303],[-74.658543481,41.026685758],[-74.658603799,41.026635262],[-74.658701613,41.026581946],[-74.658724204,41.026556181],[-74.658744904,41.02652899],[-74.65875238,41.026497528],[-74.658742663,41.026420896],[-74.65871442,41.026339525],[-74.658714411,41.026339497],[-74.658708405,41.026321432],[-74.658695594,41.026282904],[-74.65869315,41.026243975],[-74.658697868,41.026217763],[-74.658702391,41.026192641],[-74.658753368,41.026122964],[-74.658769657,41.026104389],[-74.658772195,41.026101495],[-74.658802184,41.026086888],[-74.658844619,41.026065031],[-74.65900341,41.02601349],[-74.659135352,41.025977025],[-74.659198477,41.025953655],[-74.659221086,41.025935039],[-74.659266005,41.025877763],[-74.659312604,41.025824575],[-74.659368532,41.025755488],[-74.659404381,41.025721411],[-74.659433805,41.025693444],[-74.659461732,41.025647428],[-74.659461746,41.025647402],[-74.659489651,41.025590727],[-74.659489661,41.025590695],[-74.659542707,41.025442803],[-74.659542625,41.025408492],[-74.659542552,41.02537847],[-74.659518389,41.025317324],[-74.659505261,41.025282768],[-74.659481824,41.025256254],[-74.659481799,41.025256236],[-74.659355471,41.025190951],[-74.659321137,41.025151466],[-74.65929652,41.025120049],[-74.659275191,41.02510264],[-74.659071411,41.02492593],[-74.658976896,41.024873165],[-74.658950932,41.024855661],[-74.658933331,41.024811751],[-74.658919999,41.024763162],[-74.658916038,41.024685968],[-74.65890084,41.024645959],[-74.65889514,41.024630241],[-74.658866717,41.024585962],[-74.658796603,41.024474547],[-74.658787099,41.024447398],[-74.658788915,41.024417373],[-74.65880959,41.024380174],[-74.658820862,41.024357285],[-74.658826481,41.024338692],[-74.658839636,41.02431437],[-74.658894188,41.024234236],[-74.658911118,41.024209909],[-74.658935334,41.024192817],[-74.658937502,41.024191288],[-74.65896012,41.024176961],[-74.658973304,41.024164075],[-74.65899404,41.02415261],[-74.659014806,41.024152581],[-74.659026255,41.024153233],[-74.659039349,41.024153977],[-74.65907708,41.024143917],[-74.659178841,41.024070866],[-74.659239093,41.02400645],[-74.65930127,41.023957757],[-74.659431292,41.023861792],[-74.659519869,41.023801625],[-74.659570754,41.023767244],[-74.65960846,41.023747177],[-74.65967491,41.023728931],[-74.659846138,41.023706325],[-74.660030726,41.023691906],[-74.660058739,41.023686561],[-74.660082072,41.023674164],[-74.660082089,41.023674137],[-74.660088887,41.023666011],[-74.660114705,41.02363516],[-74.660123562,41.023618682],[-74.660135672,41.02359623],[-74.660141255,41.023579061],[-74.660147237,41.023560783],[-74.660149399,41.02348469],[-74.660153991,41.023447503],[-74.660160942,41.023431568],[-74.660174934,41.023419166],[-74.660205265,41.023406755],[-74.6602053,41.023406737],[-74.660223947,41.023396093],[-74.660245595,41.023370301],[-74.660296305,41.023264438],[-74.660301917,41.023242986],[-74.660307503,41.023211527],[-74.660322615,41.023193141],[-74.660326325,41.023188626],[-74.660337587,41.023181968],[-74.66034329,41.023178595],[-74.660390472,41.02315963],[-74.660455802,41.023120568],[-74.660509461,41.023081562],[-74.660551401,41.023044361],[-74.66055142,41.023044339],[-74.660577022,41.023000059],[-74.660614271,41.022945154],[-74.660626788,41.022930876],[-74.660691327,41.022875081],[-74.660851826,41.02270897],[-74.660953513,41.022607324],[-74.661027003,41.022554326],[-74.661117369,41.022505592],[-74.661120815,41.022503733],[-74.661144545,41.022495545],[-74.661172815,41.022485105],[-74.661192941,41.022481183],[-74.66121747,41.022476859],[-74.661243862,41.022462526],[-74.661283417,41.022426731],[-74.661345559,41.022365169],[-74.661377577,41.022335103],[-74.661394921,41.022322518],[-74.661443346,41.022296236],[-74.661480539,41.022282794],[-74.661599674,41.022253354],[-74.661751847,41.022213111],[-74.661858536,41.022172881],[-74.661881146,41.022155693],[-74.661951238,41.022116794],[-74.662100637,41.022054644],[-74.662231363,41.021996059],[-74.662323649,41.021952191],[-74.662361525,41.021940625],[-74.662499579,41.02186175],[-74.662635325,41.021794366],[-74.662676755,41.021754278],[-74.662753997,41.021692695],[-74.662842519,41.021612511],[-74.662897155,41.021569545],[-74.662938624,41.021545182],[-74.662980068,41.021510813],[-74.663004033,41.021488037],[-74.663010199,41.021482178],[-74.663055339,41.021460042],[-74.663113895,41.021431995],[-74.663181727,41.021381861],[-74.663323035,41.021274439],[-74.663353188,41.021254381],[-74.663399073,41.021236096],[-74.663485472,41.021212963],[-74.663518139,41.021202296],[-74.663546134,41.021188084],[-74.663557806,41.021179229],[-74.663585091,41.021142542],[-74.663588782,41.021108226],[-74.663575466,41.021066785],[-74.66356975,41.021045349],[-74.663547998,41.020995163],[-74.663531523,41.020945633],[-74.663515301,41.020895045],[-74.663500904,41.020850106],[-74.663484424,41.020804121],[-74.663484416,41.020804095],[-74.663477328,41.02076523],[-74.663477318,41.020765199],[-74.663447033,41.020709612],[-74.663437447,41.020712578],[-74.663406794,41.02072206],[-74.663380351,41.020715425],[-74.663370258,41.020704956],[-74.663300667,41.020553031],[-74.663272604,41.020553064],[-74.663272559,41.02055304],[-74.663245544,41.020553084],[-74.663203539,41.020563758],[-74.663170819,41.02056557],[-74.663164845,41.020565584],[-74.663061505,41.020526213],[-74.663031306,41.020527209],[-74.662992814,41.020537872],[-74.662799138,41.020504162],[-74.662754731,41.020497153],[-74.662707954,41.02048836],[-74.662663548,41.020483104],[-74.662621486,41.020483167],[-74.662563077,41.02048324],[-74.662423425,41.020500428],[-74.662317751,41.02051392],[-74.662288825,41.020520632],[-74.662252411,41.020529703],[-74.662124017,41.020586505],[-74.662070342,41.020611369],[-74.662029479,41.020624701],[-74.661950075,41.020642506],[-74.661770206,41.020676363],[-74.661687262,41.020696417],[-74.661630125,41.020710222],[-74.661478322,41.020751131],[-74.661401427,41.020773343],[-74.661342871,41.020790229],[-74.661124553,41.020858696],[-74.660909749,41.020926239],[-74.660793665,41.020970677],[-74.660732015,41.020976482],[-74.660689875,41.020986566],[-74.660673626,41.020992797],[-74.660613305,41.021027192],[-74.660588197,41.021052008],[-74.660558059,41.021078737],[-74.660537976,41.021099732],[-74.660461369,41.021133436],[-74.660426103,41.02114388],[-74.660423111,41.021144765],[-74.660400672,41.02115141],[-74.660361168,41.021153536],[-74.66030274,41.021150084],[-74.66027671,41.021145088],[-74.660243133,41.021138641],[-74.660179995,41.021117505],[-74.660135605,41.021112229],[-74.660105206,41.021112301],[-74.659948298,41.021151716],[-74.659929098,41.021156539],[-74.659928233,41.021157781],[-74.659921531,41.021167411],[-74.659687131,41.021220767],[-74.659621793,41.021231556],[-74.659554252,41.021250055],[-74.659520198,41.021264445],[-74.659474682,41.021280482],[-74.659459516,41.021288809],[-74.659204038,41.021347305],[-74.659197913,41.021342884],[-74.659158225,41.021349876],[-74.659097999,41.021357953],[-74.659097452,41.021358026],[-74.659092711,41.021360876],[-74.658842229,41.021408535],[-74.658781993,41.021424306],[-74.658709,41.021422501],[-74.658668707,41.021413025],[-74.658618329,41.021395939],[-74.658616569,41.021395135],[-74.658535182,41.021357931],[-74.658469565,41.021283681],[-74.658391309,41.021186573],[-74.658363442,41.021110365],[-74.658326136,41.021041851],[-74.65832677,41.02103927],[-74.658304759,41.021007354],[-74.658291198,41.02100609],[-74.658284507,41.021005465],[-74.658280308,41.021004517],[-74.658276066,41.02100356],[-74.658268852,41.02099396],[-74.658193363,41.020893525],[-74.658096647,41.020764846],[-74.65808307,41.020759372],[-74.658064038,41.020749233],[-74.658025595,41.020731109],[-74.657994453,41.020716428],[-74.657954707,41.020690305],[-74.657942692,41.020590629],[-74.657908865,41.020556174],[-74.65791054,41.02055106],[-74.657871643,41.020513416],[-74.65785699,41.020507493],[-74.657762563,41.020327754],[-74.657714082,41.020250866],[-74.657641194,41.020166227],[-74.657550643,41.020114553],[-74.657490158,41.020080325],[-74.657472485,41.020057475],[-74.657444705,41.020017483],[-74.657437433,41.020007884],[-74.657433415,41.019995204],[-74.65741988,41.019979888],[-74.657403838,41.01997416],[-74.657382359,41.01996474],[-74.657371933,41.019950153],[-74.657363926,41.019863679],[-74.65735967,41.019847712],[-74.657353745,41.019839414],[-74.657345284,41.019829202],[-74.657340184,41.019813236],[-74.657330862,41.019795359],[-74.657313935,41.01977238],[-74.657302929,41.019755783],[-74.657280968,41.019744312],[-74.657252254,41.019731573],[-74.657225711,41.019721811],[-74.657223011,41.01971639],[-74.657223002,41.019716363],[-74.657220661,41.019707552],[-74.657224179,41.019704211],[-74.657286007,41.019679151],[-74.657305846,41.019662737],[-74.657333068,41.019640214],[-74.657347373,41.019603861],[-74.657370742,41.019583859],[-74.657418705,41.019556015],[-74.657470268,41.019530226],[-74.657572207,41.01947173],[-74.657609265,41.019446122],[-74.657629467,41.019427566],[-74.657702751,41.019354156],[-74.657772538,41.019284249],[-74.657801146,41.019253542],[-74.657819382,41.019240373],[-74.657834833,41.019229216],[-74.657850521,41.019218243],[-74.657870541,41.019170562],[-74.657870459,41.019136251],[-74.657867842,41.019094319],[-74.65786776,41.019060008],[-74.657890315,41.019019948],[-74.657907855,41.018987518],[-74.657942994,41.018947441],[-74.657968075,41.018911189],[-74.657998222,41.018888273],[-74.658093671,41.018831229],[-74.658108034,41.01882376],[-74.658127406,41.018810954],[-74.658187162,41.018752729],[-74.658226695,41.018704116],[-74.658301525,41.018599868],[-74.658430883,41.018410117],[-74.658451034,41.018395395],[-74.658481134,41.018353417],[-74.658529435,41.018292353],[-74.65863613,41.018181172],[-74.658728601,41.018084369],[-74.658783953,41.01804848],[-74.658793979,41.01803131],[-74.658853335,41.017980693],[-74.658853366,41.017980678],[-74.659308422,41.017798941],[-74.659358012,41.017795068],[-74.65960975,41.017710627],[-74.659684066,41.017685064],[-74.659704159,41.017667881],[-74.65975253,41.017630939],[-74.65978448,41.017601887],[-74.659804625,41.01758387],[-74.65984239,41.017589536],[-74.659901867,41.01759364],[-74.659932614,41.017586465],[-74.659972485,41.017576125],[-74.659985805,41.017574088],[-74.660023542,41.017568317],[-74.660053733,41.017564462],[-74.660093987,41.017558688],[-74.6601132,41.017566738],[-74.66011666,41.017568188],[-74.660276348,41.017487587],[-74.660336202,41.017458332],[-74.660393244,41.017462964],[-74.660430173,41.017454052],[-74.660450863,41.017442611],[-74.660433094,41.017414092],[-74.660484076,41.017395284],[-74.660563473,41.017372161],[-74.660628872,41.017356162],[-74.660694421,41.017350413],[-74.660742144,41.017346238],[-74.660854272,41.017321738],[-74.660914946,41.017298224],[-74.661015331,41.017257375],[-74.661097349,41.017227523],[-74.661140054,41.017195059],[-74.661165141,41.017162619],[-74.661220304,41.01707867],[-74.661237824,41.017038616],[-74.661268269,41.017018988],[-74.661316867,41.017004185],[-74.661361662,41.016990553],[-74.661412548,41.016972947],[-74.661513668,41.016947552],[-74.661536781,41.016942516],[-74.661613873,41.01693179],[-74.661651517,41.016922227],[-74.661669925,41.016917558],[-74.66171893,41.016892701],[-74.661791099,41.016875816],[-74.661836395,41.016873846],[-74.661876731,41.016902382],[-74.661907059,41.016943954],[-74.661907724,41.016944865],[-74.661937253,41.016962429],[-74.661964477,41.016979086],[-74.662007695,41.016995798],[-74.662176464,41.017002988],[-74.662196598,41.01700296],[-74.6621984,41.017061957],[-74.662225202,41.017069837],[-74.662225234,41.017069847],[-74.662288967,41.017084312],[-74.662372539,41.017103295],[-74.662428614,41.017113819],[-74.662457305,41.017112096],[-74.66248936,41.017110183],[-74.66255475,41.017097705],[-74.662599165,41.017101185],[-74.662636553,41.01710997],[-74.662687995,41.017116972],[-74.662711596,41.017122331],[-74.662778286,41.017137477],[-74.662833732,41.017169804],[-74.662858951,41.017190736],[-74.662868705,41.017197006],[-74.66291437,41.017211626],[-74.662972685,41.017216056],[-74.663053027,41.017211121],[-74.663101806,41.017201362],[-74.663134588,41.017189754],[-74.663167142,41.017178241],[-74.66319675,41.01716401],[-74.663224333,41.017150752],[-74.663265226,41.017120434],[-74.663284924,41.017085164],[-74.663304596,41.017056465],[-74.663331391,41.016978918],[-74.663331405,41.016978894],[-74.663368612,41.016924031],[-74.663368635,41.016924004],[-74.66339896,41.016902725],[-74.663419458,41.016900205],[-74.663438709,41.016873416],[-74.663425495,41.016864941],[-74.663429378,41.0168411],[-74.663446953,41.016823919],[-74.663467043,41.016806735],[-74.663502207,41.016778093],[-74.663537374,41.016751357],[-74.663558437,41.016741848],[-74.663593325,41.016712321],[-74.663602676,41.016697891],[-74.663630307,41.016676885],[-74.663658503,41.016661768],[-74.663698055,41.016651219],[-74.663726606,41.016646561],[-74.663759865,41.016646483],[-74.66378269,41.01664645],[-74.663829429,41.016646384],[-74.663888656,41.016637959],[-74.663999436,41.016622812],[-74.664048953,41.016605365],[-74.66411213,41.016581184],[-74.664113389,41.016557201],[-74.664130059,41.016537481],[-74.664131148,41.016536192],[-74.664132072,41.016535337],[-74.664200908,41.016471642],[-74.66421143,41.016458637],[-74.664246229,41.016409145],[-74.664273766,41.016350014],[-74.664291292,41.016313772],[-74.664301217,41.016256573],[-74.664326204,41.016184103],[-74.664383811,41.016073463],[-74.664504501,41.016029448],[-74.66461722,41.015815797],[-74.664629283,41.015780298],[-74.664629299,41.015780271],[-74.664638623,41.015770524],[-74.664657938,41.01575542],[-74.664679472,41.015738629],[-74.664727272,41.015702295],[-74.664754073,41.015675695],[-74.664770395,41.015665023],[-74.664779941,41.015660987],[-74.664801893,41.015651715],[-74.66484865,41.015639838],[-74.664946401,41.015615178],[-74.664989131,41.015594149],[-74.665006686,41.015569344],[-74.665061879,41.015500642],[-74.665121879,41.015340438],[-74.665207106,41.015204979],[-74.665237234,41.015176342],[-74.665332455,41.015120332],[-74.665398072,41.015094705],[-74.665405698,41.015091657],[-74.665474076,41.015079311],[-74.665839827,41.01492285],[-74.665873672,41.014912173],[-74.665886997,41.014910243],[-74.665898205,41.014908615],[-74.665947265,41.014902353],[-74.666078078,41.014895086],[-74.666239863,41.014882019],[-74.666274089,41.014878046],[-74.666301748,41.014874835],[-74.666342613,41.014863293],[-74.666429261,41.014837236],[-74.666534006,41.014775428],[-74.666582238,41.014750316],[-74.666637238,41.014721723],[-74.666683111,41.014707249],[-74.666851401,41.014579292],[-74.666876515,41.014558288],[-74.667022323,41.014497079],[-74.667023226,41.014487569],[-74.667035008,41.014479569],[-74.667104421,41.014438318],[-74.66717714,41.014405949],[-74.667214123,41.014389494],[-74.667285238,41.014355933],[-74.667517024,41.014266684],[-74.66754733,41.014262904],[-74.667560942,41.014262894],[-74.667578874,41.014262895],[-74.667581372,41.014263282],[-74.667581409,41.014263288],[-74.667610407,41.014268161],[-74.667652487,41.014275157],[-74.667685816,41.014289325],[-74.667698124,41.014294561],[-74.667790549,41.014356362],[-74.667844379,41.01438991],[-74.667899336,41.014409298],[-74.668002207,41.014431295],[-74.668006776,41.01443217],[-74.668013308,41.014433458],[-74.668026148,41.014432557],[-74.668041377,41.014430788],[-74.668090312,41.014396185],[-74.668090345,41.014396168],[-74.668125332,41.014381091],[-74.668155673,41.014373088],[-74.668215208,41.014363295],[-74.668379877,41.014333821],[-74.668727276,41.014269157],[-74.66889313,41.01425122],[-74.668936019,41.014246149],[-74.668953897,41.014244018],[-74.668964947,41.014242703],[-74.669105401,41.01423671],[-74.669188502,41.014257555],[-74.669271568,41.014265058],[-74.669336985,41.014259244],[-74.669402426,41.014262959],[-74.669422574,41.014268648],[-74.669457805,41.014268596],[-74.669579736,41.014266341],[-74.669681772,41.014264455],[-74.66969177,41.014237753],[-74.669701791,41.014220583],[-74.669721851,41.014191961],[-74.669917757,41.014041085],[-74.669988045,41.013972359],[-74.670025705,41.013937993],[-74.670048281,41.013909367],[-74.670073377,41.013882644],[-74.670095954,41.013854018],[-74.670141183,41.013827264],[-74.670178808,41.013801161],[-74.670220752,41.013769222],[-74.670347178,41.013685903],[-74.670374771,41.013651552],[-74.670432347,41.013597687],[-74.670550601,41.013523578],[-74.670608354,41.013473933],[-74.670660938,41.013426112],[-74.670829303,41.01327727],[-74.670934742,41.013177993],[-74.670954756,41.013132215],[-74.670969806,41.013113131],[-74.671002447,41.01308449],[-74.671030035,41.013048231],[-74.671047567,41.013015801],[-74.671114016,41.012917085],[-74.671155972,41.012876308],[-74.671228279,41.012830634],[-74.671494383,41.01258053],[-74.6715252,41.012520806],[-74.671706627,41.012311938],[-74.671799082,41.012205499],[-74.671844108,41.012146919],[-74.671924528,41.012073976],[-74.671942403,41.012058871],[-74.671965262,41.012046021],[-74.672037743,41.012016477],[-74.672111923,41.011994415],[-74.672124054,41.011963607],[-74.672140738,41.011921234],[-74.672155403,41.011909298],[-74.672219601,41.011790294],[-74.672222079,41.011775041],[-74.672222029,41.011755979],[-74.672221994,41.011742729],[-74.672221994,41.011742636],[-74.672222299,41.011742404],[-74.672231047,41.011735751],[-74.672237063,41.011731176],[-74.672243817,41.011730652],[-74.672256953,41.011729632],[-74.672275674,41.011729627],[-74.672283246,41.011731105],[-74.672297861,41.011733993],[-74.672317732,41.0117375],[-74.672321246,41.011738389],[-74.67233877,41.011742784],[-74.672355132,41.011746297],[-74.672370331,41.011746285],[-74.672386718,41.011737762],[-74.672418225,41.011721375],[-74.672413153,41.011706133],[-74.672487468,41.011672559],[-74.672492523,41.011670275],[-74.672493585,41.011669795],[-74.672531375,41.011684978],[-74.672541712,41.011687727],[-74.672551275,41.011690294],[-74.672562678,41.011692647],[-74.672572287,41.011694652],[-74.672594481,41.011696372],[-74.672655794,41.011685229],[-74.672705951,41.011665691],[-74.672713317,41.011660468],[-74.672740942,41.011640894],[-74.672798012,41.01157442],[-74.672859746,41.01150442],[-74.672925014,41.011448567],[-74.672973408,41.011410027],[-74.673039928,41.011380698],[-74.673100597,41.011354953],[-74.673127462,41.011347827],[-74.673167142,41.011342494],[-74.673216213,41.011345034],[-74.673326067,41.011355497],[-74.673456482,41.011369011],[-74.673574355,41.011381224],[-74.673580461,41.011381895],[-74.673600008,41.01138404],[-74.67366222,41.011390892],[-74.673725076,41.011397827],[-74.673783542,41.011414561],[-74.673822256,41.011427877],[-74.673852551,41.011438322],[-74.673898752,41.011465236],[-74.67392686,41.011490868],[-74.67392688,41.011490892],[-74.673963219,41.01154477],[-74.673970287,41.011569557],[-74.674020541,41.011987597],[-74.674014355,41.012115021],[-74.674020862,41.012145825],[-74.67406541,41.012252627],[-74.67407304,41.012283114],[-74.674075592,41.012296453],[-74.674015641,41.012466193],[-74.673960515,41.012555867],[-74.673850309,41.012754274],[-74.673817789,41.012828665],[-74.673822958,41.012880123],[-74.673905337,41.013079228],[-74.673905352,41.013079256],[-74.673980409,41.013195094],[-74.673992146,41.013217957],[-74.67400331,41.013239714],[-74.674022221,41.013270583],[-74.674024412,41.01327416],[-74.674024435,41.01327419],[-74.67406426,41.013311296],[-74.674083114,41.01332458],[-74.674099357,41.013336024],[-74.674146038,41.013369912],[-74.67419241,41.013403571],[-74.674228676,41.013422101],[-74.674276611,41.013435303],[-74.674305822,41.013443223],[-74.674373609,41.013450227],[-74.674476415,41.013451821],[-74.674585072,41.013449884],[-74.674628272,41.013443621],[-74.67466681,41.013429428],[-74.674690136,41.013421417],[-74.674714617,41.013419886],[-74.674720492,41.013421359],[-74.674743875,41.013428427],[-74.674769613,41.013437217],[-74.674833653,41.013471413],[-74.674858899,41.013501874],[-74.67486904,41.013530451],[-74.674869091,41.013549513],[-74.674917957,41.013593078],[-74.674949977,41.013608608],[-74.674950011,41.013608626],[-74.67497567,41.013622699],[-74.674975711,41.01362272],[-74.674996226,41.013631159],[-74.67500141,41.013633291],[-74.675001441,41.013633304],[-74.675029529,41.013643886],[-74.675062269,41.013659759],[-74.67507634,41.013679216],[-74.675104426,41.013705697],[-74.675150441,41.013757745],[-74.675198195,41.013811758],[-74.67525441,41.013871832],[-74.675303556,41.01390716],[-74.675458067,41.014007814],[-74.675500143,41.014027227],[-74.675535219,41.014034226],[-74.675553929,41.014032437],[-74.675586608,41.014027083],[-74.675605268,41.014020756],[-74.675628634,41.01401285],[-74.675663607,41.013988024],[-74.675703277,41.013968493],[-74.675745342,41.013957827],[-74.675768615,41.013940086],[-74.675777881,41.013908218],[-74.675777884,41.013907561],[-74.675777884,41.013907528],[-74.675777815,41.013881655],[-74.675777811,41.013881627],[-74.675773094,41.013862201],[-74.675749668,41.013835692],[-74.675730885,41.013809167],[-74.675707415,41.013772039],[-74.675660607,41.013734953],[-74.675571702,41.01369261],[-74.675494486,41.013652024],[-74.675417236,41.01359374],[-74.675364548,41.01355223],[-74.675324734,41.013513357],[-74.675261547,41.01346569],[-74.675261515,41.013465665],[-74.675135003,41.013334898],[-74.675127644,41.013303224],[-74.675160259,41.013265051],[-74.675217942,41.013190623],[-74.675373695,41.013087453],[-74.675403928,41.01310075],[-74.675419033,41.013102633],[-74.675434107,41.01309308],[-74.675439095,41.013075916],[-74.675466721,41.013054906],[-74.675506955,41.013043408],[-74.675539654,41.01303764],[-74.675569807,41.013020438],[-74.675573314,41.013005659],[-74.675574785,41.012999463],[-74.675579777,41.012984206],[-74.675602396,41.012972734],[-74.675632604,41.012976501],[-74.675647436,41.012989554],[-74.675662873,41.013003141],[-74.675723305,41.013016392],[-74.67577113,41.013020131],[-74.6758139,41.013016254],[-74.675829972,41.013013179],[-74.675874945,41.013033525],[-74.675916953,41.013060687],[-74.675965054,41.013126412],[-74.675980086,41.013146809],[-74.676004086,41.013160386],[-74.676058034,41.013171648],[-74.676091019,41.01318521],[-74.676120966,41.013206547],[-74.676227324,41.013282487],[-74.676267634,41.013299581],[-74.676295342,41.013309069],[-74.676309667,41.013311306],[-74.676315596,41.013312233],[-74.676330063,41.013314493],[-74.676353423,41.013317994],[-74.676369804,41.013323288],[-74.676470402,41.013372685],[-74.676491463,41.013385033],[-74.676502682,41.013393502],[-74.676512528,41.013400938],[-74.676512548,41.013400958],[-74.676526602,41.013418618],[-74.676535998,41.01343629],[-74.676536002,41.013439667],[-74.676536002,41.013439694],[-74.676536025,41.013452223],[-74.676536072,41.013466369],[-74.676536117,41.013484073],[-74.676587855,41.013531643],[-74.67662534,41.013540665],[-74.67665081,41.013546796],[-74.676708687,41.013544801],[-74.676751442,41.013535205],[-74.676789139,41.013516085],[-74.676839405,41.013491227],[-74.676909796,41.013464433],[-74.676980157,41.013426202],[-74.677017865,41.013410894],[-74.677027885,41.013393724],[-74.677002638,41.013363263],[-74.676954782,41.013348088],[-74.6769195,41.01332908],[-74.6768792,41.013315799],[-74.676833846,41.0132949],[-74.676797278,41.013289],[-74.676763218,41.013281174],[-74.676713143,41.013269627],[-74.676668663,41.013244958],[-74.676660906,41.013239437],[-74.676626506,41.013214931],[-74.676576136,41.013157491],[-74.676510527,41.01308503],[-74.676454278,41.013028486],[-74.676412074,41.012970154],[-74.676360596,41.012938369],[-74.676302076,41.012903027],[-74.676262268,41.012865958],[-74.676206005,41.012793488],[-74.676190604,41.012724035],[-74.676180502,41.012710707],[-74.676172204,41.012708028],[-74.676162872,41.012705015],[-74.676150248,41.012689785],[-74.676150207,41.012674536],[-74.676167456,41.012664332],[-74.67617282,41.012661158],[-74.676185363,41.01264589],[-74.676215465,41.012609627],[-74.676253095,41.012565727],[-74.676293269,41.012531354],[-74.676333435,41.012495076],[-74.676356048,41.012481698],[-74.676398779,41.012462571],[-74.676428941,41.012449181],[-74.676476694,41.012426234],[-74.676501787,41.01239951],[-74.676536938,41.012368957],[-74.676574604,41.012338401],[-74.676619815,41.012305926],[-74.676675959,41.012289881],[-74.676680165,41.012288678],[-74.676712377,41.012281508],[-74.676737889,41.012283614],[-74.676772409,41.012286493],[-74.676830822,41.012295226],[-74.676905676,41.012312827],[-74.676959969,41.01232804],[-74.677024883,41.01234624],[-74.677209685,41.01242915],[-74.677518476,41.012561427],[-74.67762262,41.012631154],[-74.677664747,41.012650549],[-74.677727876,41.012664627],[-74.677760555,41.012664554],[-74.677781597,41.012662758],[-74.677788338,41.012653221],[-74.67779789,41.01263972],[-74.677801732,41.012631368],[-74.677814142,41.012604301],[-74.677814022,41.012561825],[-74.677808227,41.012546562],[-74.677799943,41.012524694],[-74.677782399,41.012502987],[-74.677767086,41.012484025],[-74.677733806,41.012457423],[-74.677688677,41.012421294],[-74.677602076,41.012370094],[-74.677482743,41.012299494],[-74.677314261,41.012207761],[-74.677272131,41.012179502],[-74.677245491,41.01216612],[-74.677215964,41.012151274],[-74.677172955,41.012122086],[-74.67717256,41.012121627],[-74.677140139,41.012084012],[-74.677057745,41.012043947],[-74.677054561,41.012042113],[-74.677026409,41.012025894],[-74.677010294,41.012018453],[-74.676995964,41.012011801],[-74.676963165,41.011976459],[-74.67696314,41.011976428],[-74.676955958,41.011967404],[-74.676920956,41.011923428],[-74.676892813,41.011877462],[-74.676865695,41.011818746],[-74.676781557,41.011621363],[-74.676703703,41.011494595],[-74.676703679,41.011494559],[-74.676654463,41.011427426],[-74.676579232,41.011244251],[-74.676581376,41.011105097],[-74.676606353,41.011034531],[-74.676672705,41.010917567],[-74.676701419,41.010824707],[-74.676747346,41.010776893],[-74.676882409,41.010751994],[-74.677106189,41.010683028],[-74.677178599,41.010633252],[-74.677236804,41.010593238],[-74.677324736,41.01053973],[-74.67740411,41.010458935],[-74.677440286,41.01042717],[-74.677451935,41.010405926],[-74.677451949,41.010405894],[-74.677463544,41.010377615],[-74.677465819,41.010356358],[-74.677461085,41.010333357],[-74.677451687,41.010317436],[-74.677450611,41.010316782],[-74.67744001,41.01031036],[-74.677432909,41.010310389],[-74.677423649,41.010310404],[-74.677414449,41.010314403],[-74.677407277,41.010317494],[-74.677394036,41.010327602],[-74.677372002,41.010335697],[-74.677354397,41.010339536],[-74.677339283,41.010333841],[-74.677321647,41.010326244],[-74.677269288,41.010254018],[-74.677259887,41.010234553],[-74.677240795,41.010204373],[-74.677240759,41.010191029],[-74.677255653,41.01011476],[-74.677316668,41.010058369],[-74.67733665,41.010057504],[-74.677358676,41.01005656],[-74.677371268,41.010058632],[-74.677379746,41.010060037],[-74.677391461,41.010063564],[-74.677403141,41.010070627],[-74.677419548,41.010091837],[-74.677477267,41.010177322],[-74.677479845,41.010200192],[-74.677457334,41.010236904],[-74.677459712,41.010254595],[-74.677462073,41.010265227],[-74.677478461,41.010270493],[-74.67748081,41.010270493],[-74.67749013,41.010270486],[-74.67749702,41.010263729],[-74.677506434,41.010254523],[-74.677537469,41.010227292],[-74.677567077,41.01020136],[-74.677630003,41.010155227],[-74.677668423,41.010142717],[-74.677680944,41.010119823],[-74.677690948,41.010096934],[-74.677693373,41.010062619],[-74.67770084,41.010032109],[-74.677713401,41.010024465],[-74.677743608,41.010028231],[-74.677763683,41.010007232],[-74.677735952,41.009988213],[-74.677775754,41.009816596],[-74.677822818,41.009747896],[-74.677923217,41.009724724],[-74.677941938,41.009737083],[-74.677954218,41.00974198],[-74.678369389,41.009515841],[-74.67837887,41.009510677],[-74.678652776,41.009369196],[-74.679077458,41.009151233],[-74.679371519,41.009019251],[-74.679499771,41.008988552],[-74.679493641,41.008974716],[-74.679519209,41.008961255],[-74.67953493,41.008950622],[-74.67956121,41.008932893],[-74.679698869,41.008870704],[-74.679740847,41.008847639],[-74.679740875,41.008847625],[-74.679743132,41.008846551],[-74.67975951,41.008838765],[-74.679768713,41.008836258],[-74.67979221,41.008829893],[-74.679818246,41.008828591],[-74.679829575,41.008828039],[-74.679914533,41.008825881],[-74.680168426,41.008730176],[-74.680190961,41.008688205],[-74.680221048,41.008648128],[-74.6802587,41.008613758],[-74.680298909,41.008594633],[-74.680349185,41.008575493],[-74.680374297,41.008556392],[-74.680432084,41.008523897],[-74.680452147,41.008499085],[-74.680482281,41.008476163],[-74.680507434,41.008472312],[-74.680525018,41.008460847],[-74.680550134,41.008443653],[-74.680605278,41.00840476],[-74.680648937,41.00838012],[-74.680715959,41.00834999],[-74.680734429,41.008336425],[-74.680788787,41.008296503],[-74.680849075,41.008258285],[-74.680896829,41.008237242],[-74.680984751,41.008181825],[-74.681039953,41.008124554],[-74.681067519,41.008082574],[-74.68109761,41.008044404],[-74.681127744,41.008021483],[-74.681170479,41.008006166],[-74.681218238,41.007987029],[-74.681240843,41.007971744],[-74.681306084,41.007904926],[-74.681353785,41.007864821],[-74.681411573,41.007832325],[-74.681451786,41.007815106],[-74.681502051,41.007792153],[-74.6815322,41.00777495],[-74.681557326,41.007761567],[-74.681574883,41.007740572],[-74.681645236,41.007702338],[-74.681720657,41.007677438],[-74.681853924,41.007641011],[-74.681916794,41.007627568],[-74.68218241,41.007618236],[-74.682253972,41.007623223],[-74.682377198,41.007596342],[-74.682404831,41.007579143],[-74.682409843,41.00757151],[-74.68243498,41.00756194],[-74.682495324,41.007544689],[-74.682565729,41.007525515],[-74.682636106,41.007496811],[-74.682676325,41.007481498],[-74.682711511,41.007466193],[-74.682766829,41.007450856],[-74.682979684,41.007419638],[-74.683045116,41.007421319],[-74.683108213,41.007428296],[-74.683201691,41.0074423],[-74.68326948,41.007447502],[-74.683367603,41.007447357],[-74.683426011,41.007447293],[-74.683465744,41.007447226],[-74.683507344,41.007456439],[-74.683536859,41.007462975],[-74.683577121,41.007462911],[-74.683667687,41.007455143],[-74.683765787,41.007441643],[-74.683785896,41.007433986],[-74.683813528,41.007416786],[-74.683814409,41.007415762],[-74.683857092,41.007414691],[-74.683871802,41.00741769],[-74.683887811,41.007427759],[-74.683887833,41.00742778],[-74.683898934,41.007441589],[-74.683982375,41.007508013],[-74.684032756,41.007526995],[-74.684196475,41.007553638],[-74.684213823,41.007554636],[-74.68423387,41.007561689],[-74.684245883,41.007563687],[-74.684288559,41.007558563],[-74.684294447,41.007557259],[-74.684301414,41.007539572],[-74.684302033,41.007538001],[-74.684304449,41.00750178],[-74.684291761,41.007463677],[-74.684262271,41.007401687],[-74.684227138,41.007373423],[-74.684194335,41.007338086],[-74.684177893,41.007309791],[-74.684177879,41.007309759],[-74.684168471,41.007281487],[-74.684112434,41.007223787],[-74.684069477,41.007159045],[-74.68405347,41.007087027],[-74.684058072,41.007065754],[-74.684060938,41.007029024],[-74.684061464,41.00702903],[-74.684061415,41.007016728],[-74.684061377,41.007002925],[-74.684051938,41.00696755],[-74.684023747,41.006909172],[-74.683984554,41.006842324],[-74.683984542,41.006842294],[-74.683960221,41.006748232],[-74.683952928,41.006704677],[-74.683960375,41.006564908],[-74.68396638,41.006462442],[-74.683997635,41.006390911],[-74.684054046,41.006316956],[-74.684069693,41.006288339],[-74.684072864,41.006276195],[-74.684091478,41.006204909],[-74.684097543,41.006123887],[-74.6840941,41.00601667],[-74.684087709,41.00598094],[-74.684075022,41.005942836],[-74.684046973,41.005835302],[-74.684032914,41.005775222],[-74.68403533,41.005739001],[-74.684030148,41.005685636],[-74.683995973,41.005617827],[-74.683988545,41.005582825],[-74.68397895,41.005501414],[-74.683973013,41.005454542],[-74.683960325,41.005416439],[-74.683925588,41.005366457],[-74.683881414,41.005316491],[-74.683847587,41.005306937],[-74.683832925,41.005305252],[-74.683817214,41.005303437],[-74.68377982,41.0053035],[-74.683744812,41.005317693],[-74.68365927,41.005329774],[-74.683641656,41.005329802],[-74.683601348,41.005312711],[-74.683535853,41.005286128],[-74.683519571,41.005266486],[-74.683485358,41.005225211],[-74.683467624,41.005181397],[-74.683505304,41.005158463],[-74.683511211,41.005134541],[-74.683522881,41.005089847],[-74.683561998,41.005018302],[-74.683606519,41.004953732],[-74.683644232,41.004899037],[-74.683722666,41.004827429],[-74.68374224,41.004797614],[-74.683761733,41.004738015],[-74.683777278,41.004672466],[-74.683788888,41.004633981],[-74.683800652,41.00459499],[-74.683824117,41.004550277],[-74.683882859,41.004466788],[-74.684207479,41.004093211],[-74.684289001,41.004001028],[-74.68430906,41.003979108],[-74.684349361,41.003933408],[-74.684403988,41.003897581],[-74.684458639,41.00387033],[-74.6844831,41.003844558],[-74.684501871,41.003808786],[-74.684475616,41.00375498],[-74.684562,41.003715526],[-74.684593396,41.003695223],[-74.684619811,41.00367309],[-74.684609412,41.003654225],[-74.684585651,41.003640854],[-74.684585608,41.003640829],[-74.684584211,41.003640038],[-74.684581612,41.003639826],[-74.684555142,41.003637551],[-74.684524958,41.003642689],[-74.684470279,41.003664487],[-74.684444616,41.003680437],[-74.684434863,41.003687877],[-74.68442365,41.003696412],[-74.684290798,41.003806351],[-74.684125337,41.003955283],[-74.68400888,41.004081104],[-74.683943673,41.004153768],[-74.683885399,41.004199889],[-74.683801478,41.004253092],[-74.68380145,41.004253112],[-74.683726861,41.004311634],[-74.683682554,41.004347098],[-74.683671126,41.004358413],[-74.683659269,41.004370151],[-74.683651634,41.004373466],[-74.683642944,41.004377225],[-74.683621945,41.004382558],[-74.683605544,41.004384359],[-74.683598549,41.004382626],[-74.683573149,41.00438095],[-74.683537923,41.004381006],[-74.683515251,41.004371512],[-74.683497605,41.004360103],[-74.683484951,41.004333436],[-74.683452155,41.004302989],[-74.683322473,41.004230883],[-74.683287417,41.004229156],[-74.683195141,41.004224883],[-74.683097012,41.004212625],[-74.682984748,41.004177429],[-74.682872462,41.00411743],[-74.68279282,41.004050299],[-74.682755353,41.004016749],[-74.682749322,41.004011425],[-74.682741344,41.004004359],[-74.682720267,41.003995561],[-74.682685214,41.003995619],[-74.682659536,41.003999195],[-74.682653953,41.00400203],[-74.68263854,41.004009836],[-74.682611503,41.004023782],[-74.68256622,41.004047126],[-74.682487937,41.004100729],[-74.682449624,41.004126959],[-74.682330677,41.004206759],[-74.68223515,41.004277697],[-74.682235116,41.004277719],[-74.682086016,41.004362341],[-74.682040766,41.004377662],[-74.682006997,41.004384825],[-74.681995501,41.004387264],[-74.681935579,41.004397201],[-74.681907283,41.0044083],[-74.681907249,41.004408315],[-74.681799944,41.004461559],[-74.681636669,41.004555631],[-74.681562065,41.00461062],[-74.681542069,41.004623703],[-74.681509035,41.004645329],[-74.68146181,41.004676225],[-74.681406987,41.004711403],[-74.681383664,41.00472636],[-74.681316022,41.004771162],[-74.68128711,41.004789004],[-74.681229738,41.004824396],[-74.681141076,41.004865234],[-74.681026733,41.00490789],[-74.680908778,41.004971504],[-74.680842424,41.005007289],[-74.680679089,41.005081882],[-74.68056241,41.005133359],[-74.680515041,41.005149687],[-74.680490079,41.005158281],[-74.680429212,41.005171445],[-74.68035001,41.005188559],[-74.680296721,41.005201799],[-74.68025313,41.005212621],[-74.680237474,41.005222353],[-74.680227483,41.005228565],[-74.680227454,41.005228586],[-74.680187818,41.005260502],[-74.680150613,41.005315429],[-74.680122658,41.005347327],[-74.680099347,41.005361496],[-74.680099311,41.005361518],[-74.680080661,41.005370402],[-74.680057338,41.005382823],[-74.680043359,41.005400554],[-74.680034083,41.005418227],[-74.680034069,41.005418257],[-74.680027092,41.005435962],[-74.680015483,41.005457222],[-74.67999453,41.005478489],[-74.679964211,41.00549977],[-74.679950759,41.005506173],[-74.679926876,41.005517532],[-74.679814865,41.005561956],[-74.679793515,41.005567379],[-74.679751817,41.00557797],[-74.679693477,41.005586892],[-74.679586011,41.005588825],[-74.679473869,41.005589029],[-74.679445962,41.005586678],[-74.679360517,41.005579472],[-74.679330405,41.00558104],[-74.67929041,41.005583093],[-74.679241099,41.005585113],[-74.679199341,41.005586814],[-74.67902647,41.005590618],[-74.678987846,41.005595244],[-74.67895174,41.005599571],[-74.678898016,41.005604963],[-74.67885361,41.005608559],[-74.678842629,41.00560859],[-74.678830278,41.005608615],[-74.678764818,41.005594556],[-74.67866661,41.005566359],[-74.678562599,41.005537355],[-74.678499476,41.005525026],[-74.678452736,41.005514501],[-74.678431681,41.005509235],[-74.67842994,41.005509238],[-74.678149413,41.005444468],[-74.677889352,41.005384423],[-74.677778329,41.005362467],[-74.677720772,41.005353311],[-74.677674667,41.005345967],[-74.677626186,41.005347356],[-74.677582047,41.005348613],[-74.677516675,41.005361101],[-74.677483992,41.005373538],[-74.677445681,41.005405925],[-74.677442039,41.005409002],[-74.677442008,41.005409025],[-74.677423386,41.005421405],[-74.677411714,41.005426746],[-74.677395356,41.005426767],[-74.677390727,41.005426778],[-74.677379011,41.005426796],[-74.67735795,41.005417968],[-74.677329901,41.005403862],[-74.677299484,41.005393292],[-74.677259744,41.005379196],[-74.677220006,41.005370416],[-74.677194287,41.005368686],[-74.6771686,41.005366952],[-74.677128875,41.005367016],[-74.677106435,41.005366233],[-74.677079808,41.005365304],[-74.677047579,41.005367401],[-74.677023749,41.00536895],[-74.677006484,41.005370929],[-74.67697701,41.005374292],[-74.676951354,41.005377895],[-74.676930329,41.005377928],[-74.676895278,41.00537622],[-74.676864875,41.005369159],[-74.676827484,41.005362162],[-74.67676322,41.005354294],[-74.676676812,41.005361503],[-74.676647399,41.005365271],[-74.676606747,41.005370463],[-74.676243948,41.00542282],[-74.676052156,41.005467762],[-74.67603098,41.005478513],[-74.676003196,41.005492623],[-74.675954201,41.005522772],[-74.675919207,41.005545832],[-74.675886537,41.005556498],[-74.675818809,41.005561893],[-74.675653009,41.005585159],[-74.675484808,41.005608426],[-74.675414802,41.005622702],[-74.675315541,41.00563436],[-74.675254817,41.005646836],[-74.675210484,41.005666369],[-74.675161476,41.005685893],[-74.675128815,41.005701896],[-74.675098541,41.005726691],[-74.67509851,41.005726719],[-74.675082207,41.00574268],[-74.675065261,41.005759856],[-74.675061231,41.00576394],[-74.675061212,41.005763962],[-74.675049602,41.005778103],[-74.675019292,41.005802937],[-74.67499828,41.005811821],[-74.674977282,41.005824238],[-74.674967662,41.005828316],[-74.674956291,41.005833127],[-74.674952297,41.005835405],[-74.674946952,41.005838436],[-74.674939941,41.005838426],[-74.674928126,41.005838474],[-74.674923599,41.005838484],[-74.674902547,41.00583143],[-74.674869809,41.005813759],[-74.674851076,41.005803159],[-74.674827139,41.005799831],[-74.674813683,41.005797949],[-74.674745942,41.005799816],[-74.674661835,41.005799938],[-74.674627152,41.005804884],[-74.674561408,41.005814226],[-74.674348941,41.005857037],[-74.674267214,41.005876636],[-74.673990528,41.005931034],[-74.673845741,41.005952493],[-74.67378035,41.005966753],[-74.673691608,41.005988093],[-74.673600609,41.006020105],[-74.673554832,41.006027488],[-74.673511872,41.006034417],[-74.673452594,41.006035217],[-74.673367008,41.006036359],[-74.673253324,41.006040311],[-74.673232727,41.006041023],[-74.673209351,41.006042823],[-74.673172019,41.006060564],[-74.673132355,41.006080099],[-74.673116008,41.006094292],[-74.673104408,41.006120826],[-74.673090551,41.006177502],[-74.673053279,41.006218277],[-74.673001988,41.006253736],[-74.672952954,41.006269747],[-74.672887556,41.006278685],[-74.672805806,41.006278815],[-74.672738043,41.006273602],[-74.672695996,41.006273665],[-74.672618919,41.006284398],[-74.672553547,41.006300422],[-74.672478866,41.006327086],[-74.672382015,41.006361732],[-74.672304941,41.006374234],[-74.672244254,41.006397339],[-74.67217194,41.006438155],[-74.672069275,41.00649136],[-74.671980675,41.006558769],[-74.671875747,41.00663503],[-74.671829118,41.006668728],[-74.671780128,41.006691818],[-74.671705432,41.006718469],[-74.671678851,41.006722984],[-74.671642342,41.006729159],[-74.671494008,41.006728493],[-74.671377208,41.006726893],[-74.671328131,41.006721689],[-74.671288392,41.006709358],[-74.671260345,41.006697022],[-74.67126031,41.006697009],[-74.671222931,41.006686435],[-74.671178525,41.006682967],[-74.671144407,41.006681966],[-74.671064019,41.006679601],[-74.671040667,41.006681415],[-74.671029174,41.006683168],[-74.67101734,41.00668496],[-74.671017311,41.00668498],[-74.670989342,41.006695629],[-74.670989309,41.006695642],[-74.670821332,41.006784371],[-74.670679001,41.006853615],[-74.670624621,41.006872928],[-74.670608955,41.006878489],[-74.670529541,41.006883893],[-74.670364446,41.006891949],[-74.670248074,41.006897615],[-74.670199044,41.006910064],[-74.670147713,41.006938462],[-74.670057269,41.0069839],[-74.670024067,41.007000573],[-74.669888746,41.007076887],[-74.669774462,41.007149619],[-74.669748616,41.007166461],[-74.669709141,41.00719216],[-74.66964734,41.00722036],[-74.669640414,41.007223559],[-74.669633318,41.007226802],[-74.669535313,41.007278269],[-74.669497326,41.007304752],[-74.669451341,41.00733676],[-74.66941301,41.007365296],[-74.66934874,41.007413026],[-74.669215807,41.007494627],[-74.669176811,41.007515924],[-74.669108485,41.007553221],[-74.669036203,41.007606416],[-74.668987272,41.007656033],[-74.668917352,41.007728695],[-74.668865706,41.007779218],[-74.668852129,41.0077925],[-74.668814863,41.007840353],[-74.668800908,41.007868679],[-74.668798054,41.007882924],[-74.668796288,41.007891695],[-74.668796331,41.007904089],[-74.668798075,41.007913753],[-74.669002475,41.008107948],[-74.669106658,41.008257906],[-74.669102095,41.008318672],[-74.669073868,41.00835088],[-74.668880683,41.008457001],[-74.668724288,41.008517421],[-74.668518946,41.008615037],[-74.668409616,41.008748574],[-74.668301607,41.008948881],[-74.668287762,41.009070419],[-74.668244751,41.009199485],[-74.668214552,41.009264998],[-74.668214544,41.009265028],[-74.668205335,41.009312795],[-74.668205333,41.009312827],[-74.668205399,41.009339351],[-74.66820079,41.009358823],[-74.668200807,41.009371547],[-74.668200807,41.009380026],[-74.668200879,41.009401291],[-74.668212461,41.009437762],[-74.668219837,41.009461083],[-74.668254976,41.009539556],[-74.66825261,41.009598651],[-74.668225088,41.009661594],[-74.668192454,41.009692141],[-74.667933627,41.009835481],[-74.667546523,41.010003787],[-74.66737776,41.010065855],[-74.66732277,41.010086078],[-74.667324437,41.010088347],[-74.667295007,41.01010076],[-74.667197273,41.010149561],[-74.667166843,41.010164793],[-74.667138645,41.010178878],[-74.667033123,41.010213853],[-74.666940214,41.010244636],[-74.666830651,41.010278383],[-74.666720773,41.010312215],[-74.666531672,41.010365572],[-74.666435813,41.010384374],[-74.666317995,41.010407487],[-74.666233933,41.010425296],[-74.666166219,41.010446632],[-74.666058863,41.010487492],[-74.666019597,41.010506307],[-74.665961388,41.010534234],[-74.665951526,41.010538963],[-74.665876806,41.010563828],[-74.665687673,41.010615427],[-74.665474066,41.010675037],[-74.665345673,41.01071236],[-74.665295834,41.01073406],[-74.665247659,41.01075502],[-74.665179947,41.010783425],[-74.66510524,41.01080654],[-74.665026422,41.010826567],[-74.664958144,41.010843905],[-74.664934382,41.01084395],[-74.664902071,41.010843996],[-74.664868154,41.010838114],[-74.664841273,41.010833427],[-74.664773539,41.010831761],[-74.664733873,41.010838894],[-74.664600749,41.010874502],[-74.664436743,41.010919959],[-74.664270409,41.010966101],[-74.664270377,41.01096611],[-74.664119271,41.011004416],[-74.663816061,41.011106422],[-74.663630743,41.011168768],[-74.663630712,41.01116878],[-74.663578483,41.01119489],[-74.663480546,41.01125245],[-74.663420211,41.011277315],[-74.663216532,41.011340508],[-74.663105912,41.0113826],[-74.662970195,41.01145332],[-74.66285963,41.011518287],[-74.662781708,41.011554614],[-74.662759079,41.01156227],[-74.66270761,41.011547935],[-74.662679538,41.011537358],[-74.662663193,41.011533835],[-74.662628139,41.011532094],[-74.662193541,41.011527425],[-74.662095414,41.011532886],[-74.662018351,41.011543602],[-74.661892493,41.011571107],[-74.661818685,41.011587231],[-74.661615608,41.011658306],[-74.661552611,41.011679969],[-74.661470868,41.011708084],[-74.661319083,41.011740152],[-74.661286669,41.011744119],[-74.661202272,41.011754427],[-74.661058605,41.011760828],[-74.660979215,41.011776895],[-74.660867326,41.011827978],[-74.660819592,41.011860449],[-74.660781919,41.011891001],[-74.660744213,41.011908209],[-74.660667538,41.011942935],[-74.660621127,41.011999876],[-74.660595999,41.012015161],[-74.660565806,41.012017109],[-74.660444536,41.012001551],[-74.660388641,41.01199894],[-74.660344831,41.012002771],[-74.660285872,41.012007894],[-74.660167879,41.012014289],[-74.66010481,41.012014369],[-74.660044071,41.012010895],[-74.660018582,41.012013104],[-74.659980986,41.012016329],[-74.659939535,41.012030345],[-74.659917946,41.012037635],[-74.659719537,41.012119294],[-74.659663546,41.012149493],[-74.659571398,41.012203599],[-74.659426768,41.012301133],[-74.659426736,41.01230116],[-74.659354482,41.012366703],[-74.659339152,41.01237838],[-74.659321848,41.012391539],[-74.659300874,41.012402166],[-74.659275145,41.012402224],[-74.659251768,41.01239871],[-74.659251733,41.012398701],[-74.659235405,41.012393425],[-74.659209673,41.01238284],[-74.65916794,41.012387495],[-74.659163031,41.012388466],[-74.659125493,41.012395893],[-74.659058011,41.012457937],[-74.659041904,41.012472893],[-74.65903129,41.012482749],[-74.659019301,41.01249389],[-74.658921094,41.012591606],[-74.658858801,41.012682186],[-74.658827398,41.012704866],[-74.658808553,41.012716805],[-74.658803886,41.012738256],[-74.65880873,41.012790669],[-74.65880095,41.012825229],[-74.658789994,41.01284788],[-74.658778999,41.012853852],[-74.65876959,41.012865778],[-74.65876961,41.012874118],[-74.658764925,41.01288842],[-74.658755512,41.012897965],[-74.658738217,41.012900371],[-74.658715938,41.012910476],[-74.658692337,41.012942798],[-74.65869432,41.01296],[-74.658666067,41.012983865],[-74.658534259,41.013113904],[-74.658512525,41.013139731],[-74.658509166,41.013143723],[-74.658507246,41.013155868],[-74.658503465,41.013179795],[-74.658502504,41.013191712],[-74.658502594,41.013227104],[-74.658502644,41.013250112],[-74.658498011,41.013267825],[-74.658484055,41.013283761],[-74.658467679,41.013289097],[-74.658451265,41.013289418],[-74.658369571,41.013291],[-74.658314151,41.013302531],[-74.658292483,41.013307033],[-74.658225143,41.013332664],[-74.658191775,41.013348158],[-74.658187227,41.01335027],[-74.65817996,41.01335714],[-74.658065072,41.013465753],[-74.657950294,41.013587675],[-74.657841397,41.013724434],[-74.657808809,41.013768697],[-74.657808787,41.013768727],[-74.657736915,41.013859316],[-74.657708908,41.013937072],[-74.657688557,41.013977607],[-74.657635191,41.014024143],[-74.657591296,41.014084961],[-74.657567748,41.014104056],[-74.65751579,41.014138345],[-74.657498796,41.014149559],[-74.657441791,41.014184229],[-74.65740707,41.01420018],[-74.657178234,41.014338093],[-74.657054183,41.014425231],[-74.656901858,41.014527896],[-74.656859476,41.014563694],[-74.656828117,41.014605434],[-74.656818736,41.014629274],[-74.656804617,41.014644781],[-74.656785771,41.01465672],[-74.656732661,41.014678962],[-74.65670491,41.014698032],[-74.656636617,41.014770102],[-74.656567596,41.014848825],[-74.656507928,41.014891795],[-74.656387039,41.014986076],[-74.656330475,41.015011171],[-74.656236345,41.015043979],[-74.656236303,41.015043994],[-74.656183307,41.015062867],[-74.656123799,41.015092155],[-74.656070134,41.015124083],[-74.656052966,41.015131911],[-74.656035137,41.015140029],[-74.655983803,41.015163095],[-74.655925408,41.015184439],[-74.655843367,41.015217936],[-74.655818248,41.015238223],[-74.655672337,41.015394487],[-74.655631579,41.015452919],[-74.65560025,41.015507763],[-74.655547804,41.015581362],[-74.65552454,41.015607962],[-74.65549187,41.015639829],[-74.655456876,41.015659371],[-74.655386765,41.015690329],[-74.655294006,41.015708325],[-74.655245307,41.0157346],[-74.655190326,41.015764458],[-74.655140662,41.01581109],[-74.655140646,41.015811114],[-74.655135549,41.015825336],[-74.655133676,41.015830562],[-74.655133668,41.015830591],[-74.655129059,41.015855366],[-74.655119795,41.015890773],[-74.655096474,41.015913821],[-74.65493767,41.0160126],[-74.654821523,41.016118787],[-74.654777624,41.016179605],[-74.654755093,41.01622421],[-74.65475414,41.016226099],[-74.654749192,41.016275306],[-74.65473993,41.016312495],[-74.654728328,41.016349685],[-74.654705051,41.016386872],[-74.654683868,41.016406999],[-74.654667736,41.016422296],[-74.654618352,41.016459863],[-74.654561348,41.016515857],[-74.654523661,41.016543309],[-74.654426246,41.016588711],[-74.65434636,41.016634144],[-74.654334266,41.016643108],[-74.654284956,41.016705653],[-74.654223821,41.016795086],[-74.65417519,41.016851145],[-74.65411872,41.016917937],[-74.654030778,41.016978814],[-74.65390673,41.017070714],[-74.65387687,41.017081476],[-74.653816944,41.017102622],[-74.653782025,41.017125377],[-74.653694744,41.017225873],[-74.653583313,41.017332052],[-74.653536204,41.017366664],[-74.653520209,41.017380973],[-74.65348539,41.017412121],[-74.653459502,41.017435159],[-74.653274112,41.017620771],[-74.653110956,41.01780684],[-74.653035619,41.017927028],[-74.652922891,41.018104929],[-74.652885237,41.018146676],[-74.652767535,41.018263585],[-74.65262156,41.018398402],[-74.652546981,41.018469775],[-74.652513571,41.018515276],[-74.65250427,41.01853476],[-74.652491389,41.018565363],[-74.65249143,41.018583234],[-74.6524035,41.018651258],[-74.652381488,41.01865486],[-74.652364674,41.018654497],[-74.652306061,41.018688318],[-74.652094107,41.018861344],[-74.652027162,41.018923249],[-74.65199587,41.018965487],[-74.651982433,41.018984294],[-74.651864979,41.019090387],[-74.651822582,41.01912261],[-74.651803918,41.019133419],[-74.651789594,41.019141715],[-74.651580464,41.019175348],[-74.651305288,41.019217406],[-74.651134202,41.019237175],[-74.651086402,41.019247163],[-74.651011661,41.019268506],[-74.650950948,41.019295156],[-74.650931631,41.019305422],[-74.650910757,41.019344208],[-74.650885632,41.019363303],[-74.650840065,41.019384806],[-74.650583809,41.019447092],[-74.650527215,41.019461462],[-74.650505214,41.019471021],[-74.650503674,41.01948532],[-74.650484817,41.019493684],[-74.650442653,41.019498579],[-74.650432922,41.019499708],[-74.650403051,41.019506896],[-74.65036833,41.019518366],[-74.650092868,41.019564363],[-74.65005313,41.019567972],[-74.649992543,41.019569756],[-74.649990054,41.019569829],[-74.649819485,41.019580669],[-74.649659459,41.019590621],[-74.64962513,41.019594122],[-74.649589335,41.019597763],[-74.64954966,41.019604906],[-74.649505268,41.019619096],[-74.649477188,41.019627796],[-74.649426553,41.019653511],[-74.649398272,41.019667844],[-74.649333806,41.019679841],[-74.649289789,41.019691811],[-74.649223745,41.019701428],[-74.649137262,41.019715836],[-74.649045667,41.01975329],[-74.649129344,41.019819216],[-74.648743645,41.020098969],[-74.6487676,41.020118953],[-74.648589198,41.020248802],[-74.648575842,41.020238545],[-74.648335207,41.020417893],[-74.648282943,41.020375222],[-74.648268119,41.020363097],[-74.648252811,41.02035056],[-74.648079111,41.020478199],[-74.647906344,41.020596365],[-74.647863982,41.020645265],[-74.647853051,41.020681019],[-74.647829538,41.020717982],[-74.647740084,41.020811022],[-74.647682063,41.020892109],[-74.647581823,41.021086428],[-74.647657384,41.021111349],[-74.647566524,41.021279447],[-74.64743018,41.021508361],[-74.647382525,41.021561232],[-74.647382064,41.021562418],[-74.647379809,41.021599569],[-74.647368334,41.021705764],[-74.647354802,41.021743681],[-74.647347462,41.02176422],[-74.647307867,41.021819109],[-74.647284675,41.021843433],[-74.647240257,41.02189],[-74.647188933,41.021930762],[-74.647143503,41.021991876],[-74.647133316,41.022021156],[-74.647130635,41.022070151],[-74.647107382,41.022223865],[-74.647094856,41.02225009],[-74.647064804,41.02233177],[-74.647022935,41.022416772],[-74.647015085,41.022455106],[-74.64700569,41.022474179],[-74.646980536,41.022481359],[-74.646952782,41.022486652],[-74.64693432,41.022500072],[-74.646906334,41.022524889],[-74.646879556,41.022568276],[-74.646879537,41.022568298],[-74.646858585,41.0225913],[-74.646814232,41.022616145],[-74.646814202,41.022616165],[-74.646715408,41.022689174],[-74.646678968,41.022716114],[-74.646643926,41.02274202],[-74.646628828,41.022752514],[-74.64652199,41.022836967],[-74.646478073,41.022895399],[-74.646418518,41.022995548],[-74.646280478,41.023172044],[-74.646177604,41.023209826],[-74.646070206,41.023254201],[-74.646014203,41.023279033],[-74.646014174,41.023279047],[-74.645784388,41.023410714],[-74.645757595,41.023426469],[-74.645692742,41.023466394],[-74.645657141,41.023488304],[-74.645657107,41.023488328],[-74.645631456,41.023513135],[-74.645621999,41.023529327],[-74.6456128,41.02354503],[-74.645593813,41.023578793],[-74.645577926,41.023607005],[-74.645559434,41.023644824],[-74.645540667,41.023683164],[-74.645459273,41.023844296],[-74.645440143,41.0238831],[-74.64542436,41.023915141],[-74.645424343,41.023915167],[-74.6453778,41.023991298],[-74.645333524,41.024046221],[-74.645307932,41.024101105],[-74.645289347,41.024157766],[-74.645276604,41.024207581],[-74.645268506,41.024239195],[-74.64524314,41.02439143],[-74.645203787,41.024557835],[-74.645184149,41.024668467],[-74.645184141,41.024668499],[-74.645163278,41.024739293],[-74.645129488,41.024835438],[-74.645112236,41.024859288],[-74.645008674,41.024979745],[-74.644938012,41.02503821],[-74.644881268,41.025082973],[-74.644846328,41.025120161],[-74.644846306,41.025120188],[-74.644778004,41.025244515],[-74.644753024,41.02530577],[-74.64474684,41.025380369],[-74.644728027,41.025410177],[-74.644704474,41.025430459],[-74.644651059,41.025462692],[-74.644553897,41.025517869],[-74.644553871,41.025517898],[-74.644509616,41.02558163],[-74.644414198,41.025753423],[-74.644324826,41.025911051],[-74.644269915,41.025980218],[-74.644134937,41.026123349],[-74.644109686,41.026120484],[-74.644082816,41.026151495],[-74.64398431,41.026304623],[-74.643844734,41.026504946],[-74.643759355,41.026594876],[-74.643759333,41.026594898],[-74.643680062,41.026671071],[-74.643647041,41.026745845],[-74.643620397,41.026792341],[-74.643546625,41.02686868],[-74.643469762,41.026971232],[-74.64334138,41.02710743],[-74.643325142,41.027130358],[-74.64329788,41.027168837],[-74.643173158,41.027307933],[-74.643173127,41.02730796],[-74.643129246,41.027369567],[-74.643118303,41.027401748],[-74.643112075,41.027431539],[-74.643104265,41.027457759],[-74.643091709,41.027470879],[-74.643090166,41.027485177],[-74.643079198,41.027505444],[-74.64305633,41.027550202],[-74.643037026,41.027646076],[-74.643041968,41.027748526],[-74.643034184,41.027786659],[-74.643024818,41.027820029],[-74.6430212,41.027836364],[-74.642988666,41.027905442],[-74.642876868,41.028073699],[-74.642876852,41.028073724],[-74.642755709,41.028249076],[-74.642650796,41.028367773],[-74.642561004,41.028455497],[-74.642543784,41.028474965],[-74.642430384,41.028627023],[-74.642423704,41.028639123],[-74.64241468,41.028671411],[-74.642403714,41.028692868],[-74.6423943,41.028704794],[-74.6423746,41.028717632],[-74.642311597,41.028753111],[-74.64222968,41.028802158],[-74.642157543,41.02884534],[-74.64213092,41.028863949],[-74.642099203,41.02888611],[-74.642061881,41.028921561],[-74.642017599,41.028988832],[-74.641971362,41.029066271],[-74.641971067,41.029066765],[-74.641971052,41.029066791],[-74.641895455,41.029218162],[-74.641895438,41.029218196],[-74.6418116,41.029365165],[-74.641737081,41.029492702],[-74.641669413,41.029608733],[-74.641616107,41.029694576],[-74.641609878,41.029724368],[-74.641613132,41.0297744],[-74.641603734,41.029793474],[-74.641537874,41.029894819],[-74.641522221,41.029931771],[-74.641519171,41.029977046],[-74.641519258,41.030017552],[-74.641511524,41.030079512],[-74.64150999,41.030097383],[-74.641500578,41.030110501],[-74.641473557,41.030145825],[-74.641466258,41.030155825],[-74.641461656,41.030187687],[-74.641461732,41.030224837],[-74.64145947,41.030263771],[-74.641438533,41.030315099],[-74.641422624,41.030340738],[-74.641386371,41.03040967],[-74.64135341,41.030445451],[-74.641337689,41.030451427],[-74.641327068,41.030452998],[-74.641288934,41.030458635],[-74.641266926,41.030467001],[-74.64125123,41.030483699],[-74.64124704,41.030489176],[-74.641212008,41.030534976],[-74.641188475,41.03056598],[-74.641160209,41.030591033],[-74.641098998,41.030659015],[-74.64108329,41.030670948],[-74.641033076,41.030731768],[-74.641005011,41.030850938],[-74.640976886,41.030941515],[-74.640977021,41.031004657],[-74.640979213,41.031007673],[-74.641003846,41.031041556],[-74.641010184,41.031062992],[-74.641011795,41.031080861],[-74.64099025,41.031306053],[-74.640988804,41.031365623],[-74.640993582,41.031393018],[-74.640999934,41.031420411],[-74.641025345,41.031456828],[-74.641076814,41.031482428],[-74.641159227,41.031526228],[-74.641330099,41.031617054],[-74.641398421,41.031653945],[-74.6414658,41.031690366],[-74.641736673,41.031844422],[-74.64180861,41.03188338],[-74.641881737,41.031922996],[-74.641915685,41.031943706],[-74.64193673,41.031956555],[-74.641950747,41.031960959],[-74.64195661,41.031960956],[-74.641988127,41.031943223],[-74.642011474,41.0319361],[-74.64204653,41.031932509],[-74.642057839,41.031934016],[-74.642066405,41.031935155],[-74.642093267,41.031945766],[-74.642117869,41.031964294],[-74.642136604,41.031986364],[-74.642136623,41.031986387],[-74.642154197,41.032010245],[-74.642174121,41.032032363],[-74.642194036,41.032060647],[-74.642200033,41.032076681],[-74.642204611,41.032088957],[-74.642212868,41.032126965],[-74.642212874,41.032126995],[-74.64222231,41.0321606],[-74.642222323,41.032160634],[-74.64223405,41.032190674],[-74.64223407,41.032190697],[-74.64227739,41.0322331],[-74.64232535,41.032263127],[-74.642664062,41.032443665],[-74.642697932,41.032457767],[-74.642697963,41.032457778],[-74.642762275,41.032479823],[-74.642809057,41.032492157],[-74.643007597,41.032532208],[-74.643111543,41.032582115],[-74.643165082,41.032603493],[-74.643205993,41.032605825],[-74.643268062,41.032649529],[-74.643291843,41.032675072],[-74.643328933,41.032714966],[-74.643340676,41.032734363],[-74.643340688,41.032734388],[-74.643345406,41.032753842],[-74.643316466,41.03287423],[-74.643315394,41.032921139],[-74.643315404,41.032921165],[-74.643337665,41.032954728],[-74.643345052,41.032963258],[-74.643352334,41.032971699],[-74.643374136,41.032996847],[-74.643390121,41.0330153],[-74.643423733,41.033046232],[-74.643434576,41.033049381],[-74.643441889,41.033051526],[-74.643488748,41.033030061],[-74.643502483,41.033019629],[-74.643506063,41.033016916],[-74.643514734,41.033010365],[-74.643528468,41.033008022],[-74.643543743,41.03300916],[-74.643549064,41.033012488],[-74.64355296,41.033014933],[-74.64357134,41.033036904],[-74.643588252,41.033060038],[-74.6436011,41.033068302],[-74.643615267,41.033077432],[-74.643622473,41.033077823],[-74.643631579,41.033079332],[-74.643643525,41.033081326],[-74.643692246,41.033081265],[-74.643739334,41.033081233],[-74.643907672,41.033102238],[-74.643942959,41.033109612],[-74.644046452,41.033163167],[-74.64410946,41.033197637],[-74.644151985,41.033219029],[-74.644216541,41.033241583],[-74.644260038,41.033228031],[-74.644277222,41.033229197],[-74.644401187,41.033264438],[-74.644553878,41.033307657],[-74.644645574,41.033341115],[-74.644711059,41.033360496],[-74.644969453,41.033417697],[-74.645065319,41.033437036],[-74.645172855,41.033449296],[-74.645285074,41.033472162],[-74.645311699,41.03347445],[-74.645345864,41.033477377],[-74.645415948,41.033473762],[-74.645535128,41.033455909],[-74.645573058,41.033448371],[-74.645642595,41.033434555],[-74.645752401,41.033418499],[-74.645868067,41.033396233],[-74.645911012,41.033381042],[-74.645933432,41.03337312],[-74.645933471,41.033373101],[-74.64602605,41.033327465],[-74.646088869,41.033276158],[-74.64614538,41.03321771],[-74.646172074,41.033193848],[-74.646221255,41.033167353],[-74.646253135,41.033156832],[-74.646291751,41.03314603],[-74.646323209,41.033137243],[-74.646407279,41.033108824],[-74.646484334,41.033071564],[-74.646573073,41.033039578],[-74.64667115,41.033005835],[-74.646773933,41.032979166],[-74.646827652,41.032959633],[-74.646853065,41.032944113],[-74.646898834,41.032916177],[-74.646959539,41.032887776],[-74.647017881,41.032852305],[-74.647087929,41.032815065],[-74.647167323,41.0327831],[-74.647225668,41.032752966],[-74.647319067,41.032710357],[-74.647393744,41.032673095],[-74.647445138,41.032644707],[-74.647473067,41.032629198],[-74.647505801,41.032611032],[-74.647581252,41.032582748],[-74.64763417,41.032562925],[-74.647694992,41.032547043],[-74.647741972,41.03253753],[-74.647787263,41.032528357],[-74.647843328,41.03251943],[-74.647892397,41.032514043],[-74.647936801,41.032513996],[-74.647988225,41.03251393],[-74.648010712,41.032512279],[-74.648037384,41.032510308],[-74.648074253,41.032507584],[-74.648093119,41.032501603],[-74.64811355,41.032492046],[-74.648158722,41.032457092],[-74.648207737,41.032434023],[-74.648235303,41.032425771],[-74.648273129,41.032414459],[-74.648329595,41.032402166],[-74.648338537,41.032400222],[-74.648351163,41.03239897],[-74.648373226,41.032396787],[-74.648410991,41.032393041],[-74.648469404,41.032392969],[-74.64850914,41.032394696],[-74.648537196,41.032396427],[-74.648572268,41.032405231],[-74.648621374,41.032415784],[-74.648675144,41.032424561],[-74.648719541,41.0324245],[-74.648759274,41.032424443],[-74.648781476,41.032427786],[-74.648806069,41.032431499],[-74.648827572,41.032435327],[-74.648855139,41.032440245],[-74.648895656,41.03244338],[-74.648895725,41.032443385],[-74.648872786,41.032250637],[-74.648857615,41.032250439],[-74.648837192,41.032247372],[-74.648796829,41.032231051],[-74.648796798,41.032231035],[-74.648771074,41.03221604],[-74.648750604,41.032201488],[-74.648666263,41.032102501],[-74.648666244,41.032102479],[-74.648610602,41.032034832],[-74.648523324,41.031943374],[-74.648474129,41.031893894],[-74.648442463,41.03184437],[-74.648436592,41.031824907],[-74.648436588,41.031817837],[-74.648438815,41.031814433],[-74.648441216,41.031810761],[-74.64844266,41.031810213],[-74.648450536,41.031807232],[-74.648473925,41.031803635],[-74.648513668,41.031798298],[-74.648579074,41.031796425],[-74.648631676,41.031794575],[-74.648714641,41.031799787],[-74.648767669,41.031807539],[-74.648804659,41.031812956],[-74.648866608,41.031824365],[-74.648948466,41.031849033],[-74.648983535,41.031866699],[-74.649093569,41.031940874],[-74.6490936,41.0319409],[-74.649124036,41.031970921],[-74.649146089,41.032005696],[-74.649149806,41.032011563],[-74.649149819,41.032011593],[-74.649156882,41.032039898],[-74.649156939,41.032059366],[-74.64914532,41.032082373],[-74.649103332,41.032123155],[-74.649068333,41.03215504],[-74.649019327,41.032174575],[-74.648981377,41.032194541],[-74.648964863,41.032208072],[-74.648951615,41.032218906],[-74.648914297,41.032243737],[-74.648911588,41.032244486],[-74.648933489,41.032446826],[-74.649012936,41.032456898],[-74.649083073,41.032465629],[-74.649141479,41.032465558],[-74.649218601,41.032458371],[-74.649279331,41.032438827],[-74.649260545,41.032401689],[-74.64925955,41.032396465],[-74.649258187,41.032389297],[-74.649258135,41.032369834],[-74.649262768,41.032352124],[-74.649276753,41.032341495],[-74.649280554,41.032338614],[-74.649288452,41.032332631],[-74.649311793,41.032321976],[-74.649353802,41.032309565],[-74.649400067,41.032295004],[-74.649415789,41.032290218],[-74.649460516,41.032293591],[-74.649489335,41.032302299],[-74.649518496,41.03231033],[-74.649559516,41.032321661],[-74.649613341,41.032356976],[-74.649634451,41.03238527],[-74.649634473,41.032385297],[-74.649667267,41.032427703],[-74.649667329,41.032454243],[-74.649665067,41.032487886],[-74.649634859,41.032562238],[-74.649623203,41.032579959],[-74.649609202,41.032587032],[-74.649569465,41.032587108],[-74.649518011,41.03257124],[-74.649503618,41.032585836],[-74.649483037,41.032606686],[-74.64956573,41.032658272],[-74.649574521,41.032649683],[-74.649664017,41.032707704],[-74.649608887,41.032761398],[-74.649582407,41.0327974],[-74.649524323,41.032773178],[-74.6494891,41.032825498],[-74.649697668,41.032963032],[-74.649826403,41.033035432],[-74.649882536,41.033065432],[-74.649893186,41.033085428],[-74.649896655,41.033091959],[-74.649903732,41.033125573],[-74.649903769,41.033143263],[-74.649901472,41.0331645],[-74.649901528,41.033185756],[-74.649901579,41.033210519],[-74.649902887,41.033219271],[-74.649903949,41.033226437],[-74.649976522,41.033265292],[-74.649999145,41.033243783],[-74.650013814,41.033229839],[-74.650041816,41.033215636],[-74.650060525,41.033210309],[-74.650079204,41.033208508],[-74.650107267,41.033210242],[-74.650137667,41.033222594],[-74.650151076,41.033235743],[-74.650161085,41.033245569],[-74.650191535,41.033284499],[-74.650198534,41.033309339],[-74.650200994,41.03331809],[-74.650194075,41.033360572],[-74.650287598,41.033372834],[-74.650257454,41.033471967],[-74.65022031,41.033465954],[-74.65017093,41.033457937],[-74.650170927,41.033457964],[-74.650163936,41.033480966],[-74.650133741,41.033555308],[-74.650106883,41.033580273],[-74.650091784,41.033594304],[-74.650040409,41.033619157],[-74.649998349,41.033629826],[-74.649942274,41.033629898],[-74.649907195,41.033621093],[-74.64990036,41.033615127],[-74.6498627,41.033582218],[-74.64985328,41.033555691],[-74.649853195,41.033511436],[-74.64986007,41.033451263],[-74.649860077,41.033451234],[-74.649866798,41.033431385],[-74.649878656,41.033396367],[-74.649893666,41.033359734],[-74.649913483,41.03331137],[-74.64991581,41.033295438],[-74.64990641,41.033281303],[-74.649862002,41.033260099],[-74.649812869,41.033244232],[-74.649770796,41.03324431],[-74.649698393,41.033265639],[-74.649665668,41.033270979],[-74.649624735,41.033268365],[-74.649489136,41.033236707],[-74.649355869,41.033217426],[-74.649318477,41.033219235],[-74.649292793,41.033224572],[-74.64897525,41.033364804],[-74.648955395,41.033371027],[-74.64874493,41.033312892],[-74.648691135,41.033295232],[-74.648692389,41.033269969],[-74.648587088,41.033274427],[-74.648550814,41.03327244],[-74.648452705,41.033281412],[-74.648256483,41.033367745],[-74.648192882,41.033406188],[-74.648173525,41.033417888],[-74.648090708,41.033532365],[-74.64804446,41.033668001],[-74.648041941,41.033675389],[-74.64804587,41.033881476],[-74.648060268,41.033911099],[-74.648081402,41.033944699],[-74.648118218,41.033984592],[-74.648156388,41.034025974],[-74.648278187,41.034142629],[-74.648314473,41.034177092],[-74.648340303,41.034228377],[-74.648375458,41.034265499],[-74.648401188,41.034277856],[-74.648438603,41.034288428],[-74.648464335,41.034295499],[-74.64849745,41.03430614],[-74.64850173,41.034297176],[-74.6486212,41.034356574],[-74.648699611,41.034393671],[-74.648756693,41.034420677],[-74.648823017,41.034470094],[-74.648911281,41.034542662],[-74.648939943,41.034561083],[-74.648974478,41.034583293],[-74.649035329,41.034616827],[-74.64913008,41.03466537],[-74.649153464,41.034674173],[-74.649153494,41.034674189],[-74.64918387,41.034675912],[-74.649203294,41.034675899],[-74.649228269,41.034675899],[-74.649277341,41.034666956],[-74.649369126,41.034681359],[-74.649459756,41.03473011],[-74.649630839,41.03478372],[-74.649713895,41.034809746],[-74.649829667,41.034857194],[-74.649894908,41.034905076],[-74.649894939,41.034905094],[-74.649959274,41.034941265],[-74.650097262,41.034983565],[-74.650242288,41.035032923]],[[-74.650688052,41.028865701],[-74.650705112,41.028872343],[-74.650727742,41.028881157],[-74.650739274,41.028887911],[-74.650757269,41.028908231],[-74.650766255,41.02892956],[-74.650768859,41.028947965],[-74.650770203,41.028968298],[-74.650767736,41.029007098],[-74.650760202,41.029072965],[-74.650760202,41.029085973],[-74.650760215,41.029094304],[-74.650760267,41.029113691],[-74.650745076,41.029283596],[-74.650743765,41.029298265],[-74.650724601,41.029338388],[-74.650676545,41.029374905],[-74.650628439,41.029389551],[-74.650553836,41.029395116],[-74.650453809,41.029398975],[-74.650420047,41.029390558],[-74.650370586,41.029378226],[-74.650329628,41.029354453],[-74.650282235,41.029268737],[-74.650285203,41.029190104],[-74.65031957,41.029082837],[-74.650387421,41.028987729],[-74.650401618,41.028967829],[-74.650416936,41.028956164],[-74.65044635,41.028942567],[-74.650465534,41.028930909],[-74.650489803,41.028921165],[-74.650509002,41.028914365],[-74.650517589,41.028911587],[-74.650526904,41.028908549],[-74.650536389,41.028903261],[-74.650546069,41.028897831],[-74.650565335,41.028889414],[-74.650579325,41.028883291],[-74.650598098,41.028877398],[-74.650622802,41.028869631],[-74.650656064,41.028864775],[-74.650688052,41.028865701]]]},"properties":{"OBJECTID":9997,"COMID":null,"PERMANENT_IDENTIFIER":"61772655","GNIS_ID":"00878426","GNIS_NAME":"Lake Mohawk","AREASQKM":3.0690812900000002,"REACHCODE":"02020007001513","FTYPE_DISPLAY":"Lake/Pond","HU8":"02020007","WATERBODY_NAME":"Lake Mohawk","FEATURE_ID":878426,"FEATURE_NAME":"Lake Mohawk","FEATURE_CLASS":"Reservoir","LEVELELEV":null,"GLOBALID":"{4E3E1D78-C009-44E9-9641-0A9976001B39}"}}]}